<?xml version="1.0" encoding="UTF-8" standalone="yes"?>
<gpx xmlns="http://www.topografix.com/GPX/1/1" xmlns:xsi="http://www.w3.org/2001/XMLSchema-instance" version="1.1" creator="IsraelHikingMap" xsi:schemaLocation="http://www.topografix.com/GPX/1/1 http://www.topografix.com/GPX/1/1/gpx.xsd">
  <metadata>
    <bounds maxlat="32.684868" maxlon="35.532415" minlat="32.654264" minlon="35.43691714612319"></bounds>
  </metadata>
  <trk>
    <name>10 - יבניאל לנחל תבור</name>
    <desc>🏞️ קושי: בינוני | גליל תחתון
🥾 עין סאני, מצפה אלות (&quot;החללית&quot;) , עין אולם, תל רכש, נחל תבור.
💦 טבילה: עין סאני, עין אולם
⛺ לילה: חניון מעלה קיש
🛏️ מתקני לינה: חניון מעלה קיש — אין מים, רק ספסלים. אפשר להצטייד קרוב בכפר קיש.
🛒 קניות בקרבת המסלול:
• כפר קיש — א׳-ה׳: 07:00-20:00 | ו׳: 07:00-20:00 | שבת: 08:00-20:00 | מרכז הכפר</desc>
    <trkseg>
      <trkpt lat="32.684868" lon="35.530394">
        <ele>-13.9</ele>
      </trkpt>
      <trkpt lat="32.684868" lon="35.530394">
        <ele>-13.9</ele>
      </trkpt>
      <extensions>
        <RoutingType xmlns="">Hike</RoutingType>
      </extensions>
    </trkseg>
    <trkseg>
      <trkpt lat="32.684868" lon="35.530394">
        <ele>-13.9</ele>
      </trkpt>
      <trkpt lat="32.684794" lon="35.530394">
        <ele>-13.241726034219607</ele>
      </trkpt>
      <trkpt lat="32.684569" lon="35.530395">
        <ele>-11.28350279284301</ele>
      </trkpt>
      <trkpt lat="32.684283" lon="35.530463">
        <ele>-9.064554836513526</ele>
      </trkpt>
      <trkpt lat="32.684121" lon="35.530522">
        <ele>-7.6200883695994746</ele>
      </trkpt>
      <trkpt lat="32.683965" lon="35.530547">
        <ele>-6.197993680936566</ele>
      </trkpt>
      <trkpt lat="32.683874" lon="35.530537">
        <ele>-5.351166483174881</ele>
      </trkpt>
      <trkpt lat="32.683753" lon="35.530469">
        <ele>-3.757362928201357</ele>
      </trkpt>
      <trkpt lat="32.683694" lon="35.530421">
        <ele>-2.697211268781044</ele>
      </trkpt>
      <trkpt lat="32.683526" lon="35.530287">
        <ele>0.578536200092812</ele>
      </trkpt>
      <trkpt lat="32.683249" lon="35.530133">
        <ele>6.551724354813567</ele>
      </trkpt>
      <trkpt lat="32.683192" lon="35.530118">
        <ele>7.763511891276419</ele>
      </trkpt>
      <trkpt lat="32.682959" lon="35.530173">
        <ele>11.876370768079774</ele>
      </trkpt>
      <trkpt lat="32.682818" lon="35.530171">
        <ele>13.912454556459647</ele>
      </trkpt>
      <trkpt lat="32.682449" lon="35.530124">
        <ele>18.299995197941904</ele>
      </trkpt>
      <trkpt lat="32.682388" lon="35.530122">
        <ele>18.95592422974016</ele>
      </trkpt>
      <trkpt lat="32.682228" lon="35.530848">
        <ele>22.2680378584655</ele>
      </trkpt>
      <trkpt lat="32.682078" lon="35.531262">
        <ele>25.735012319577987</ele>
      </trkpt>
      <trkpt lat="32.681937" lon="35.531653">
        <ele>29.49577984522323</ele>
      </trkpt>
      <trkpt lat="32.681796" lon="35.532043">
        <ele>30.90407395611468</ele>
      </trkpt>
      <trkpt lat="32.681627" lon="35.532415">
        <ele>32.7717232383431</ele>
      </trkpt>
      <trkpt lat="32.681127" lon="35.532053">
        <ele>40.71755656322595</ele>
      </trkpt>
      <trkpt lat="32.680932" lon="35.531887">
        <ele>44.9347795606099</ele>
      </trkpt>
      <trkpt lat="32.680828" lon="35.531777">
        <ele>47.41204965751917</ele>
      </trkpt>
      <trkpt lat="32.680654" lon="35.531549">
        <ele>52.106601350402606</ele>
      </trkpt>
      <trkpt lat="32.680599" lon="35.531155">
        <ele>55.5625256567437</ele>
      </trkpt>
      <trkpt lat="32.680467" lon="35.531095">
        <ele>59.38657632831777</ele>
      </trkpt>
      <trkpt lat="32.680217" lon="35.530867">
        <ele>67.75480755105673</ele>
      </trkpt>
      <trkpt lat="32.680049" lon="35.530816">
        <ele>71.96663982230632</ele>
      </trkpt>
      <trkpt lat="32.679948" lon="35.530738">
        <ele>74.7795559543247</ele>
      </trkpt>
      <trkpt lat="32.679859" lon="35.530695">
        <ele>77.5549250240174</ele>
      </trkpt>
      <trkpt lat="32.679754" lon="35.530686">
        <ele>80.87157214553923</ele>
      </trkpt>
      <trkpt lat="32.679626" lon="35.530717">
        <ele>84.70844459638482</ele>
      </trkpt>
      <trkpt lat="32.679571" lon="35.530706">
        <ele>85.96947135933614</ele>
      </trkpt>
      <trkpt lat="32.679491" lon="35.53069">
        <ele>87.80369214386711</ele>
      </trkpt>
      <trkpt lat="32.679251" lon="35.53053">
        <ele>95.50620546388058</ele>
      </trkpt>
      <trkpt lat="32.679143" lon="35.530507">
        <ele>99.00780688378403</ele>
      </trkpt>
      <trkpt lat="32.67895" lon="35.530527">
        <ele>106.26031455761712</ele>
      </trkpt>
      <trkpt lat="32.678873" lon="35.530483">
        <ele>109.38240889135648</ele>
      </trkpt>
      <trkpt lat="32.678689" lon="35.530301">
        <ele>117.54669568944912</ele>
      </trkpt>
      <trkpt lat="32.678451" lon="35.53012">
        <ele>120.12185605240687</ele>
      </trkpt>
      <trkpt lat="32.678362" lon="35.529973">
        <ele>120.74327816581292</ele>
      </trkpt>
      <trkpt lat="32.678276" lon="35.529889">
        <ele>121.19719973847586</ele>
      </trkpt>
      <trkpt lat="32.678105" lon="35.529579">
        <ele>124.68417834966395</ele>
      </trkpt>
      <trkpt lat="32.677769" lon="35.529238">
        <ele>136.908598138631</ele>
      </trkpt>
      <trkpt lat="32.67763" lon="35.529135">
        <ele>141.25296429168014</ele>
      </trkpt>
      <trkpt lat="32.677561" lon="35.529031">
        <ele>143.89705293086013</ele>
      </trkpt>
      <trkpt lat="32.677467" lon="35.528936">
        <ele>146.60898030485316</ele>
      </trkpt>
      <trkpt lat="32.677215" lon="35.528771">
        <ele>153.0517156178428</ele>
      </trkpt>
      <trkpt lat="32.676786" lon="35.528352">
        <ele>168.476375397035</ele>
      </trkpt>
      <trkpt lat="32.676488" lon="35.528122">
        <ele>177.32708488591823</ele>
      </trkpt>
      <trkpt lat="32.676366" lon="35.528057">
        <ele>179.55930446532506</ele>
      </trkpt>
      <trkpt lat="32.676283" lon="35.528026">
        <ele>180.4300115772482</ele>
      </trkpt>
      <trkpt lat="32.67606" lon="35.52801">
        <ele>182.62999106375247</ele>
      </trkpt>
      <trkpt lat="32.675879" lon="35.527928">
        <ele>184.68601493542627</ele>
      </trkpt>
      <trkpt lat="32.675733" lon="35.527886">
        <ele>187.52563094132705</ele>
      </trkpt>
      <trkpt lat="32.675601" lon="35.52787">
        <ele>190.18292815628152</ele>
      </trkpt>
      <trkpt lat="32.675282" lon="35.527902">
        <ele>196.60147828159194</ele>
      </trkpt>
      <trkpt lat="32.675255" lon="35.527908">
        <ele>196.8967306597929</ele>
      </trkpt>
      <extensions>
        <RoutingType xmlns="">Hike</RoutingType>
      </extensions>
    </trkseg>
    <trkseg>
      <trkpt lat="32.675255" lon="35.527908">
        <ele>198.6</ele>
      </trkpt>
      <trkpt lat="32.675039" lon="35.527959">
        <ele>202.76293694613307</ele>
      </trkpt>
      <trkpt lat="32.674907" lon="35.527963">
        <ele>205.25896270025828</ele>
      </trkpt>
      <trkpt lat="32.674636" lon="35.527922">
        <ele>210.42308595853567</ele>
      </trkpt>
      <trkpt lat="32.674167" lon="35.528015">
        <ele>216.46774050296355</ele>
      </trkpt>
      <trkpt lat="32.673856" lon="35.528148">
        <ele>216.06942173434496</ele>
      </trkpt>
      <trkpt lat="32.673692" lon="35.528189">
        <ele>216.00730379499433</ele>
      </trkpt>
      <trkpt lat="32.673608" lon="35.528186">
        <ele>217.02532857553183</ele>
      </trkpt>
      <trkpt lat="32.673452" lon="35.528077">
        <ele>219.90980527691397</ele>
      </trkpt>
      <trkpt lat="32.672964" lon="35.527867">
        <ele>225.69964683110507</ele>
      </trkpt>
      <trkpt lat="32.672725" lon="35.527852">
        <ele>226.83616551270535</ele>
      </trkpt>
      <trkpt lat="32.672567" lon="35.527921">
        <ele>227.81932590259802</ele>
      </trkpt>
      <trkpt lat="32.672502" lon="35.527922">
        <ele>228.25302247963185</ele>
      </trkpt>
      <trkpt lat="32.67246" lon="35.527895">
        <ele>228.57163018382934</ele>
      </trkpt>
      <trkpt lat="32.672373" lon="35.527754">
        <ele>230.2298685683082</ele>
      </trkpt>
      <trkpt lat="32.672255" lon="35.527768">
        <ele>231.9880385856856</ele>
      </trkpt>
      <trkpt lat="32.67216" lon="35.527762">
        <ele>233.4682336843534</ele>
      </trkpt>
      <trkpt lat="32.672016" lon="35.527717">
        <ele>236.06213262564864</ele>
      </trkpt>
      <trkpt lat="32.671956" lon="35.527688">
        <ele>237.1905640412872</ele>
      </trkpt>
      <trkpt lat="32.671811" lon="35.527784">
        <ele>239.6261459690804</ele>
      </trkpt>
      <trkpt lat="32.67162" lon="35.528122">
        <ele>242.89867541760387</ele>
      </trkpt>
      <trkpt lat="32.671452" lon="35.528586">
        <ele>248.59432108232136</ele>
      </trkpt>
      <trkpt lat="32.671307" lon="35.528717">
        <ele>251.79584226942802</ele>
      </trkpt>
      <trkpt lat="32.671118" lon="35.528858">
        <ele>254.6083575273451</ele>
      </trkpt>
      <trkpt lat="32.670911" lon="35.528878">
        <ele>257.5381930018786</ele>
      </trkpt>
      <trkpt lat="32.670739" lon="35.528856">
        <ele>260.1454338225408</ele>
      </trkpt>
      <trkpt lat="32.670582" lon="35.528804">
        <ele>262.74312583090074</ele>
      </trkpt>
      <trkpt lat="32.670504" lon="35.528734">
        <ele>263.71908619242515</ele>
      </trkpt>
      <trkpt lat="32.670445" lon="35.528668">
        <ele>264.2597693963527</ele>
      </trkpt>
      <extensions>
        <RoutingType xmlns="">Hike</RoutingType>
      </extensions>
    </trkseg>
    <trkseg>
      <trkpt lat="32.670445" lon="35.528668">
        <ele>265.1</ele>
      </trkpt>
      <trkpt lat="32.670422" lon="35.528643">
        <ele>265.1924400633077</ele>
      </trkpt>
      <trkpt lat="32.67038" lon="35.528548">
        <ele>265.4602814181734</ele>
      </trkpt>
      <trkpt lat="32.670409" lon="35.528396">
        <ele>265.84930735266136</ele>
      </trkpt>
      <trkpt lat="32.670508" lon="35.528305">
        <ele>266.18041870439305</ele>
      </trkpt>
      <trkpt lat="32.670644" lon="35.527981">
        <ele>266.4939569521511</ele>
      </trkpt>
      <trkpt lat="32.670732" lon="35.527767">
        <ele>266.18134224236644</ele>
      </trkpt>
      <trkpt lat="32.670796" lon="35.527396">
        <ele>266.05492778332695</ele>
      </trkpt>
      <trkpt lat="32.670869" lon="35.527048">
        <ele>267.1739198010219</ele>
      </trkpt>
      <trkpt lat="32.670976" lon="35.526941">
        <ele>267.7477172640673</ele>
      </trkpt>
      <trkpt lat="32.67093" lon="35.526888">
        <ele>268.12774697020836</ele>
      </trkpt>
      <trkpt lat="32.670984" lon="35.526688">
        <ele>269.1762713056263</ele>
      </trkpt>
      <trkpt lat="32.670983" lon="35.526563">
        <ele>271.7513334486999</ele>
      </trkpt>
      <trkpt lat="32.670857" lon="35.526437">
        <ele>275.9024373230279</ele>
      </trkpt>
      <trkpt lat="32.670536" lon="35.526259">
        <ele>281.7376169894328</ele>
      </trkpt>
      <trkpt lat="32.670286" lon="35.526206">
        <ele>282.9040238791754</ele>
      </trkpt>
      <trkpt lat="32.670086" lon="35.526192">
        <ele>282.60698973200334</ele>
      </trkpt>
      <trkpt lat="32.669592" lon="35.526052">
        <ele>285.3433461317721</ele>
      </trkpt>
      <trkpt lat="32.669397" lon="35.525946">
        <ele>288.0411221176103</ele>
      </trkpt>
      <trkpt lat="32.669325" lon="35.525813">
        <ele>290.26480268134276</ele>
      </trkpt>
      <trkpt lat="32.669045" lon="35.525084">
        <ele>304.9664894396259</ele>
      </trkpt>
      <trkpt lat="32.6689" lon="35.524707">
        <ele>311.5274229897821</ele>
      </trkpt>
      <trkpt lat="32.66872" lon="35.524525">
        <ele>314.1034885394164</ele>
      </trkpt>
      <trkpt lat="32.668622" lon="35.524357">
        <ele>316.0272827645933</ele>
      </trkpt>
      <trkpt lat="32.668259" lon="35.524064">
        <ele>323.8311696791269</ele>
      </trkpt>
      <trkpt lat="32.66804" lon="35.523641">
        <ele>334.04677775273393</ele>
      </trkpt>
      <trkpt lat="32.667997" lon="35.523559">
        <ele>336.24725537661624</ele>
      </trkpt>
      <trkpt lat="32.667997" lon="35.523399">
        <ele>340.98464122759435</ele>
      </trkpt>
      <trkpt lat="32.668067" lon="35.523266">
        <ele>345.78091642295993</ele>
      </trkpt>
      <trkpt lat="32.668128" lon="35.52323">
        <ele>346.5537256430131</ele>
      </trkpt>
      <trkpt lat="32.668192" lon="35.523223">
        <ele>346.62519140724015</ele>
      </trkpt>
      <trkpt lat="32.668277" lon="35.523232">
        <ele>346.7200817998032</ele>
      </trkpt>
      <trkpt lat="32.668339" lon="35.523254">
        <ele>346.7920325932153</ele>
      </trkpt>
      <trkpt lat="32.668511" lon="35.523412">
        <ele>343.29299335893654</ele>
      </trkpt>
      <trkpt lat="32.668606" lon="35.523463">
        <ele>341.91880006740985</ele>
      </trkpt>
      <trkpt lat="32.668776" lon="35.523471">
        <ele>340.4684228224867</ele>
      </trkpt>
      <trkpt lat="32.669138" lon="35.523388">
        <ele>339.48142679608486</ele>
      </trkpt>
      <trkpt lat="32.669947" lon="35.523021">
        <ele>343.633443320947</ele>
      </trkpt>
      <trkpt lat="32.670291" lon="35.522824">
        <ele>345.8033005157739</ele>
      </trkpt>
      <extensions>
        <RoutingType xmlns="">Hike</RoutingType>
      </extensions>
    </trkseg>
    <trkseg>
      <trkpt lat="32.670291" lon="35.522824">
        <ele>346.1</ele>
      </trkpt>
      <trkpt lat="32.670491" lon="35.52271">
        <ele>346.92221693639584</ele>
      </trkpt>
      <trkpt lat="32.670584" lon="35.522627">
        <ele>347.12533608257456</ele>
      </trkpt>
      <trkpt lat="32.670775" lon="35.522375">
        <ele>347.44909709894597</ele>
      </trkpt>
      <trkpt lat="32.671083" lon="35.521908">
        <ele>349.94616283606405</ele>
      </trkpt>
      <trkpt lat="32.671403" lon="35.52148">
        <ele>351.4587774865051</ele>
      </trkpt>
      <trkpt lat="32.671681" lon="35.521026">
        <ele>354.14012626695006</ele>
      </trkpt>
      <trkpt lat="32.671886" lon="35.520749">
        <ele>354.3298245530912</ele>
      </trkpt>
      <trkpt lat="32.672131" lon="35.520472">
        <ele>355.08809185727773</ele>
      </trkpt>
      <trkpt lat="32.672453" lon="35.520177">
        <ele>357.1281686985076</ele>
      </trkpt>
      <trkpt lat="32.672786" lon="35.519878">
        <ele>357.0905860980857</ele>
      </trkpt>
      <trkpt lat="32.672997" lon="35.51972">
        <ele>358.26658407880325</ele>
      </trkpt>
      <trkpt lat="32.673281" lon="35.519552">
        <ele>360.22960969877863</ele>
      </trkpt>
      <trkpt lat="32.673413" lon="35.519499">
        <ele>360.4878328619444</ele>
      </trkpt>
      <trkpt lat="32.673612" lon="35.519448">
        <ele>360.1758185946312</ele>
      </trkpt>
      <trkpt lat="32.674032" lon="35.519318">
        <ele>358.4305369581097</ele>
      </trkpt>
      <trkpt lat="32.674209" lon="35.519189">
        <ele>358.045703269034</ele>
      </trkpt>
      <trkpt lat="32.674541" lon="35.518905">
        <ele>358.5849931590923</ele>
      </trkpt>
      <trkpt lat="32.6747" lon="35.518707">
        <ele>358.7</ele>
      </trkpt>
      <trkpt lat="32.674924" lon="35.518173">
        <ele>359.15607953484374</ele>
      </trkpt>
      <trkpt lat="32.674989" lon="35.517861">
        <ele>359.5857933852519</ele>
      </trkpt>
      <trkpt lat="32.675198" lon="35.51736">
        <ele>360.54375105263154</ele>
      </trkpt>
      <trkpt lat="32.675283" lon="35.516847">
        <ele>358.4181491883939</ele>
      </trkpt>
      <trkpt lat="32.67564" lon="35.516287">
        <ele>356.3606277818953</ele>
      </trkpt>
      <trkpt lat="32.675869" lon="35.515799">
        <ele>354.81969060115415</ele>
      </trkpt>
      <trkpt lat="32.67621" lon="35.514939">
        <ele>348.17084146564895</ele>
      </trkpt>
      <trkpt lat="32.676238" lon="35.51489">
        <ele>347.89368095486725</ele>
      </trkpt>
      <trkpt lat="32.676377" lon="35.514759">
        <ele>347.0381597007783</ele>
      </trkpt>
      <trkpt lat="32.676547" lon="35.51452">
        <ele>346.18096416699245</ele>
      </trkpt>
      <trkpt lat="32.676698" lon="35.514175">
        <ele>345.4841293339612</ele>
      </trkpt>
      <trkpt lat="32.676837" lon="35.513643">
        <ele>345.25674106773573</ele>
      </trkpt>
      <trkpt lat="32.676955" lon="35.513058">
        <ele>344.9538483080985</ele>
      </trkpt>
      <trkpt lat="32.676968" lon="35.51265">
        <ele>343.9942280828128</ele>
      </trkpt>
      <trkpt lat="32.676875" lon="35.512319">
        <ele>342.41460357339133</ele>
      </trkpt>
      <trkpt lat="32.676661" lon="35.512016">
        <ele>339.642623898383</ele>
      </trkpt>
      <trkpt lat="32.676651" lon="35.511939">
        <ele>339.1078637653276</ele>
      </trkpt>
      <extensions>
        <RoutingType xmlns="">Hike</RoutingType>
      </extensions>
    </trkseg>
    <trkseg>
      <trkpt lat="32.67643" lon="35.51198">
        <ele>338</ele>
        <time>2026-07-13T10:08:12Z</time>
      </trkpt>
      <trkpt lat="32.675720000000005" lon="35.51196">
        <ele>336</ele>
        <time>2026-07-13T10:08:13Z</time>
      </trkpt>
      <trkpt lat="32.675380000000004" lon="35.51187">
        <ele>336</ele>
        <time>2026-07-13T10:08:14Z</time>
      </trkpt>
      <trkpt lat="32.674960000000006" lon="35.51118">
        <ele>328</ele>
        <time>2026-07-13T10:08:15Z</time>
      </trkpt>
      <trkpt lat="32.674960000000006" lon="35.51118">
        <ele>327.53119765629526</ele>
        <time>2026-07-13T10:08:16Z</time>
      </trkpt>
      <trkpt lat="32.67468" lon="35.510580000000004">
        <ele>328</ele>
        <time>2026-07-13T10:08:17Z</time>
      </trkpt>
      <trkpt lat="32.67468" lon="35.510580000000004">
        <ele>323.00558687594696</ele>
        <time>2026-07-13T10:08:18Z</time>
      </trkpt>
      <trkpt lat="32.674350000000004" lon="35.510450000000006">
        <ele>321</ele>
        <time>2026-07-13T10:08:19Z</time>
      </trkpt>
      <trkpt lat="32.674350000000004" lon="35.510450000000006">
        <ele>320.90895975527985</ele>
        <time>2026-07-13T10:08:20Z</time>
      </trkpt>
      <trkpt lat="32.674350000000004" lon="35.510450000000006">
        <ele>320.90895975527985</ele>
        <time>2026-07-13T10:08:21Z</time>
      </trkpt>
      <trkpt lat="32.674260000000004" lon="35.510470000000005">
        <ele>321</ele>
        <time>2026-07-13T10:08:22Z</time>
      </trkpt>
      <trkpt lat="32.674260000000004" lon="35.510470000000005">
        <ele>321</ele>
        <time>2026-07-13T10:08:23Z</time>
      </trkpt>
      <trkpt lat="32.673860000000005" lon="35.510540000000006">
        <ele>321</ele>
        <time>2026-07-13T10:08:24Z</time>
      </trkpt>
      <trkpt lat="32.672070000000005" lon="35.51093">
        <ele>311</ele>
        <time>2026-07-13T10:08:25Z</time>
      </trkpt>
      <trkpt lat="32.672070000000005" lon="35.51093">
        <ele>310.2590010134422</ele>
        <time>2026-07-13T10:08:26Z</time>
      </trkpt>
      <trkpt lat="32.672070000000005" lon="35.51093">
        <ele>310.2590010134422</ele>
        <time>2026-07-13T10:08:27Z</time>
      </trkpt>
      <trkpt lat="32.67206" lon="35.510670000000005">
        <ele>311</ele>
        <time>2026-07-13T10:08:28Z</time>
      </trkpt>
      <trkpt lat="32.67287" lon="35.50949">
        <ele>306</ele>
        <time>2026-07-13T10:08:29Z</time>
      </trkpt>
      <trkpt lat="32.67287" lon="35.50949">
        <ele>302.7687545546418</ele>
        <time>2026-07-13T10:08:30Z</time>
      </trkpt>
      <trkpt lat="32.673120000000004" lon="35.50902">
        <ele>306</ele>
        <time>2026-07-13T10:08:31Z</time>
      </trkpt>
      <trkpt lat="32.673120000000004" lon="35.50902">
        <ele>301.7761471955693</ele>
        <time>2026-07-13T10:08:32Z</time>
      </trkpt>
      <trkpt lat="32.673120000000004" lon="35.50777">
        <ele>296</ele>
        <time>2026-07-13T10:08:33Z</time>
      </trkpt>
      <trkpt lat="32.67311" lon="35.507650000000005">
        <ele>296</ele>
        <time>2026-07-13T10:08:34Z</time>
      </trkpt>
      <trkpt lat="32.673170000000006" lon="35.507220000000004">
        <ele>296</ele>
        <time>2026-07-13T10:08:35Z</time>
      </trkpt>
      <trkpt lat="32.673170000000006" lon="35.507220000000004">
        <ele>294.44336546501546</ele>
        <time>2026-07-13T10:08:36Z</time>
      </trkpt>
      <trkpt lat="32.673170000000006" lon="35.507220000000004">
        <ele>294.44336546501546</ele>
        <time>2026-07-13T10:08:37Z</time>
      </trkpt>
      <trkpt lat="32.673120000000004" lon="35.506240000000005">
        <ele>292</ele>
        <time>2026-07-13T10:08:38Z</time>
      </trkpt>
      <trkpt lat="32.673080000000006" lon="35.50587">
        <ele>287</ele>
        <time>2026-07-13T10:08:39Z</time>
      </trkpt>
      <trkpt lat="32.673080000000006" lon="35.50587">
        <ele>282.8961037900299</ele>
        <time>2026-07-13T10:08:40Z</time>
      </trkpt>
      <trkpt lat="32.673100000000005" lon="35.50547">
        <ele>287</ele>
        <time>2026-07-13T10:08:41Z</time>
      </trkpt>
      <trkpt lat="32.67309" lon="35.5052">
        <ele>283</ele>
        <time>2026-07-13T10:08:42Z</time>
      </trkpt>
      <trkpt lat="32.67309" lon="35.5052">
        <ele>278.15634428408515</ele>
        <time>2026-07-13T10:08:43Z</time>
      </trkpt>
      <trkpt lat="32.67298" lon="35.50473">
        <ele>283</ele>
        <time>2026-07-13T10:08:44Z</time>
      </trkpt>
      <trkpt lat="32.67298" lon="35.50473">
        <ele>276.03987585403956</ele>
        <time>2026-07-13T10:08:45Z</time>
      </trkpt>
      <trkpt lat="32.67278" lon="35.50404">
        <ele>279</ele>
        <time>2026-07-13T10:08:46Z</time>
      </trkpt>
      <trkpt lat="32.67278" lon="35.50404">
        <ele>271.6824026167805</ele>
        <time>2026-07-13T10:08:47Z</time>
      </trkpt>
      <trkpt lat="32.67275" lon="35.503840000000004">
        <ele>265</ele>
        <time>2026-07-13T10:08:48Z</time>
      </trkpt>
      <trkpt lat="32.672700000000006" lon="35.50327">
        <ele>263</ele>
        <time>2026-07-13T10:08:49Z</time>
      </trkpt>
      <trkpt lat="32.672700000000006" lon="35.50327">
        <ele>264.8590510370911</ele>
        <time>2026-07-13T10:08:50Z</time>
      </trkpt>
      <trkpt lat="32.67266" lon="35.50302">
        <ele>263</ele>
        <time>2026-07-13T10:08:51Z</time>
      </trkpt>
      <trkpt lat="32.672610000000006" lon="35.50291">
        <ele>263</ele>
        <time>2026-07-13T10:08:52Z</time>
      </trkpt>
      <trkpt lat="32.67249" lon="35.502700000000004">
        <ele>259</ele>
        <time>2026-07-13T10:08:53Z</time>
      </trkpt>
      <trkpt lat="32.67249" lon="35.502700000000004">
        <ele>259.7124584261192</ele>
        <time>2026-07-13T10:08:54Z</time>
      </trkpt>
      <trkpt lat="32.67249" lon="35.502700000000004">
        <ele>259.7124584261192</ele>
        <time>2026-07-13T10:08:55Z</time>
      </trkpt>
      <trkpt lat="32.67226" lon="35.50235">
        <ele>259</ele>
        <time>2026-07-13T10:08:56Z</time>
      </trkpt>
      <trkpt lat="32.67226" lon="35.50235">
        <ele>255.12240409495996</ele>
        <time>2026-07-13T10:08:57Z</time>
      </trkpt>
      <trkpt lat="32.67219" lon="35.50222">
        <ele>259</ele>
        <time>2026-07-13T10:08:58Z</time>
      </trkpt>
      <trkpt lat="32.67197" lon="35.5017">
        <ele>254</ele>
        <time>2026-07-13T10:08:59Z</time>
      </trkpt>
      <trkpt lat="32.67197" lon="35.5017">
        <ele>248.49149013252463</ele>
        <time>2026-07-13T10:09:00Z</time>
      </trkpt>
      <trkpt lat="32.67188" lon="35.5013">
        <ele>241</ele>
        <time>2026-07-13T10:09:01Z</time>
      </trkpt>
      <trkpt lat="32.67188" lon="35.501180000000005">
        <ele>240</ele>
        <time>2026-07-13T10:09:02Z</time>
      </trkpt>
      <trkpt lat="32.67188" lon="35.501180000000005">
        <ele>246.76024223963364</ele>
        <time>2026-07-13T10:09:03Z</time>
      </trkpt>
      <trkpt lat="32.6719" lon="35.501070000000006">
        <ele>240</ele>
        <time>2026-07-13T10:09:04Z</time>
      </trkpt>
      <trkpt lat="32.671980000000005" lon="35.50085">
        <ele>249</ele>
        <time>2026-07-13T10:09:05Z</time>
      </trkpt>
      <trkpt lat="32.671980000000005" lon="35.50085">
        <ele>247.06601907975852</ele>
        <time>2026-07-13T10:09:06Z</time>
      </trkpt>
      <trkpt lat="32.671980000000005" lon="35.50085">
        <ele>247.06601907975852</ele>
        <time>2026-07-13T10:09:07Z</time>
      </trkpt>
      <trkpt lat="32.67222" lon="35.5003">
        <ele>243</ele>
        <time>2026-07-13T10:09:08Z</time>
      </trkpt>
      <trkpt lat="32.67224" lon="35.50019">
        <ele>243</ele>
        <time>2026-07-13T10:09:09Z</time>
      </trkpt>
      <trkpt lat="32.67224" lon="35.50019">
        <ele>244.01784392174764</ele>
        <time>2026-07-13T10:09:10Z</time>
      </trkpt>
      <trkpt lat="32.67226" lon="35.499840000000006">
        <ele>243</ele>
        <time>2026-07-13T10:09:11Z</time>
      </trkpt>
      <trkpt lat="32.67226" lon="35.499840000000006">
        <ele>242.74119928572327</ele>
        <time>2026-07-13T10:09:12Z</time>
      </trkpt>
      <trkpt lat="32.67226" lon="35.499840000000006">
        <ele>243</ele>
        <time>2026-07-13T10:09:13Z</time>
      </trkpt>
      <trkpt lat="32.67226" lon="35.499750000000006">
        <ele>243</ele>
        <time>2026-07-13T10:09:14Z</time>
      </trkpt>
      <trkpt lat="32.67224" lon="35.499660000000006">
        <ele>243</ele>
        <time>2026-07-13T10:09:15Z</time>
      </trkpt>
      <trkpt lat="32.672180000000004" lon="35.49954">
        <ele>238</ele>
        <time>2026-07-13T10:09:16Z</time>
      </trkpt>
      <trkpt lat="32.672180000000004" lon="35.49954">
        <ele>242.39638612169074</ele>
        <time>2026-07-13T10:09:17Z</time>
      </trkpt>
      <trkpt lat="32.672180000000004" lon="35.49954">
        <ele>242.39638612169074</ele>
        <time>2026-07-13T10:09:18Z</time>
      </trkpt>
      <trkpt lat="32.6721" lon="35.499480000000005">
        <ele>238</ele>
        <time>2026-07-13T10:09:19Z</time>
      </trkpt>
      <trkpt lat="32.6721" lon="35.499480000000005">
        <ele>241.94480680086417</ele>
        <time>2026-07-13T10:09:20Z</time>
      </trkpt>
      <trkpt lat="32.6721" lon="35.499480000000005">
        <ele>241.94480680086417</ele>
        <time>2026-07-13T10:09:21Z</time>
      </trkpt>
      <trkpt lat="32.67204" lon="35.499460000000006">
        <ele>238</ele>
        <time>2026-07-13T10:09:22Z</time>
      </trkpt>
      <trkpt lat="32.671910000000004" lon="35.49951">
        <ele>237</ele>
        <time>2026-07-13T10:09:23Z</time>
      </trkpt>
      <trkpt lat="32.67146" lon="35.499860000000005">
        <ele>241</ele>
        <time>2026-07-13T10:09:24Z</time>
      </trkpt>
      <trkpt lat="32.671310000000005" lon="35.500020000000006">
        <ele>241</ele>
        <time>2026-07-13T10:09:25Z</time>
      </trkpt>
      <trkpt lat="32.67123" lon="35.50014">
        <ele>241</ele>
        <time>2026-07-13T10:09:26Z</time>
      </trkpt>
      <trkpt lat="32.67123" lon="35.50014">
        <ele>231.43966629525534</ele>
        <time>2026-07-13T10:09:27Z</time>
      </trkpt>
      <trkpt lat="32.671200000000006" lon="35.50025">
        <ele>241</ele>
        <time>2026-07-13T10:09:28Z</time>
      </trkpt>
      <trkpt lat="32.671200000000006" lon="35.50025">
        <ele>230.14512269341805</ele>
        <time>2026-07-13T10:09:29Z</time>
      </trkpt>
      <trkpt lat="32.671200000000006" lon="35.50025">
        <ele>230.14512269341805</ele>
        <time>2026-07-13T10:09:30Z</time>
      </trkpt>
      <trkpt lat="32.671200000000006" lon="35.50025">
        <ele>230.14512269341805</ele>
        <time>2026-07-13T10:09:31Z</time>
      </trkpt>
      <extensions>
        <RoutingType xmlns="">Hike</RoutingType>
      </extensions>
    </trkseg>
    <trkseg>
      <trkpt lat="32.671203" lon="35.500251">
        <ele>233</ele>
      </trkpt>
      <trkpt lat="32.671201" lon="35.500256">
        <ele>232.93436635040598</ele>
      </trkpt>
      <trkpt lat="32.67114" lon="35.500725">
        <ele>227.25800873583609</ele>
      </trkpt>
      <trkpt lat="32.671077" lon="35.501053">
        <ele>223.43805513563152</ele>
      </trkpt>
      <trkpt lat="32.670979" lon="35.501403">
        <ele>220.36333969505435</ele>
      </trkpt>
      <trkpt lat="32.670947" lon="35.501466">
        <ele>219.8582709739324</ele>
      </trkpt>
      <trkpt lat="32.670883" lon="35.501676">
        <ele>218.95012790742422</ele>
      </trkpt>
      <trkpt lat="32.670808" lon="35.501776">
        <ele>218.51283274321736</ele>
      </trkpt>
      <trkpt lat="32.670723" lon="35.501731">
        <ele>218.61630930770403</ele>
      </trkpt>
      <trkpt lat="32.670642" lon="35.501635">
        <ele>218.74353646392896</ele>
      </trkpt>
      <trkpt lat="32.670295" lon="35.501306">
        <ele>219.2829450699134</ele>
      </trkpt>
      <trkpt lat="32.669865" lon="35.501108">
        <ele>220.63333986234545</ele>
      </trkpt>
      <trkpt lat="32.669697" lon="35.501011">
        <ele>220.7718089836429</ele>
      </trkpt>
      <trkpt lat="32.669361" lon="35.500749">
        <ele>220.0604975166156</ele>
      </trkpt>
      <trkpt lat="32.669103" lon="35.500507">
        <ele>219.51640142713774</ele>
      </trkpt>
      <trkpt lat="32.668968" lon="35.500408">
        <ele>219.26895229055697</ele>
      </trkpt>
      <trkpt lat="32.66869" lon="35.500356">
        <ele>219.00082979992985</ele>
      </trkpt>
      <trkpt lat="32.668635" lon="35.500237">
        <ele>218.78903973301684</ele>
      </trkpt>
      <trkpt lat="32.668567" lon="35.500185">
        <ele>218.6391651929392</ele>
      </trkpt>
      <trkpt lat="32.668386" lon="35.500053">
        <ele>217.46578798242686</ele>
      </trkpt>
      <trkpt lat="32.668358" lon="35.499799">
        <ele>215.8820257484938</ele>
      </trkpt>
      <trkpt lat="32.66824" lon="35.499654">
        <ele>214.53886932978085</ele>
      </trkpt>
      <trkpt lat="32.668004" lon="35.499464">
        <ele>212.23994304396524</ele>
      </trkpt>
      <trkpt lat="32.667901" lon="35.499363">
        <ele>210.5568240422482</ele>
      </trkpt>
      <trkpt lat="32.667848" lon="35.49928">
        <ele>209.43458436995112</ele>
      </trkpt>
      <trkpt lat="32.667807" lon="35.499135">
        <ele>207.2391582142499</ele>
      </trkpt>
      <trkpt lat="32.667792" lon="35.499082">
        <ele>206.4366169644602</ele>
      </trkpt>
      <trkpt lat="32.667738" lon="35.498752">
        <ele>203.04129566299423</ele>
      </trkpt>
      <trkpt lat="32.667697" lon="35.498624">
        <ele>202.32844096824354</ele>
      </trkpt>
      <trkpt lat="32.667577" lon="35.498388">
        <ele>202.50865597323656</ele>
      </trkpt>
      <trkpt lat="32.66751" lon="35.498304">
        <ele>203.77236826156386</ele>
      </trkpt>
      <trkpt lat="32.667233" lon="35.498093">
        <ele>208.56602037050243</ele>
      </trkpt>
      <trkpt lat="32.667128" lon="35.49795">
        <ele>210.62783418141814</ele>
      </trkpt>
      <trkpt lat="32.667042" lon="35.497779">
        <ele>211.43581175325286</ele>
      </trkpt>
      <trkpt lat="32.66691" lon="35.497579">
        <ele>211.58205029647257</ele>
      </trkpt>
      <trkpt lat="32.666569" lon="35.497173">
        <ele>211.6896211761808</ele>
      </trkpt>
      <trkpt lat="32.666488" lon="35.497113">
        <ele>211.8665284751136</ele>
      </trkpt>
      <trkpt lat="32.666553" lon="35.49688">
        <ele>209.35556771455177</ele>
      </trkpt>
      <trkpt lat="32.66657" lon="35.496731">
        <ele>206.86899767625764</ele>
      </trkpt>
      <trkpt lat="32.666611" lon="35.495421">
        <ele>195.17144958573766</ele>
      </trkpt>
      <trkpt lat="32.666683" lon="35.494681">
        <ele>190.63446431019713</ele>
      </trkpt>
      <trkpt lat="32.666722" lon="35.494409">
        <ele>189.4243690307298</ele>
      </trkpt>
      <trkpt lat="32.666771" lon="35.494129">
        <ele>189.20073479847215</ele>
      </trkpt>
      <trkpt lat="32.666835" lon="35.493931">
        <ele>187.74482017783413</ele>
      </trkpt>
      <trkpt lat="32.667091" lon="35.493302">
        <ele>183.8289102497704</ele>
      </trkpt>
      <trkpt lat="32.667133" lon="35.493152">
        <ele>183.65869918534725</ele>
      </trkpt>
      <trkpt lat="32.667212" lon="35.492681">
        <ele>182.0457412267498</ele>
      </trkpt>
      <trkpt lat="32.667225" lon="35.492388">
        <ele>180.49550988337347</ele>
      </trkpt>
      <trkpt lat="32.667217" lon="35.492218">
        <ele>180.09187160272293</ele>
      </trkpt>
      <trkpt lat="32.667185" lon="35.492042">
        <ele>179.81096239420094</ele>
      </trkpt>
      <trkpt lat="32.667141" lon="35.491902">
        <ele>179.31121014958103</ele>
      </trkpt>
      <trkpt lat="32.666815" lon="35.491295">
        <ele>174.52717892273648</ele>
      </trkpt>
      <trkpt lat="32.666716" lon="35.490779">
        <ele>168.87590090236637</ele>
      </trkpt>
      <trkpt lat="32.666449" lon="35.490179">
        <ele>164.82625150476514</ele>
      </trkpt>
      <trkpt lat="32.666314" lon="35.489735">
        <ele>161.7477401807966</ele>
      </trkpt>
      <trkpt lat="32.666065" lon="35.489232">
        <ele>157.99285615471112</ele>
      </trkpt>
      <trkpt lat="32.665857" lon="35.488757">
        <ele>155.14852467272553</ele>
      </trkpt>
      <trkpt lat="32.665806" lon="35.4887">
        <ele>154.81111263367146</ele>
      </trkpt>
      <trkpt lat="32.665449" lon="35.488505">
        <ele>152.5776164707025</ele>
      </trkpt>
      <trkpt lat="32.665336" lon="35.48842">
        <ele>151.43739819141476</ele>
      </trkpt>
      <trkpt lat="32.665251" lon="35.488312">
        <ele>150.38607722887832</ele>
      </trkpt>
      <trkpt lat="32.664885" lon="35.487643">
        <ele>144.81569571152667</ele>
      </trkpt>
      <trkpt lat="32.664792" lon="35.487514">
        <ele>143.68832764141797</ele>
      </trkpt>
      <trkpt lat="32.664673" lon="35.487421">
        <ele>143.6355304793544</ele>
      </trkpt>
      <trkpt lat="32.664572" lon="35.487382">
        <ele>143.65366744366543</ele>
      </trkpt>
      <trkpt lat="32.664438" lon="35.487367">
        <ele>144.35208703999768</ele>
      </trkpt>
      <trkpt lat="32.663972" lon="35.487457">
        <ele>146.14257726379824</ele>
      </trkpt>
      <trkpt lat="32.663869" lon="35.487428">
        <ele>146.06410789195763</ele>
      </trkpt>
      <trkpt lat="32.663807" lon="35.487386">
        <ele>146.01119877647753</ele>
      </trkpt>
      <trkpt lat="32.663711" lon="35.487276">
        <ele>144.8163311539201</ele>
      </trkpt>
      <trkpt lat="32.663248" lon="35.486505">
        <ele>141.1638847145946</ele>
      </trkpt>
      <trkpt lat="32.663063" lon="35.48614">
        <ele>139.28182891574335</ele>
      </trkpt>
      <trkpt lat="32.662942" lon="35.48574">
        <ele>134.49332187916366</ele>
      </trkpt>
      <trkpt lat="32.662785" lon="35.485107">
        <ele>126.99667167467194</ele>
      </trkpt>
      <trkpt lat="32.662648" lon="35.484796">
        <ele>124.01138624102114</ele>
      </trkpt>
      <trkpt lat="32.662427" lon="35.484447">
        <ele>121.19395483511593</ele>
      </trkpt>
      <trkpt lat="32.661543" lon="35.483226">
        <ele>111.20967046296724</ele>
      </trkpt>
      <trkpt lat="32.661502" lon="35.483132">
        <ele>111.606086778435</ele>
      </trkpt>
      <trkpt lat="32.661474" lon="35.483021">
        <ele>111.07670093974622</ele>
      </trkpt>
      <trkpt lat="32.661424" lon="35.482256">
        <ele>103.69940866127672</ele>
      </trkpt>
      <trkpt lat="32.661403" lon="35.482153">
        <ele>102.67426154643225</ele>
      </trkpt>
      <trkpt lat="32.661055" lon="35.481184">
        <ele>90.74273614755725</ele>
      </trkpt>
      <trkpt lat="32.660845" lon="35.480725">
        <ele>87.49656623895969</ele>
      </trkpt>
      <trkpt lat="32.660415" lon="35.4799">
        <ele>78.99992767785017</ele>
      </trkpt>
      <trkpt lat="32.660044" lon="35.479098">
        <ele>73.79549325452132</ele>
      </trkpt>
      <trkpt lat="32.659613" lon="35.478265">
        <ele>64.43396061742956</ele>
      </trkpt>
      <trkpt lat="32.659383" lon="35.477913">
        <ele>64.89915233878654</ele>
      </trkpt>
      <trkpt lat="32.65928" lon="35.477728">
        <ele>63.51494176688697</ele>
      </trkpt>
      <trkpt lat="32.659231" lon="35.477491">
        <ele>60.020524598196445</ele>
      </trkpt>
      <trkpt lat="32.659262" lon="35.477209">
        <ele>54.28202892275433</ele>
      </trkpt>
      <trkpt lat="32.659189" lon="35.477036">
        <ele>50.10831456457408</ele>
      </trkpt>
      <trkpt lat="32.65904" lon="35.476776">
        <ele>44.01536294025194</ele>
      </trkpt>
      <trkpt lat="32.65903" lon="35.4763">
        <ele>35.4519184711738</ele>
      </trkpt>
      <trkpt lat="32.658941" lon="35.476104">
        <ele>33.14918256507664</ele>
      </trkpt>
      <trkpt lat="32.658928" lon="35.475719">
        <ele>32.41587617237566</ele>
      </trkpt>
      <trkpt lat="32.658933" lon="35.47532">
        <ele>34.18816275546785</ele>
      </trkpt>
      <trkpt lat="32.658936" lon="35.475125">
        <ele>33.010682674908544</ele>
      </trkpt>
      <trkpt lat="32.658918" lon="35.475001">
        <ele>31.59714037620985</ele>
      </trkpt>
      <trkpt lat="32.65879" lon="35.474533">
        <ele>30.39231494356384</ele>
      </trkpt>
      <trkpt lat="32.658663" lon="35.474183">
        <ele>29.056362683914944</ele>
      </trkpt>
      <trkpt lat="32.658493" lon="35.473628">
        <ele>28.48776615174811</ele>
      </trkpt>
      <trkpt lat="32.658464" lon="35.473495">
        <ele>28.359149872810672</ele>
      </trkpt>
      <trkpt lat="32.658406" lon="35.473023">
        <ele>26.5716994709377</ele>
      </trkpt>
      <trkpt lat="32.658263" lon="35.472522">
        <ele>21.314224802675632</ele>
      </trkpt>
      <trkpt lat="32.658339" lon="35.472024">
        <ele>17.530702041796623</ele>
      </trkpt>
      <trkpt lat="32.658226" lon="35.471909">
        <ele>17.078103807545748</ele>
      </trkpt>
      <trkpt lat="32.658154" lon="35.471923">
        <ele>16.996977788097023</ele>
      </trkpt>
      <trkpt lat="32.658076" lon="35.471915">
        <ele>16.909923000152123</ele>
      </trkpt>
      <trkpt lat="32.657944" lon="35.47195">
        <ele>16.907912025806354</ele>
      </trkpt>
      <trkpt lat="32.657837" lon="35.47195">
        <ele>17.22518821649841</ele>
      </trkpt>
      <trkpt lat="32.6577" lon="35.47191">
        <ele>17.697905192661672</ele>
      </trkpt>
      <trkpt lat="32.657499" lon="35.4718">
        <ele>19.174410933701054</ele>
      </trkpt>
      <trkpt lat="32.657371" lon="35.471703">
        <ele>19.793697096827646</ele>
      </trkpt>
      <trkpt lat="32.657126" lon="35.471472">
        <ele>20.658115936554264</ele>
      </trkpt>
      <trkpt lat="32.656819" lon="35.471071">
        <ele>19.46593604174851</ele>
      </trkpt>
      <trkpt lat="32.656426" lon="35.47063">
        <ele>14.27416658501218</ele>
      </trkpt>
      <trkpt lat="32.656318" lon="35.470508">
        <ele>13.279787053342053</ele>
      </trkpt>
      <trkpt lat="32.656253" lon="35.470407">
        <ele>12.903489602945921</ele>
      </trkpt>
      <trkpt lat="32.656194" lon="35.470278">
        <ele>12.720241798895097</ele>
      </trkpt>
      <trkpt lat="32.655997" lon="35.469796">
        <ele>10.07153318194247</ele>
      </trkpt>
      <trkpt lat="32.655864" lon="35.469602">
        <ele>8.104532448720624</ele>
      </trkpt>
      <trkpt lat="32.655114" lon="35.468553">
        <ele>2.342632650491032</ele>
      </trkpt>
      <trkpt lat="32.655083" lon="35.468459">
        <ele>2.0906008922983346</ele>
      </trkpt>
      <trkpt lat="32.65507" lon="35.468214">
        <ele>1.0027072110929311</ele>
      </trkpt>
      <trkpt lat="32.655066" lon="35.467916">
        <ele>-0.21209587942011576</ele>
      </trkpt>
      <trkpt lat="32.655015" lon="35.467802">
        <ele>-0.5746652697779153</ele>
      </trkpt>
      <trkpt lat="32.65486" lon="35.467636">
        <ele>-0.8902922951440331</ele>
      </trkpt>
      <trkpt lat="32.654747" lon="35.467476">
        <ele>-1.3432197698056598</ele>
      </trkpt>
      <trkpt lat="32.654692" lon="35.467358">
        <ele>-1.8482974050584176</ele>
      </trkpt>
      <trkpt lat="32.654776" lon="35.465935">
        <ele>-6.852454640762602</ele>
      </trkpt>
      <trkpt lat="32.654718" lon="35.465529">
        <ele>-6.067712986130959</ele>
      </trkpt>
      <trkpt lat="32.654504" lon="35.464791">
        <ele>-4.779371976995231</ele>
      </trkpt>
      <trkpt lat="32.654492" lon="35.464567">
        <ele>-5.827696780595079</ele>
      </trkpt>
      <trkpt lat="32.654503" lon="35.464303">
        <ele>-6.621400857219581</ele>
      </trkpt>
      <trkpt lat="32.654553" lon="35.464143">
        <ele>-6.781177018910225</ele>
      </trkpt>
      <trkpt lat="32.654703" lon="35.463712">
        <ele>-5.9607365540098725</ele>
      </trkpt>
      <trkpt lat="32.654792" lon="35.463537">
        <ele>-5.912258063354296</ele>
      </trkpt>
      <trkpt lat="32.655138" lon="35.463119">
        <ele>-6.385990571049778</ele>
      </trkpt>
      <trkpt lat="32.655212" lon="35.462966">
        <ele>-6.482107176835205</ele>
      </trkpt>
      <trkpt lat="32.655219" lon="35.462807">
        <ele>-6.581478529564105</ele>
      </trkpt>
      <trkpt lat="32.655245" lon="35.462469">
        <ele>-7.856522615854084</ele>
      </trkpt>
      <trkpt lat="32.655566" lon="35.46106">
        <ele>-5.491346631478416</ele>
      </trkpt>
      <trkpt lat="32.655674" lon="35.460028">
        <ele>-5.063181305812063</ele>
      </trkpt>
      <trkpt lat="32.65587" lon="35.459314">
        <ele>-4.0006072438419205</ele>
      </trkpt>
      <trkpt lat="32.655969" lon="35.459104">
        <ele>-3.324648661515599</ele>
      </trkpt>
      <trkpt lat="32.65597" lon="35.459088">
        <ele>-3.279588438320991</ele>
      </trkpt>
      <trkpt lat="32.655987" lon="35.458884">
        <ele>-2.8692316422288573</ele>
      </trkpt>
      <trkpt lat="32.655844" lon="35.458471">
        <ele>-2.1275897081442197</ele>
      </trkpt>
      <trkpt lat="32.655562" lon="35.45813">
        <ele>-1.0945044894131313</ele>
      </trkpt>
      <trkpt lat="32.6554" lon="35.457915">
        <ele>-0.5315965501291628</ele>
      </trkpt>
      <trkpt lat="32.65519" lon="35.457644">
        <ele>-0.10276569184934488</ele>
      </trkpt>
      <trkpt lat="32.655026" lon="35.457434">
        <ele>0.11400511594680722</ele>
      </trkpt>
      <trkpt lat="32.654792" lon="35.457244">
        <ele>0.42919064271960106</ele>
      </trkpt>
      <trkpt lat="32.6545" lon="35.457013">
        <ele>0.38069186330554317</ele>
      </trkpt>
      <trkpt lat="32.654332" lon="35.456798">
        <ele>0.10608042790471756</ele>
      </trkpt>
      <trkpt lat="32.654264" lon="35.456506">
        <ele>0.47347513391600843</ele>
      </trkpt>
      <trkpt lat="32.654323" lon="35.456042">
        <ele>3.3349945679921804</ele>
      </trkpt>
      <trkpt lat="32.65448" lon="35.455704">
        <ele>6.069623250341243</ele>
      </trkpt>
      <trkpt lat="32.654577" lon="35.455448">
        <ele>7.33151947904785</ele>
      </trkpt>
      <trkpt lat="32.654563" lon="35.454691">
        <ele>5.500084785466072</ele>
      </trkpt>
      <trkpt lat="32.654595" lon="35.454205">
        <ele>4.797887750894432</ele>
      </trkpt>
      <trkpt lat="32.65461" lon="35.453901">
        <ele>4.702857420322303</ele>
      </trkpt>
      <extensions>
        <RoutingType xmlns="">Hike</RoutingType>
      </extensions>
    </trkseg>
    <trkseg>
      <trkpt lat="32.654740000000004" lon="35.45391">
        <ele>9</ele>
        <time>2026-07-13T10:16:06Z</time>
      </trkpt>
      <trkpt lat="32.65489" lon="35.45371">
        <ele>4</ele>
        <time>2026-07-13T10:16:07Z</time>
      </trkpt>
      <trkpt lat="32.65511" lon="35.453520000000005">
        <ele>4</ele>
        <time>2026-07-13T10:16:08Z</time>
      </trkpt>
      <trkpt lat="32.65511" lon="35.453520000000005">
        <ele>4.041263401397189</ele>
        <time>2026-07-13T10:16:09Z</time>
      </trkpt>
      <trkpt lat="32.65511" lon="35.453520000000005">
        <ele>4.041263401397189</ele>
        <time>2026-07-13T10:16:10Z</time>
      </trkpt>
      <trkpt lat="32.655370000000005" lon="35.453340000000004">
        <ele>6</ele>
        <time>2026-07-13T10:16:11Z</time>
      </trkpt>
      <trkpt lat="32.65608" lon="35.452920000000006">
        <ele>4</ele>
        <time>2026-07-13T10:16:12Z</time>
      </trkpt>
      <trkpt lat="32.65672" lon="35.45257">
        <ele>6</ele>
        <time>2026-07-13T10:16:13Z</time>
      </trkpt>
      <trkpt lat="32.65672" lon="35.45257">
        <ele>2.2950665565340245</ele>
        <time>2026-07-13T10:16:14Z</time>
      </trkpt>
      <trkpt lat="32.656850000000006" lon="35.452200000000005">
        <ele>6</ele>
        <time>2026-07-13T10:16:15Z</time>
      </trkpt>
      <trkpt lat="32.656850000000006" lon="35.452200000000005">
        <ele>1.5569818916367595</ele>
        <time>2026-07-13T10:16:16Z</time>
      </trkpt>
      <trkpt lat="32.656850000000006" lon="35.452200000000005">
        <ele>6</ele>
        <time>2026-07-13T10:16:17Z</time>
      </trkpt>
      <trkpt lat="32.656850000000006" lon="35.452200000000005">
        <ele>1.5569818916367595</ele>
        <time>2026-07-13T10:16:18Z</time>
      </trkpt>
      <trkpt lat="32.656890000000004" lon="35.451980000000006">
        <ele>5</ele>
        <time>2026-07-13T10:16:19Z</time>
      </trkpt>
      <trkpt lat="32.656890000000004" lon="35.451980000000006">
        <ele>1.9214105965099244</ele>
        <time>2026-07-13T10:16:20Z</time>
      </trkpt>
      <trkpt lat="32.65684" lon="35.451840000000004">
        <ele>5</ele>
        <time>2026-07-13T10:16:21Z</time>
      </trkpt>
      <trkpt lat="32.656530000000004" lon="35.451420000000006">
        <ele>5</ele>
        <time>2026-07-13T10:16:22Z</time>
      </trkpt>
      <trkpt lat="32.65636" lon="35.45109">
        <ele>8</ele>
        <time>2026-07-13T10:16:23Z</time>
      </trkpt>
      <trkpt lat="32.65636" lon="35.45109">
        <ele>8.591492229431648</ele>
        <time>2026-07-13T10:16:24Z</time>
      </trkpt>
      <trkpt lat="32.656330000000004" lon="35.45083">
        <ele>8</ele>
        <time>2026-07-13T10:16:25Z</time>
      </trkpt>
      <trkpt lat="32.656380000000006" lon="35.450540000000004">
        <ele>8</ele>
        <time>2026-07-13T10:16:26Z</time>
      </trkpt>
      <trkpt lat="32.656380000000006" lon="35.450540000000004">
        <ele>8.712889632559381</ele>
        <time>2026-07-13T10:16:27Z</time>
      </trkpt>
      <trkpt lat="32.656380000000006" lon="35.450540000000004">
        <ele>8.712889632559381</ele>
        <time>2026-07-13T10:16:28Z</time>
      </trkpt>
      <trkpt lat="32.65635" lon="35.45035">
        <ele>7</ele>
        <time>2026-07-13T10:16:29Z</time>
      </trkpt>
      <trkpt lat="32.65635" lon="35.45035">
        <ele>7.813635258004069</ele>
        <time>2026-07-13T10:16:30Z</time>
      </trkpt>
      <trkpt lat="32.65621" lon="35.450070000000004">
        <ele>7</ele>
        <time>2026-07-13T10:16:31Z</time>
      </trkpt>
      <trkpt lat="32.656000000000006" lon="35.44977">
        <ele>14</ele>
        <time>2026-07-13T10:16:32Z</time>
      </trkpt>
      <trkpt lat="32.655" lon="35.449090000000005">
        <ele>12</ele>
        <time>2026-07-13T10:16:33Z</time>
      </trkpt>
      <trkpt lat="32.655" lon="35.449090000000005">
        <ele>7.095729344920153</ele>
        <time>2026-07-13T10:16:34Z</time>
      </trkpt>
      <trkpt lat="32.654880000000006" lon="35.448840000000004">
        <ele>12</ele>
        <time>2026-07-13T10:16:35Z</time>
      </trkpt>
      <trkpt lat="32.654880000000006" lon="35.448840000000004">
        <ele>5.568299352942253</ele>
        <time>2026-07-13T10:16:36Z</time>
      </trkpt>
      <trkpt lat="32.65495" lon="35.4487">
        <ele>10</ele>
        <time>2026-07-13T10:16:37Z</time>
      </trkpt>
      <trkpt lat="32.65505" lon="35.448570000000004">
        <ele>10</ele>
        <time>2026-07-13T10:16:38Z</time>
      </trkpt>
      <trkpt lat="32.65505" lon="35.448570000000004">
        <ele>5.764833748872914</ele>
        <time>2026-07-13T10:16:39Z</time>
      </trkpt>
      <trkpt lat="32.65505" lon="35.448570000000004">
        <ele>5.764833748872914</ele>
        <time>2026-07-13T10:16:40Z</time>
      </trkpt>
      <trkpt lat="32.65542" lon="35.447990000000004">
        <ele>13</ele>
        <time>2026-07-13T10:16:41Z</time>
      </trkpt>
      <trkpt lat="32.65567" lon="35.44774">
        <ele>14</ele>
        <time>2026-07-13T10:16:42Z</time>
      </trkpt>
      <trkpt lat="32.655930000000005" lon="35.4476">
        <ele>14</ele>
        <time>2026-07-13T10:16:43Z</time>
      </trkpt>
      <trkpt lat="32.655930000000005" lon="35.4476">
        <ele>15.096120503835593</ele>
        <time>2026-07-13T10:16:44Z</time>
      </trkpt>
      <trkpt lat="32.655930000000005" lon="35.4476">
        <ele>15.096120503835593</ele>
        <time>2026-07-13T10:16:45Z</time>
      </trkpt>
      <trkpt lat="32.656220000000005" lon="35.44717">
        <ele>23</ele>
        <time>2026-07-13T10:16:46Z</time>
      </trkpt>
      <trkpt lat="32.65644" lon="35.446920000000006">
        <ele>27</ele>
        <time>2026-07-13T10:16:47Z</time>
      </trkpt>
      <trkpt lat="32.656600000000005" lon="35.446630000000006">
        <ele>27</ele>
        <time>2026-07-13T10:16:48Z</time>
      </trkpt>
      <trkpt lat="32.65684" lon="35.44597">
        <ele>21</ele>
        <time>2026-07-13T10:16:49Z</time>
      </trkpt>
      <trkpt lat="32.65684" lon="35.44597">
        <ele>27.156267542465162</ele>
        <time>2026-07-13T10:16:50Z</time>
      </trkpt>
      <trkpt lat="32.65684" lon="35.44597">
        <ele>27.156267542465162</ele>
        <time>2026-07-13T10:16:51Z</time>
      </trkpt>
      <trkpt lat="32.65684" lon="35.44597">
        <ele>21</ele>
        <time>2026-07-13T10:16:52Z</time>
      </trkpt>
      <trkpt lat="32.65688" lon="35.4457">
        <ele>21</ele>
        <time>2026-07-13T10:16:53Z</time>
      </trkpt>
      <trkpt lat="32.65688" lon="35.4457">
        <ele>24.58028598726642</ele>
        <time>2026-07-13T10:16:54Z</time>
      </trkpt>
      <trkpt lat="32.65688" lon="35.4457">
        <ele>24.58028598726642</ele>
        <time>2026-07-13T10:16:55Z</time>
      </trkpt>
      <trkpt lat="32.6569" lon="35.444900000000004">
        <ele>17</ele>
        <time>2026-07-13T10:16:56Z</time>
      </trkpt>
      <trkpt lat="32.657140000000005" lon="35.44436">
        <ele>28</ele>
        <time>2026-07-13T10:16:57Z</time>
      </trkpt>
      <trkpt lat="32.65711" lon="35.444">
        <ele>28</ele>
        <time>2026-07-13T10:16:58Z</time>
      </trkpt>
      <trkpt lat="32.65747" lon="35.44317">
        <ele>25</ele>
        <time>2026-07-13T10:16:59Z</time>
      </trkpt>
      <trkpt lat="32.65747" lon="35.44317">
        <ele>22.23400567240681</ele>
        <time>2026-07-13T10:17:00Z</time>
      </trkpt>
      <trkpt lat="32.65776" lon="35.44243">
        <ele>22</ele>
        <time>2026-07-13T10:17:01Z</time>
      </trkpt>
      <trkpt lat="32.65776" lon="35.44243">
        <ele>23.298770648543723</ele>
        <time>2026-07-13T10:17:02Z</time>
      </trkpt>
      <trkpt lat="32.65776" lon="35.44243">
        <ele>23.298770648543723</ele>
        <time>2026-07-13T10:17:03Z</time>
      </trkpt>
      <trkpt lat="32.65789" lon="35.442240000000005">
        <ele>30</ele>
        <time>2026-07-13T10:17:04Z</time>
      </trkpt>
      <trkpt lat="32.65802" lon="35.44245">
        <ele>30</ele>
        <time>2026-07-13T10:17:05Z</time>
      </trkpt>
      <trkpt lat="32.65818" lon="35.44232">
        <ele>30</ele>
        <time>2026-07-13T10:17:06Z</time>
      </trkpt>
      <trkpt lat="32.65838" lon="35.44198">
        <ele>27</ele>
        <time>2026-07-13T10:17:07Z</time>
      </trkpt>
      <trkpt lat="32.65852" lon="35.44151">
        <ele>27</ele>
        <time>2026-07-13T10:17:08Z</time>
      </trkpt>
      <trkpt lat="32.658930000000005" lon="35.44091">
        <ele>28</ele>
        <time>2026-07-13T10:17:09Z</time>
      </trkpt>
      <trkpt lat="32.658930000000005" lon="35.44091">
        <ele>26.412098675151356</ele>
        <time>2026-07-13T10:17:10Z</time>
      </trkpt>
      <trkpt lat="32.659600000000005" lon="35.44026">
        <ele>27</ele>
        <time>2026-07-13T10:17:11Z</time>
      </trkpt>
      <trkpt lat="32.659600000000005" lon="35.44026">
        <ele>25.599600015541682</ele>
        <time>2026-07-13T10:17:12Z</time>
      </trkpt>
      <trkpt lat="32.66021" lon="35.439820000000005">
        <ele>27</ele>
        <time>2026-07-13T10:17:13Z</time>
      </trkpt>
      <trkpt lat="32.660630000000005" lon="35.43945">
        <ele>25</ele>
        <time>2026-07-13T10:17:14Z</time>
      </trkpt>
      <trkpt lat="32.660790000000006" lon="35.439350000000005">
        <ele>25</ele>
        <time>2026-07-13T10:17:15Z</time>
      </trkpt>
      <trkpt lat="32.660790000000006" lon="35.439350000000005">
        <ele>25</ele>
        <time>2026-07-13T10:17:16Z</time>
      </trkpt>
      <trkpt lat="32.660830000000004" lon="35.43932">
        <ele>25</ele>
        <time>2026-07-13T10:17:17Z</time>
      </trkpt>
      <trkpt lat="32.66087" lon="35.439170000000004">
        <ele>25</ele>
        <time>2026-07-13T10:17:18Z</time>
      </trkpt>
      <trkpt lat="32.66078" lon="35.43903">
        <ele>25</ele>
        <time>2026-07-13T10:17:19Z</time>
      </trkpt>
      <trkpt lat="32.66078" lon="35.43903">
        <ele>22.931538016992924</ele>
        <time>2026-07-13T10:17:20Z</time>
      </trkpt>
      <trkpt lat="32.66078" lon="35.43903">
        <ele>22.931538016992924</ele>
        <time>2026-07-13T10:17:21Z</time>
      </trkpt>
      <trkpt lat="32.660610000000005" lon="35.43891">
        <ele>25</ele>
        <time>2026-07-13T10:17:22Z</time>
      </trkpt>
      <trkpt lat="32.6604" lon="35.43885">
        <ele>25</ele>
        <time>2026-07-13T10:17:23Z</time>
      </trkpt>
      <trkpt lat="32.660250000000005" lon="35.43874">
        <ele>22</ele>
        <time>2026-07-13T10:17:24Z</time>
      </trkpt>
      <trkpt lat="32.65979" lon="35.43788">
        <ele>21</ele>
        <time>2026-07-13T10:17:25Z</time>
      </trkpt>
      <extensions>
        <RoutingType xmlns="">Hike</RoutingType>
      </extensions>
    </trkseg>
    <trkseg>
      <trkpt lat="32.65979" lon="35.43788">
        <ele>21</ele>
        <time>2026-07-13T10:17:25Z</time>
      </trkpt>
      <trkpt lat="32.659400000000005" lon="35.437450000000005">
        <ele>20</ele>
        <time>2026-07-13T10:17:26Z</time>
      </trkpt>
      <trkpt lat="32.659110000000005" lon="35.43722">
        <ele>20</ele>
        <time>2026-07-13T10:17:27Z</time>
      </trkpt>
      <trkpt lat="32.65910027795567" lon="35.437248024656185">
        <ele>20</ele>
        <time>2026-07-13T10:17:28Z</time>
      </trkpt>
      <trkpt lat="32.65910027795567" lon="35.437248024656185">
        <ele>16.87224507908104</ele>
        <time>2026-07-13T10:17:29Z</time>
      </trkpt>
      <trkpt lat="32.65910027795567" lon="35.437248024656185">
        <ele>16.87224507908104</ele>
        <time>2026-07-13T10:17:30Z</time>
      </trkpt>
      <trkpt lat="32.65876026368049" lon="35.43691714612319">
        <ele>22</ele>
        <time>2026-07-13T10:17:31Z</time>
      </trkpt>
      <extensions>
        <RoutingType xmlns="">Hike</RoutingType>
      </extensions>
    </trkseg>
  </trk>
</gpx>
