<?xml version="1.0" encoding="UTF-8" standalone="yes"?>
<gpx xmlns="http://www.topografix.com/GPX/1/1" xmlns:xsi="http://www.w3.org/2001/XMLSchema-instance" version="1.1" creator="IsraelHikingMap" xsi:schemaLocation="http://www.topografix.com/GPX/1/1 http://www.topografix.com/GPX/1/1/gpx.xsd">
  <metadata>
    <bounds maxlat="32.76427" maxlon="35.350788" minlat="32.70131" minlon="35.212860000000006"></bounds>
  </metadata>
  <trk>
    <name>12 - הר דבורה לאלון הגליל</name>
    <desc>🏞️ קושי: בינוני | גליל תחתון
🥾 הר דבורה, הר יונה, משהאד, יער ציפורי,נחל יפתחאל, אלון הגליל
⛺ לילה: אלון הגליל
🛒 קניות בקרבת המסלול:
• הושעיה — א׳-ה׳: 07:00-13:30   16:45-20:00 | ו׳: 07:00-13:30 | שבת: סגור | ☎ 04-6575860
• אלון הגליל — א׳-ה׳: 06:30-14:00   17:00-19:00 | ו׳: 06:30-14:00 | שבת: סגור
• צרכניית אלון הגליל — א׳-ה׳: 06:30-20:00 | ו׳: 06:30-14:00 | שבת: 10:00-14:00</desc>
    <extensions>
      <Color xmlns="">#00FFFF</Color>
      <Opacity xmlns="">0.4</Opacity>
      <Weight xmlns="">10</Weight>
    </extensions>
    <trkseg>
      <trkpt lat="32.70131" lon="35.35042">
        <ele>429</ele>
        <time>2021-09-14T08:40:40Z</time>
      </trkpt>
      <trkpt lat="32.70131" lon="35.35042">
        <ele>429</ele>
        <time>2021-09-14T08:40:40Z</time>
      </trkpt>
      <extensions>
        <RoutingType xmlns="">Hike</RoutingType>
      </extensions>
    </trkseg>
    <trkseg>
      <trkpt lat="32.70131" lon="35.350421">
        <ele>433.2</ele>
      </trkpt>
      <trkpt lat="32.701344" lon="35.350401">
        <ele>433.22812298990345</ele>
      </trkpt>
      <trkpt lat="32.701433" lon="35.350377">
        <ele>433.2957759675841</ele>
      </trkpt>
      <trkpt lat="32.701521" lon="35.35039">
        <ele>433.36151244110727</ele>
      </trkpt>
      <trkpt lat="32.701593" lon="35.350429">
        <ele>433.3294082594657</ele>
      </trkpt>
      <trkpt lat="32.701651" lon="35.350475">
        <ele>433.1484885894698</ele>
      </trkpt>
      <trkpt lat="32.701707" lon="35.350517">
        <ele>432.97667712659785</ele>
      </trkpt>
      <trkpt lat="32.701767" lon="35.350582">
        <ele>432.7660263804382</ele>
      </trkpt>
      <trkpt lat="32.701806" lon="35.350627">
        <ele>432.4642502291577</ele>
      </trkpt>
      <trkpt lat="32.701869" lon="35.350691">
        <ele>431.7884060955948</ele>
      </trkpt>
      <trkpt lat="32.701919" lon="35.350743">
        <ele>431.24660673240214</ele>
      </trkpt>
      <trkpt lat="32.70197" lon="35.350788">
        <ele>430.7286375030444</ele>
      </trkpt>
      <trkpt lat="32.702051" lon="35.350616">
        <ele>429.1718286537026</ele>
      </trkpt>
      <trkpt lat="32.702368" lon="35.350547">
        <ele>425.2197021596845</ele>
      </trkpt>
      <trkpt lat="32.702592" lon="35.35029">
        <ele>421.779624059889</ele>
      </trkpt>
      <trkpt lat="32.702732" lon="35.35028">
        <ele>420.4518883669203</ele>
      </trkpt>
      <trkpt lat="32.702924" lon="35.350272">
        <ele>418.3976878867194</ele>
      </trkpt>
      <trkpt lat="32.703365" lon="35.350272">
        <ele>408.2461462327306</ele>
      </trkpt>
      <trkpt lat="32.703495" lon="35.349912">
        <ele>401.18223006760013</ele>
      </trkpt>
      <trkpt lat="32.703697" lon="35.349491">
        <ele>391.1747566078015</ele>
      </trkpt>
      <trkpt lat="32.70387" lon="35.34938">
        <ele>384.22622037683004</ele>
      </trkpt>
      <trkpt lat="32.704152" lon="35.349148">
        <ele>372.1179681558567</ele>
      </trkpt>
      <trkpt lat="32.70447" lon="35.349148">
        <ele>364.2001737693749</ele>
      </trkpt>
      <trkpt lat="32.704419" lon="35.348693">
        <ele>355.7827825660579</ele>
      </trkpt>
      <trkpt lat="32.704629" lon="35.348487">
        <ele>349.70344894778157</ele>
      </trkpt>
      <trkpt lat="32.705127" lon="35.347981">
        <ele>333.8081995066011</ele>
      </trkpt>
      <trkpt lat="32.705279" lon="35.348281">
        <ele>330.1007207825873</ele>
      </trkpt>
      <trkpt lat="32.705329" lon="35.348127">
        <ele>328.7910961440395</ele>
      </trkpt>
      <trkpt lat="32.705452" lon="35.348204">
        <ele>325.5963358844333</ele>
      </trkpt>
      <trkpt lat="32.705546" lon="35.348024">
        <ele>321.09336620200276</ele>
      </trkpt>
      <trkpt lat="32.705936" lon="35.347732">
        <ele>308.90787868257945</ele>
      </trkpt>
      <trkpt lat="32.705979" lon="35.347569">
        <ele>305.49768438197526</ele>
      </trkpt>
      <trkpt lat="32.706211" lon="35.34744">
        <ele>299.9026765976537</ele>
      </trkpt>
      <trkpt lat="32.706565" lon="35.347054">
        <ele>291.78408252226797</ele>
      </trkpt>
      <trkpt lat="32.706652" lon="35.346896">
        <ele>289.7229103159075</ele>
      </trkpt>
      <trkpt lat="32.706818" lon="35.346921">
        <ele>289.48247780396633</ele>
      </trkpt>
      <trkpt lat="32.707029" lon="35.346801">
        <ele>290.1040244835477</ele>
      </trkpt>
      <trkpt lat="32.707212" lon="35.34678">
        <ele>290.7365726562778</ele>
      </trkpt>
      <trkpt lat="32.707387" lon="35.346843">
        <ele>292.0242852802374</ele>
      </trkpt>
      <trkpt lat="32.707662" lon="35.346925">
        <ele>295.06797906911805</ele>
      </trkpt>
      <trkpt lat="32.707951" lon="35.346916">
        <ele>298.5221373928052</ele>
      </trkpt>
      <trkpt lat="32.708303" lon="35.347006">
        <ele>302.4617273337612</ele>
      </trkpt>
      <trkpt lat="32.708788" lon="35.346958">
        <ele>306.7734929821666</ele>
      </trkpt>
      <trkpt lat="32.709005" lon="35.346966">
        <ele>308.57756126737576</ele>
      </trkpt>
      <trkpt lat="32.709716" lon="35.346828">
        <ele>310.23276029685076</ele>
      </trkpt>
      <trkpt lat="32.709914" lon="35.346735">
        <ele>310.888752754992</ele>
      </trkpt>
      <trkpt lat="32.71016" lon="35.346615">
        <ele>311.1585007669527</ele>
      </trkpt>
      <trkpt lat="32.710211" lon="35.346597">
        <ele>311.1190626219581</ele>
      </trkpt>
      <trkpt lat="32.710435" lon="35.346324">
        <ele>313.13801800291105</ele>
      </trkpt>
      <trkpt lat="32.711259" lon="35.346024">
        <ele>324.2890035901409</ele>
      </trkpt>
      <trkpt lat="32.711403" lon="35.345947">
        <ele>327.10438643844026</ele>
      </trkpt>
      <trkpt lat="32.711576" lon="35.345749">
        <ele>331.48626875627485</ele>
      </trkpt>
      <trkpt lat="32.712234" lon="35.344556">
        <ele>344.2533124318604</ele>
      </trkpt>
      <trkpt lat="32.712009" lon="35.344172">
        <ele>350.67217940719826</ele>
      </trkpt>
      <trkpt lat="32.711585" lon="35.343971">
        <ele>358.4587027239665</ele>
      </trkpt>
      <trkpt lat="32.711162" lon="35.343617">
        <ele>367.2368328966552</ele>
      </trkpt>
      <trkpt lat="32.710662" lon="35.343238">
        <ele>376.03756793691434</ele>
      </trkpt>
      <trkpt lat="32.710256" lon="35.342894">
        <ele>381.17826897789627</ele>
      </trkpt>
      <trkpt lat="32.710112" lon="35.342718">
        <ele>384.05303878633447</ele>
      </trkpt>
      <trkpt lat="32.709871" lon="35.342288">
        <ele>389.67391417469383</ele>
      </trkpt>
      <trkpt lat="32.709648" lon="35.341586">
        <ele>400.34855534559574</ele>
      </trkpt>
      <trkpt lat="32.709414" lon="35.341416">
        <ele>404.190110651826</ele>
      </trkpt>
      <trkpt lat="32.709349" lon="35.341369">
        <ele>404.83873250222365</ele>
      </trkpt>
      <trkpt lat="32.709153" lon="35.341165">
        <ele>406.4129139395754</ele>
      </trkpt>
      <trkpt lat="32.70908" lon="35.340855">
        <ele>409.86900976110843</ele>
      </trkpt>
      <trkpt lat="32.70908" lon="35.340535">
        <ele>415.22021192955015</ele>
      </trkpt>
      <trkpt lat="32.709083" lon="35.340418">
        <ele>416.98493940410486</ele>
      </trkpt>
      <trkpt lat="32.709096" lon="35.339895">
        <ele>420.845950430773</ele>
      </trkpt>
      <trkpt lat="32.709088" lon="35.339575">
        <ele>422.20881280069506</ele>
      </trkpt>
      <trkpt lat="32.709088" lon="35.339575">
        <ele>422.20881280069506</ele>
      </trkpt>
      <extensions>
        <RoutingType xmlns="">Hike</RoutingType>
      </extensions>
    </trkseg>
    <trkseg>
      <trkpt lat="32.709088" lon="35.339575">
        <ele>422.5</ele>
      </trkpt>
      <trkpt lat="32.709202" lon="35.339313">
        <ele>426.36356254986214</ele>
      </trkpt>
      <trkpt lat="32.709267" lon="35.338867">
        <ele>433.7583416708088</ele>
      </trkpt>
      <trkpt lat="32.709643" lon="35.338838">
        <ele>439.1572240547963</ele>
      </trkpt>
      <trkpt lat="32.709863" lon="35.338935">
        <ele>442.1523423426994</ele>
      </trkpt>
      <trkpt lat="32.710149" lon="35.338818">
        <ele>445.9726137865771</ele>
      </trkpt>
      <trkpt lat="32.710141" lon="35.338993">
        <ele>446.39545155083266</ele>
      </trkpt>
      <trkpt lat="32.710247" lon="35.339187">
        <ele>445.02478818437135</ele>
      </trkpt>
      <trkpt lat="32.710606" lon="35.339303">
        <ele>444.3365887798682</ele>
      </trkpt>
      <trkpt lat="32.710851" lon="35.339264">
        <ele>445.020595537445</ele>
      </trkpt>
      <trkpt lat="32.711275" lon="35.339216">
        <ele>449.52657479678606</ele>
      </trkpt>
      <trkpt lat="32.711446" lon="35.339206">
        <ele>451.2383379449465</ele>
      </trkpt>
      <trkpt lat="32.71165" lon="35.339274">
        <ele>452.3877452359382</ele>
      </trkpt>
      <trkpt lat="32.71192" lon="35.339303">
        <ele>451.72888949479864</ele>
      </trkpt>
      <trkpt lat="32.712116" lon="35.339323">
        <ele>450.7780763166789</ele>
      </trkpt>
      <trkpt lat="32.712418" lon="35.33942">
        <ele>449.2303464213854</ele>
      </trkpt>
      <trkpt lat="32.712997" lon="35.339623">
        <ele>448.3118617669599</ele>
      </trkpt>
      <trkpt lat="32.713372" lon="35.339827">
        <ele>446.5836614489211</ele>
      </trkpt>
      <trkpt lat="32.713666" lon="35.339875">
        <ele>448.2884082227335</ele>
      </trkpt>
      <trkpt lat="32.713811" lon="35.339727">
        <ele>449.84695251161736</ele>
      </trkpt>
      <trkpt lat="32.714028" lon="35.339733">
        <ele>449.95748610495804</ele>
      </trkpt>
      <trkpt lat="32.714121" lon="35.339735">
        <ele>449.6816775483349</ele>
      </trkpt>
      <trkpt lat="32.714262" lon="35.3397">
        <ele>449.1250247847357</ele>
      </trkpt>
      <trkpt lat="32.714469" lon="35.339493">
        <ele>448.36965418318454</ele>
      </trkpt>
      <trkpt lat="32.714637" lon="35.339329">
        <ele>448.3682020300984</ele>
      </trkpt>
      <trkpt lat="32.714703" lon="35.339">
        <ele>449.5491102827897</ele>
      </trkpt>
      <trkpt lat="32.71491" lon="35.338703">
        <ele>451.3488825259427</ele>
      </trkpt>
      <trkpt lat="32.715127" lon="35.338625">
        <ele>451.2957527883727</ele>
      </trkpt>
      <trkpt lat="32.715312" lon="35.338611">
        <ele>450.64971396511834</ele>
      </trkpt>
      <trkpt lat="32.715562" lon="35.338695">
        <ele>448.7238339585634</ele>
      </trkpt>
      <trkpt lat="32.715895" lon="35.338801">
        <ele>448.2</ele>
      </trkpt>
      <trkpt lat="32.716287" lon="35.338939">
        <ele>449.76237372424356</ele>
      </trkpt>
      <trkpt lat="32.716486" lon="35.338946">
        <ele>453.1069758488709</ele>
      </trkpt>
      <trkpt lat="32.716656" lon="35.338984">
        <ele>457.38651252318226</ele>
      </trkpt>
      <trkpt lat="32.716703" lon="35.338783">
        <ele>463.82716482944477</ele>
      </trkpt>
      <trkpt lat="32.716874" lon="35.338492">
        <ele>474.5101563375836</ele>
      </trkpt>
      <trkpt lat="32.717125" lon="35.338134">
        <ele>485.2628424673225</ele>
      </trkpt>
      <trkpt lat="32.717136" lon="35.337823">
        <ele>490.603282453004</ele>
      </trkpt>
      <trkpt lat="32.717614" lon="35.337891">
        <ele>493.79678027096634</ele>
      </trkpt>
      <trkpt lat="32.717965" lon="35.33801">
        <ele>491.8619797888324</ele>
      </trkpt>
      <trkpt lat="32.718209" lon="35.338112">
        <ele>494.9440839379824</ele>
      </trkpt>
      <trkpt lat="32.718288" lon="35.33814">
        <ele>496.4413019570716</ele>
      </trkpt>
      <trkpt lat="32.718316" lon="35.33817">
        <ele>497.1259490335591</ele>
      </trkpt>
      <trkpt lat="32.718355" lon="35.338189">
        <ele>497.74297887649755</ele>
      </trkpt>
      <trkpt lat="32.718397" lon="35.338192">
        <ele>497.9145279995258</ele>
      </trkpt>
      <trkpt lat="32.718454" lon="35.338192">
        <ele>498.1469253962056</ele>
      </trkpt>
      <trkpt lat="32.718499" lon="35.338207">
        <ele>498.3374754724817</ele>
      </trkpt>
      <trkpt lat="32.719425" lon="35.338632">
        <ele>505.017464338347</ele>
      </trkpt>
      <trkpt lat="32.719759" lon="35.338772">
        <ele>507.24285397608264</ele>
      </trkpt>
      <trkpt lat="32.719976" lon="35.338858">
        <ele>508.554681124612</ele>
      </trkpt>
      <trkpt lat="32.720129" lon="35.338911">
        <ele>509.61592652516856</ele>
      </trkpt>
      <trkpt lat="32.720306" lon="35.338965">
        <ele>510.69963240654783</ele>
      </trkpt>
      <trkpt lat="32.720454" lon="35.338997">
        <ele>511.4693173947963</ele>
      </trkpt>
      <trkpt lat="32.720611" lon="35.339014">
        <ele>512.1120801324055</ele>
      </trkpt>
      <trkpt lat="32.720812" lon="35.339025">
        <ele>512.8174631074945</ele>
      </trkpt>
      <trkpt lat="32.720988" lon="35.339023">
        <ele>513.222733238968</ele>
      </trkpt>
      <trkpt lat="32.721153" lon="35.339006">
        <ele>513.2841197720164</ele>
      </trkpt>
      <trkpt lat="32.721404" lon="35.338986">
        <ele>511.36595830856123</ele>
      </trkpt>
      <trkpt lat="32.721541" lon="35.338982">
        <ele>510.0116319633557</ele>
      </trkpt>
      <trkpt lat="32.721667" lon="35.338986">
        <ele>508.7035133181578</ele>
      </trkpt>
      <trkpt lat="32.721758" lon="35.338999">
        <ele>507.8849970061644</ele>
      </trkpt>
      <trkpt lat="32.72183" lon="35.339019">
        <ele>507.5287212374212</ele>
      </trkpt>
      <trkpt lat="32.721861" lon="35.339042">
        <ele>507.3526386255222</ele>
      </trkpt>
      <trkpt lat="32.721898" lon="35.339051">
        <ele>507.1706613041958</ele>
      </trkpt>
      <trkpt lat="32.722037" lon="35.339053">
        <ele>506.74595812464696</ele>
      </trkpt>
      <trkpt lat="32.722084" lon="35.339069">
        <ele>506.80032089447843</ele>
      </trkpt>
      <trkpt lat="32.722137" lon="35.339101">
        <ele>506.8664213581635</ele>
      </trkpt>
      <trkpt lat="32.722219" lon="35.339165">
        <ele>506.9755006977823</ele>
      </trkpt>
      <trkpt lat="32.722373" lon="35.339309">
        <ele>506.67770576522594</ele>
      </trkpt>
      <trkpt lat="32.722435" lon="35.339375">
        <ele>506.52346123122993</ele>
      </trkpt>
      <trkpt lat="32.722505" lon="35.339453">
        <ele>506.40738663294184</ele>
      </trkpt>
      <trkpt lat="32.722564" lon="35.339532">
        <ele>506.30856522986284</ele>
      </trkpt>
      <trkpt lat="32.722615" lon="35.339621">
        <ele>506.2078288853828</ele>
      </trkpt>
      <trkpt lat="32.72266" lon="35.33971">
        <ele>505.87253648818955</ele>
      </trkpt>
      <trkpt lat="32.722699" lon="35.339801">
        <ele>505.5222307599252</ele>
      </trkpt>
      <trkpt lat="32.722735" lon="35.3399">
        <ele>505.15228832962</ele>
      </trkpt>
      <trkpt lat="32.722766" lon="35.34">
        <ele>504.6728192129527</ele>
      </trkpt>
      <trkpt lat="32.722789" lon="35.340092">
        <ele>504.2239014430652</ele>
      </trkpt>
      <trkpt lat="32.722804" lon="35.340191">
        <ele>503.75338993725387</ele>
      </trkpt>
      <trkpt lat="32.723172" lon="35.34242">
        <ele>505.11337035235925</ele>
      </trkpt>
      <trkpt lat="32.723212" lon="35.342597">
        <ele>504.2714071343883</ele>
      </trkpt>
      <trkpt lat="32.723247" lon="35.342737">
        <ele>503.61016203117015</ele>
      </trkpt>
      <trkpt lat="32.72329" lon="35.342873">
        <ele>504.19911607368704</ele>
      </trkpt>
      <trkpt lat="32.72334" lon="35.343002">
        <ele>504.77487522989605</ele>
      </trkpt>
      <trkpt lat="32.723396" lon="35.343139">
        <ele>505.9225024785534</ele>
      </trkpt>
      <trkpt lat="32.723448" lon="35.343245">
        <ele>506.95558387510295</ele>
      </trkpt>
      <trkpt lat="32.723463" lon="35.343275">
        <ele>507.24940222981223</ele>
      </trkpt>
      <trkpt lat="32.723528" lon="35.343386">
        <ele>508.3004792638653</ele>
      </trkpt>
      <trkpt lat="32.72357" lon="35.343453">
        <ele>508.9257809650517</ele>
      </trkpt>
      <trkpt lat="32.723613" lon="35.343519">
        <ele>509.5505043272192</ele>
      </trkpt>
      <trkpt lat="32.723707" lon="35.343639">
        <ele>510.7775745248462</ele>
      </trkpt>
      <trkpt lat="32.72379" lon="35.343744">
        <ele>511.8558178559784</ele>
      </trkpt>
      <trkpt lat="32.723883" lon="35.343837">
        <ele>512.8698155857305</ele>
      </trkpt>
      <trkpt lat="32.723987" lon="35.343926">
        <ele>513.8672820337115</ele>
      </trkpt>
      <trkpt lat="32.724091" lon="35.344008">
        <ele>514.7419133889575</ele>
      </trkpt>
      <trkpt lat="32.724186" lon="35.344083">
        <ele>515.3759715537007</ele>
      </trkpt>
      <trkpt lat="32.724287" lon="35.344151">
        <ele>516.0099517873324</ele>
      </trkpt>
      <trkpt lat="32.724399" lon="35.344216">
        <ele>516.3333272424908</ele>
      </trkpt>
      <trkpt lat="32.724507" lon="35.344274">
        <ele>516.6408099902787</ele>
      </trkpt>
      <trkpt lat="32.724628" lon="35.344329">
        <ele>517.8472446806712</ele>
      </trkpt>
      <trkpt lat="32.724733" lon="35.344374">
        <ele>519.0469903996382</ele>
      </trkpt>
      <trkpt lat="32.725046" lon="35.344487">
        <ele>521.5522460386734</ele>
      </trkpt>
      <trkpt lat="32.725792" lon="35.344757">
        <ele>526.3560741094008</ele>
      </trkpt>
      <trkpt lat="32.725892" lon="35.34478">
        <ele>527.2110832404657</ele>
      </trkpt>
      <trkpt lat="32.725982" lon="35.3448">
        <ele>528.1613025512983</ele>
      </trkpt>
      <trkpt lat="32.726084" lon="35.344814">
        <ele>529.2249895094535</ele>
      </trkpt>
      <trkpt lat="32.726124" lon="35.344816">
        <ele>529.6108061184727</ele>
      </trkpt>
      <trkpt lat="32.726197" lon="35.34482">
        <ele>530.3150463848326</ele>
      </trkpt>
      <trkpt lat="32.726313" lon="35.344821">
        <ele>531.432955444627</ele>
      </trkpt>
      <trkpt lat="32.726409" lon="35.344812">
        <ele>531.2174541651431</ele>
      </trkpt>
      <trkpt lat="32.726498" lon="35.3448">
        <ele>530.3210714163786</ele>
      </trkpt>
      <trkpt lat="32.726619" lon="35.344777">
        <ele>529.0903228502995</ele>
      </trkpt>
      <trkpt lat="32.726742" lon="35.344744">
        <ele>526.7534868314577</ele>
      </trkpt>
      <trkpt lat="32.726857" lon="35.344704">
        <ele>524.5328845798663</ele>
      </trkpt>
      <trkpt lat="32.726974" lon="35.344652">
        <ele>522.9331479275371</ele>
      </trkpt>
      <trkpt lat="32.727098" lon="35.344582">
        <ele>521.3558654294848</ele>
      </trkpt>
      <trkpt lat="32.727189" lon="35.344525">
        <ele>520.7068961129396</ele>
      </trkpt>
      <trkpt lat="32.727308" lon="35.344437">
        <ele>520.1354916643501</ele>
      </trkpt>
      <trkpt lat="32.727403" lon="35.344355">
        <ele>519.8778926998974</ele>
      </trkpt>
      <extensions>
        <RoutingType xmlns="">Hike</RoutingType>
      </extensions>
    </trkseg>
    <trkseg>
      <trkpt lat="32.7274" lon="35.344350000000006">
        <ele>520</ele>
        <time>2021-09-14T08:42:32Z</time>
      </trkpt>
      <trkpt lat="32.727610000000006" lon="35.344150000000006">
        <ele>520</ele>
        <time>2021-09-14T08:42:33Z</time>
      </trkpt>
      <trkpt lat="32.72768" lon="35.34405">
        <ele>520</ele>
        <time>2021-09-14T08:42:34Z</time>
      </trkpt>
      <trkpt lat="32.72787" lon="35.34378">
        <ele>513</ele>
        <time>2021-09-14T08:42:35Z</time>
      </trkpt>
      <trkpt lat="32.728010000000005" lon="35.34349">
        <ele>513</ele>
        <time>2021-09-14T08:42:36Z</time>
      </trkpt>
      <trkpt lat="32.728210000000004" lon="35.342870000000005">
        <ele>515</ele>
        <time>2021-09-14T08:42:37Z</time>
      </trkpt>
      <trkpt lat="32.72847" lon="35.341910000000006">
        <ele>512</ele>
        <time>2021-09-14T08:42:38Z</time>
      </trkpt>
      <trkpt lat="32.729150000000004" lon="35.339400000000005">
        <ele>494</ele>
        <time>2021-09-14T08:42:39Z</time>
      </trkpt>
      <trkpt lat="32.72927" lon="35.339000000000006">
        <ele>494</ele>
        <time>2021-09-14T08:42:40Z</time>
      </trkpt>
      <trkpt lat="32.729380000000006" lon="35.33872">
        <ele>490</ele>
        <time>2021-09-14T08:42:41Z</time>
      </trkpt>
      <trkpt lat="32.72947" lon="35.338550000000005">
        <ele>472</ele>
        <time>2021-09-14T08:42:42Z</time>
      </trkpt>
      <trkpt lat="32.72964" lon="35.33829">
        <ele>472</ele>
        <time>2021-09-14T08:42:43Z</time>
      </trkpt>
      <trkpt lat="32.72988" lon="35.338">
        <ele>484</ele>
        <time>2021-09-14T08:42:44Z</time>
      </trkpt>
      <trkpt lat="32.73058" lon="35.33738">
        <ele>473</ele>
        <time>2021-09-14T08:42:45Z</time>
      </trkpt>
      <trkpt lat="32.73089" lon="35.33704">
        <ele>480</ele>
        <time>2021-09-14T08:42:46Z</time>
      </trkpt>
      <trkpt lat="32.73104" lon="35.33681">
        <ele>467.5</ele>
        <time>2021-09-14T08:42:47Z</time>
      </trkpt>
      <trkpt lat="32.73104" lon="35.33681">
        <ele>467.5</ele>
        <time>2021-09-14T08:42:48Z</time>
      </trkpt>
      <trkpt lat="32.731170000000006" lon="35.33657">
        <ele>455</ele>
        <time>2021-09-14T08:42:49Z</time>
      </trkpt>
      <trkpt lat="32.73136" lon="35.33612">
        <ele>461</ele>
        <time>2021-09-14T08:42:50Z</time>
      </trkpt>
      <trkpt lat="32.73147" lon="35.335710000000006">
        <ele>461</ele>
        <time>2021-09-14T08:42:51Z</time>
      </trkpt>
      <trkpt lat="32.73153" lon="35.335210000000004">
        <ele>462</ele>
        <time>2021-09-14T08:42:52Z</time>
      </trkpt>
      <trkpt lat="32.73153" lon="35.333110000000005">
        <ele>457</ele>
        <time>2021-09-14T08:42:53Z</time>
      </trkpt>
      <trkpt lat="32.731570000000005" lon="35.33268">
        <ele>451</ele>
        <time>2021-09-14T08:42:54Z</time>
      </trkpt>
      <trkpt lat="32.73163" lon="35.3325">
        <ele>451</ele>
        <time>2021-09-14T08:42:55Z</time>
      </trkpt>
      <trkpt lat="32.731660000000005" lon="35.33245">
        <ele>451</ele>
        <time>2021-09-14T08:42:56Z</time>
      </trkpt>
      <trkpt lat="32.73169" lon="35.332420000000006">
        <ele>451</ele>
        <time>2021-09-14T08:42:57Z</time>
      </trkpt>
      <trkpt lat="32.73171" lon="35.332370000000004">
        <ele>451</ele>
        <time>2021-09-14T08:42:58Z</time>
      </trkpt>
      <trkpt lat="32.73172" lon="35.33221">
        <ele>446</ele>
        <time>2021-09-14T08:42:59Z</time>
      </trkpt>
      <trkpt lat="32.731770000000004" lon="35.33203">
        <ele>446</ele>
        <time>2021-09-14T08:43:00Z</time>
      </trkpt>
      <trkpt lat="32.73223" lon="35.330920000000006">
        <ele>420.5</ele>
        <time>2021-09-14T08:43:01Z</time>
      </trkpt>
      <trkpt lat="32.73223" lon="35.330920000000006">
        <ele>420.5</ele>
        <time>2021-09-14T08:43:02Z</time>
      </trkpt>
      <trkpt lat="32.73263" lon="35.32996">
        <ele>417</ele>
        <time>2021-09-14T08:43:03Z</time>
      </trkpt>
      <trkpt lat="32.732710000000004" lon="35.329730000000005">
        <ele>417</ele>
        <time>2021-09-14T08:43:04Z</time>
      </trkpt>
      <trkpt lat="32.732760000000006" lon="35.32945">
        <ele>391</ele>
        <time>2021-09-14T08:43:05Z</time>
      </trkpt>
      <trkpt lat="32.73277" lon="35.32929">
        <ele>391</ele>
        <time>2021-09-14T08:43:06Z</time>
      </trkpt>
      <trkpt lat="32.73272" lon="35.328900000000004">
        <ele>391</ele>
        <time>2021-09-14T08:43:07Z</time>
      </trkpt>
      <trkpt lat="32.73264" lon="35.32862">
        <ele>406</ele>
        <time>2021-09-14T08:43:08Z</time>
      </trkpt>
      <trkpt lat="32.732530000000004" lon="35.328390000000006">
        <ele>406</ele>
        <time>2021-09-14T08:43:09Z</time>
      </trkpt>
      <trkpt lat="32.73247" lon="35.32829">
        <ele>406</ele>
        <time>2021-09-14T08:43:10Z</time>
      </trkpt>
      <trkpt lat="32.73216" lon="35.32797">
        <ele>394</ele>
        <time>2021-09-14T08:43:11Z</time>
      </trkpt>
      <trkpt lat="32.73254" lon="35.32705">
        <ele>384</ele>
        <time>2021-09-14T08:43:12Z</time>
      </trkpt>
      <trkpt lat="32.73322" lon="35.32634">
        <ele>364</ele>
        <time>2021-09-14T08:43:13Z</time>
      </trkpt>
      <trkpt lat="32.733810000000005" lon="35.325970000000005">
        <ele>359</ele>
        <time>2021-09-14T08:43:14Z</time>
      </trkpt>
      <trkpt lat="32.7344" lon="35.32576">
        <ele>349</ele>
        <time>2021-09-14T08:43:15Z</time>
      </trkpt>
      <trkpt lat="32.734500000000004" lon="35.325660000000006">
        <ele>349</ele>
        <time>2021-09-14T08:43:16Z</time>
      </trkpt>
      <trkpt lat="32.73469" lon="35.325630000000004">
        <ele>349</ele>
        <time>2021-09-14T08:43:17Z</time>
      </trkpt>
      <trkpt lat="32.73487" lon="35.32567">
        <ele>349</ele>
        <time>2021-09-14T08:43:18Z</time>
      </trkpt>
      <trkpt lat="32.73491" lon="35.32564">
        <ele>349</ele>
        <time>2021-09-14T08:43:19Z</time>
      </trkpt>
      <trkpt lat="32.734880000000004" lon="35.32558">
        <ele>349</ele>
        <time>2021-09-14T08:43:20Z</time>
      </trkpt>
      <trkpt lat="32.73487" lon="35.325520000000004">
        <ele>347</ele>
        <time>2021-09-14T08:43:21Z</time>
      </trkpt>
      <trkpt lat="32.73489" lon="35.325450000000004">
        <ele>347</ele>
        <time>2021-09-14T08:43:22Z</time>
      </trkpt>
      <trkpt lat="32.73491" lon="35.3254">
        <ele>347</ele>
        <time>2021-09-14T08:43:23Z</time>
      </trkpt>
      <trkpt lat="32.73496" lon="35.32536">
        <ele>347</ele>
        <time>2021-09-14T08:43:24Z</time>
      </trkpt>
      <trkpt lat="32.73501" lon="35.325340000000004">
        <ele>347</ele>
        <time>2021-09-14T08:43:25Z</time>
      </trkpt>
      <trkpt lat="32.73508" lon="35.32535">
        <ele>347</ele>
        <time>2021-09-14T08:43:26Z</time>
      </trkpt>
      <trkpt lat="32.735130000000005" lon="35.32538">
        <ele>347</ele>
        <time>2021-09-14T08:43:27Z</time>
      </trkpt>
      <trkpt lat="32.73537" lon="35.32509">
        <ele>350</ele>
        <time>2021-09-14T08:43:28Z</time>
      </trkpt>
      <extensions>
        <RoutingType xmlns="">Hike</RoutingType>
      </extensions>
    </trkseg>
    <trkseg>
      <trkpt lat="32.73537" lon="35.32509">
        <ele>350</ele>
        <time>2021-09-14T08:43:28Z</time>
      </trkpt>
      <trkpt lat="32.73548" lon="35.32499">
        <ele>350</ele>
        <time>2021-09-14T08:43:29Z</time>
      </trkpt>
      <trkpt lat="32.73565" lon="35.324940000000005">
        <ele>350</ele>
        <time>2021-09-14T08:43:30Z</time>
      </trkpt>
      <trkpt lat="32.735870000000006" lon="35.324920000000006">
        <ele>350</ele>
        <time>2021-09-14T08:43:31Z</time>
      </trkpt>
      <trkpt lat="32.73642" lon="35.324540000000006">
        <ele>361</ele>
        <time>2021-09-14T08:43:32Z</time>
      </trkpt>
      <trkpt lat="32.736650000000004" lon="35.324490000000004">
        <ele>361</ele>
        <time>2021-09-14T08:43:33Z</time>
      </trkpt>
      <trkpt lat="32.73678" lon="35.32448">
        <ele>361</ele>
        <time>2021-09-14T08:43:34Z</time>
      </trkpt>
      <trkpt lat="32.73696" lon="35.324540000000006">
        <ele>374</ele>
        <time>2021-09-14T08:43:35Z</time>
      </trkpt>
      <trkpt lat="32.73711" lon="35.32453">
        <ele>374</ele>
        <time>2021-09-14T08:43:36Z</time>
      </trkpt>
      <trkpt lat="32.737390000000005" lon="35.32433">
        <ele>374</ele>
        <time>2021-09-14T08:43:37Z</time>
      </trkpt>
      <trkpt lat="32.73769" lon="35.324040000000004">
        <ele>374</ele>
        <time>2021-09-14T08:43:38Z</time>
      </trkpt>
      <trkpt lat="32.73789" lon="35.32399">
        <ele>381</ele>
        <time>2021-09-14T08:43:39Z</time>
      </trkpt>
      <trkpt lat="32.737930000000006" lon="35.32385">
        <ele>378</ele>
        <time>2021-09-14T08:43:40Z</time>
      </trkpt>
      <trkpt lat="32.738" lon="35.323710000000005">
        <ele>378</ele>
        <time>2021-09-14T08:43:41Z</time>
      </trkpt>
      <trkpt lat="32.738060000000004" lon="35.32365">
        <ele>378</ele>
        <time>2021-09-14T08:43:42Z</time>
      </trkpt>
      <trkpt lat="32.73821" lon="35.32368">
        <ele>378</ele>
        <time>2021-09-14T08:43:43Z</time>
      </trkpt>
      <trkpt lat="32.73829" lon="35.323750000000004">
        <ele>378</ele>
        <time>2021-09-14T08:43:44Z</time>
      </trkpt>
      <trkpt lat="32.73843" lon="35.323780000000006">
        <ele>378</ele>
        <time>2021-09-14T08:43:45Z</time>
      </trkpt>
      <trkpt lat="32.738600000000005" lon="35.32379">
        <ele>382</ele>
        <time>2021-09-14T08:43:46Z</time>
      </trkpt>
      <trkpt lat="32.7387" lon="35.32386">
        <ele>382</ele>
        <time>2021-09-14T08:43:47Z</time>
      </trkpt>
      <trkpt lat="32.738890000000005" lon="35.32376">
        <ele>382</ele>
        <time>2021-09-14T08:43:48Z</time>
      </trkpt>
      <trkpt lat="32.73895" lon="35.323710000000005">
        <ele>382</ele>
        <time>2021-09-14T08:43:49Z</time>
      </trkpt>
      <trkpt lat="32.739020000000004" lon="35.32359">
        <ele>382</ele>
        <time>2021-09-14T08:43:50Z</time>
      </trkpt>
      <trkpt lat="32.739020000000004" lon="35.32359">
        <ele>382</ele>
        <time>2021-09-14T08:43:51Z</time>
      </trkpt>
      <trkpt lat="32.739140000000006" lon="35.32338">
        <ele>382</ele>
        <time>2021-09-14T08:43:52Z</time>
      </trkpt>
      <trkpt lat="32.73897" lon="35.323">
        <ele>392</ele>
        <time>2021-09-14T08:43:53Z</time>
      </trkpt>
      <trkpt lat="32.73879" lon="35.3219">
        <ele>397</ele>
        <time>2021-09-14T08:43:54Z</time>
      </trkpt>
      <trkpt lat="32.739430000000006" lon="35.32077">
        <ele>389</ele>
        <time>2021-09-14T08:43:55Z</time>
      </trkpt>
      <trkpt lat="32.739650000000005" lon="35.31913">
        <ele>375</ele>
        <time>2021-09-14T08:43:56Z</time>
      </trkpt>
      <trkpt lat="32.739610000000006" lon="35.318940000000005">
        <ele>375</ele>
        <time>2021-09-14T08:43:57Z</time>
      </trkpt>
      <trkpt lat="32.739520000000006" lon="35.318070000000006">
        <ele>367</ele>
        <time>2021-09-14T08:43:58Z</time>
      </trkpt>
      <trkpt lat="32.739580000000004" lon="35.317280000000004">
        <ele>366</ele>
        <time>2021-09-14T08:43:59Z</time>
      </trkpt>
      <trkpt lat="32.73957" lon="35.316990000000004">
        <ele>365</ele>
        <time>2021-09-14T08:44:00Z</time>
      </trkpt>
      <trkpt lat="32.73957" lon="35.316990000000004">
        <ele>365</ele>
        <time>2021-09-14T08:44:01Z</time>
      </trkpt>
      <trkpt lat="32.73957" lon="35.31649">
        <ele>364</ele>
        <time>2021-09-14T08:44:02Z</time>
      </trkpt>
      <trkpt lat="32.73991" lon="35.315340000000006">
        <ele>362</ele>
        <time>2021-09-14T08:44:03Z</time>
      </trkpt>
      <trkpt lat="32.74033" lon="35.314280000000004">
        <ele>350</ele>
        <time>2021-09-14T08:44:04Z</time>
      </trkpt>
      <trkpt lat="32.74081" lon="35.31383">
        <ele>359</ele>
        <time>2021-09-14T08:44:05Z</time>
      </trkpt>
      <trkpt lat="32.74109" lon="35.313390000000005">
        <ele>348</ele>
        <time>2021-09-14T08:44:06Z</time>
      </trkpt>
      <trkpt lat="32.74152" lon="35.31295">
        <ele>354</ele>
        <time>2021-09-14T08:44:07Z</time>
      </trkpt>
      <trkpt lat="32.741910000000004" lon="35.31222">
        <ele>344</ele>
        <time>2021-09-14T08:44:08Z</time>
      </trkpt>
      <trkpt lat="32.742490000000004" lon="35.31147">
        <ele>344</ele>
        <time>2021-09-14T08:44:09Z</time>
      </trkpt>
      <trkpt lat="32.74262" lon="35.311420000000005">
        <ele>344</ele>
        <time>2021-09-14T08:44:10Z</time>
      </trkpt>
      <trkpt lat="32.74376" lon="35.309520000000006">
        <ele>339</ele>
        <time>2021-09-14T08:44:11Z</time>
      </trkpt>
      <trkpt lat="32.744130000000006" lon="35.30926">
        <ele>335.5</ele>
        <time>2021-09-14T08:44:12Z</time>
      </trkpt>
      <trkpt lat="32.744130000000006" lon="35.30926">
        <ele>335.5</ele>
        <time>2021-09-14T08:44:13Z</time>
      </trkpt>
      <trkpt lat="32.746770000000005" lon="35.30733">
        <ele>311</ele>
        <time>2021-09-14T08:44:14Z</time>
      </trkpt>
      <trkpt lat="32.74837" lon="35.30585">
        <ele>289</ele>
        <time>2021-09-14T08:44:15Z</time>
      </trkpt>
      <trkpt lat="32.74917" lon="35.305420000000005">
        <ele>280</ele>
        <time>2021-09-14T08:44:16Z</time>
      </trkpt>
      <trkpt lat="32.74906" lon="35.30429">
        <ele>278</ele>
        <time>2021-09-14T08:44:17Z</time>
      </trkpt>
      <trkpt lat="32.749280000000006" lon="35.30319">
        <ele>281</ele>
        <time>2021-09-14T08:44:18Z</time>
      </trkpt>
      <trkpt lat="32.74926" lon="35.302310000000006">
        <ele>278</ele>
        <time>2021-09-14T08:44:19Z</time>
      </trkpt>
      <trkpt lat="32.74917" lon="35.3019">
        <ele>277</ele>
        <time>2021-09-14T08:44:20Z</time>
      </trkpt>
      <trkpt lat="32.74924" lon="35.300940000000004">
        <ele>280</ele>
        <time>2021-09-14T08:44:21Z</time>
      </trkpt>
      <trkpt lat="32.749100000000006" lon="35.29937">
        <ele>276</ele>
        <time>2021-09-14T08:44:22Z</time>
      </trkpt>
      <trkpt lat="32.74895" lon="35.298660000000005">
        <ele>274</ele>
        <time>2021-09-14T08:44:23Z</time>
      </trkpt>
      <trkpt lat="32.74895" lon="35.297200000000004">
        <ele>268</ele>
        <time>2021-09-14T08:44:24Z</time>
      </trkpt>
      <extensions>
        <RoutingType xmlns="">Hike</RoutingType>
      </extensions>
    </trkseg>
    <trkseg>
      <trkpt lat="32.74895" lon="35.297200000000004">
        <ele>268</ele>
        <time>2021-09-14T08:44:24Z</time>
      </trkpt>
      <trkpt lat="32.74889" lon="35.2969">
        <ele>268</ele>
        <time>2021-09-14T08:44:25Z</time>
      </trkpt>
      <trkpt lat="32.749210000000005" lon="35.296940000000006">
        <ele>268</ele>
        <time>2021-09-14T08:44:26Z</time>
      </trkpt>
      <trkpt lat="32.74944" lon="35.29693">
        <ele>245</ele>
        <time>2021-09-14T08:44:27Z</time>
      </trkpt>
      <trkpt lat="32.74951" lon="35.29695">
        <ele>245</ele>
        <time>2021-09-14T08:44:28Z</time>
      </trkpt>
      <trkpt lat="32.74956" lon="35.296940000000006">
        <ele>245</ele>
        <time>2021-09-14T08:44:29Z</time>
      </trkpt>
      <trkpt lat="32.74965" lon="35.29686">
        <ele>245</ele>
        <time>2021-09-14T08:44:30Z</time>
      </trkpt>
      <trkpt lat="32.74964" lon="35.29683">
        <ele>245</ele>
        <time>2021-09-14T08:44:31Z</time>
      </trkpt>
      <trkpt lat="32.74964" lon="35.29683">
        <ele>245</ele>
        <time>2021-09-14T08:44:32Z</time>
      </trkpt>
      <trkpt lat="32.749680000000005" lon="35.296640000000004">
        <ele>245</ele>
        <time>2021-09-14T08:44:33Z</time>
      </trkpt>
      <trkpt lat="32.74976" lon="35.296530000000004">
        <ele>245</ele>
        <time>2021-09-14T08:44:34Z</time>
      </trkpt>
      <trkpt lat="32.749810000000004" lon="35.296400000000006">
        <ele>243</ele>
        <time>2021-09-14T08:44:35Z</time>
      </trkpt>
      <trkpt lat="32.74987" lon="35.2963">
        <ele>243</ele>
        <time>2021-09-14T08:44:36Z</time>
      </trkpt>
      <trkpt lat="32.749930000000006" lon="35.29625">
        <ele>243</ele>
        <time>2021-09-14T08:44:37Z</time>
      </trkpt>
      <trkpt lat="32.75" lon="35.29625">
        <ele>243</ele>
        <time>2021-09-14T08:44:38Z</time>
      </trkpt>
      <trkpt lat="32.75005" lon="35.296290000000006">
        <ele>243</ele>
        <time>2021-09-14T08:44:39Z</time>
      </trkpt>
      <trkpt lat="32.75016" lon="35.2965">
        <ele>245</ele>
        <time>2021-09-14T08:44:40Z</time>
      </trkpt>
      <trkpt lat="32.750240000000005" lon="35.29645">
        <ele>228</ele>
        <time>2021-09-14T08:44:41Z</time>
      </trkpt>
      <trkpt lat="32.7503" lon="35.29637">
        <ele>224</ele>
        <time>2021-09-14T08:44:42Z</time>
      </trkpt>
      <trkpt lat="32.750400000000006" lon="35.29619">
        <ele>224</ele>
        <time>2021-09-14T08:44:43Z</time>
      </trkpt>
      <trkpt lat="32.750600000000006" lon="35.295880000000004">
        <ele>224</ele>
        <time>2021-09-14T08:44:44Z</time>
      </trkpt>
      <trkpt lat="32.75072" lon="35.295770000000005">
        <ele>224</ele>
        <time>2021-09-14T08:44:45Z</time>
      </trkpt>
      <trkpt lat="32.75081" lon="35.295590000000004">
        <ele>224</ele>
        <time>2021-09-14T08:44:46Z</time>
      </trkpt>
      <trkpt lat="32.75085" lon="35.295460000000006">
        <ele>224</ele>
        <time>2021-09-14T08:44:47Z</time>
      </trkpt>
      <trkpt lat="32.75086" lon="35.29527">
        <ele>224</ele>
        <time>2021-09-14T08:44:48Z</time>
      </trkpt>
      <trkpt lat="32.75092" lon="35.29505">
        <ele>224</ele>
        <time>2021-09-14T08:44:49Z</time>
      </trkpt>
      <trkpt lat="32.751000000000005" lon="35.294900000000005">
        <ele>224</ele>
        <time>2021-09-14T08:44:50Z</time>
      </trkpt>
      <trkpt lat="32.75115" lon="35.294880000000006">
        <ele>204</ele>
        <time>2021-09-14T08:44:51Z</time>
      </trkpt>
      <trkpt lat="32.751380000000005" lon="35.29495">
        <ele>204</ele>
        <time>2021-09-14T08:44:52Z</time>
      </trkpt>
      <trkpt lat="32.75153" lon="35.29507">
        <ele>204</ele>
        <time>2021-09-14T08:44:53Z</time>
      </trkpt>
      <trkpt lat="32.7516" lon="35.29507">
        <ele>204</ele>
        <time>2021-09-14T08:44:54Z</time>
      </trkpt>
      <trkpt lat="32.751830000000005" lon="35.294920000000005">
        <ele>204</ele>
        <time>2021-09-14T08:44:55Z</time>
      </trkpt>
      <trkpt lat="32.75204" lon="35.29487">
        <ele>205</ele>
        <time>2021-09-14T08:44:56Z</time>
      </trkpt>
      <trkpt lat="32.7522" lon="35.29459">
        <ele>197</ele>
        <time>2021-09-14T08:44:57Z</time>
      </trkpt>
      <trkpt lat="32.752370000000006" lon="35.29417">
        <ele>197</ele>
        <time>2021-09-14T08:44:58Z</time>
      </trkpt>
      <trkpt lat="32.752500000000005" lon="35.294070000000005">
        <ele>197</ele>
        <time>2021-09-14T08:44:59Z</time>
      </trkpt>
      <trkpt lat="32.75264" lon="35.2939">
        <ele>196</ele>
        <time>2021-09-14T08:45:00Z</time>
      </trkpt>
      <trkpt lat="32.752770000000005" lon="35.293820000000004">
        <ele>194</ele>
        <time>2021-09-14T08:45:01Z</time>
      </trkpt>
      <trkpt lat="32.75287" lon="35.293710000000004">
        <ele>194</ele>
        <time>2021-09-14T08:45:02Z</time>
      </trkpt>
      <trkpt lat="32.75293" lon="35.29346">
        <ele>194</ele>
        <time>2021-09-14T08:45:03Z</time>
      </trkpt>
      <trkpt lat="32.753040000000006" lon="35.29325">
        <ele>194</ele>
        <time>2021-09-14T08:45:04Z</time>
      </trkpt>
      <trkpt lat="32.75329" lon="35.292950000000005">
        <ele>190</ele>
        <time>2021-09-14T08:45:05Z</time>
      </trkpt>
      <trkpt lat="32.753310000000006" lon="35.2929">
        <ele>190</ele>
        <time>2021-09-14T08:45:06Z</time>
      </trkpt>
      <trkpt lat="32.75343" lon="35.292820000000006">
        <ele>190</ele>
        <time>2021-09-14T08:45:07Z</time>
      </trkpt>
      <trkpt lat="32.75356" lon="35.29267">
        <ele>192</ele>
        <time>2021-09-14T08:45:08Z</time>
      </trkpt>
      <trkpt lat="32.753780000000006" lon="35.292350000000006">
        <ele>192</ele>
        <time>2021-09-14T08:45:09Z</time>
      </trkpt>
      <trkpt lat="32.75387" lon="35.292120000000004">
        <ele>189</ele>
        <time>2021-09-14T08:45:10Z</time>
      </trkpt>
      <trkpt lat="32.75396" lon="35.29168">
        <ele>189</ele>
        <time>2021-09-14T08:45:11Z</time>
      </trkpt>
      <trkpt lat="32.754020000000004" lon="35.291520000000006">
        <ele>189</ele>
        <time>2021-09-14T08:45:12Z</time>
      </trkpt>
      <trkpt lat="32.75403" lon="35.29137">
        <ele>184</ele>
        <time>2021-09-14T08:45:13Z</time>
      </trkpt>
      <trkpt lat="32.7541" lon="35.29112">
        <ele>184</ele>
        <time>2021-09-14T08:45:14Z</time>
      </trkpt>
      <trkpt lat="32.754180000000005" lon="35.29099">
        <ele>184</ele>
        <time>2021-09-14T08:45:15Z</time>
      </trkpt>
      <trkpt lat="32.75423" lon="35.290820000000004">
        <ele>184</ele>
        <time>2021-09-14T08:45:16Z</time>
      </trkpt>
      <trkpt lat="32.754250000000006" lon="35.290580000000006">
        <ele>183</ele>
        <time>2021-09-14T08:45:17Z</time>
      </trkpt>
      <trkpt lat="32.754340000000006" lon="35.2903">
        <ele>183</ele>
        <time>2021-09-14T08:45:18Z</time>
      </trkpt>
      <trkpt lat="32.75452" lon="35.29023">
        <ele>182</ele>
        <time>2021-09-14T08:45:19Z</time>
      </trkpt>
      <trkpt lat="32.75493" lon="35.290000000000006">
        <ele>182</ele>
        <time>2021-09-14T08:45:20Z</time>
      </trkpt>
      <extensions>
        <RoutingType xmlns="">Hike</RoutingType>
      </extensions>
    </trkseg>
    <trkseg>
      <trkpt lat="32.75493" lon="35.290000000000006">
        <ele>182</ele>
        <time>2021-09-14T08:45:20Z</time>
      </trkpt>
      <trkpt lat="32.75506" lon="35.28987">
        <ele>182</ele>
        <time>2021-09-14T08:45:21Z</time>
      </trkpt>
      <trkpt lat="32.75515" lon="35.28974">
        <ele>180</ele>
        <time>2021-09-14T08:45:22Z</time>
      </trkpt>
      <trkpt lat="32.755190000000006" lon="35.28965">
        <ele>180</ele>
        <time>2021-09-14T08:45:23Z</time>
      </trkpt>
      <trkpt lat="32.755430000000004" lon="35.289410000000004">
        <ele>184</ele>
        <time>2021-09-14T08:45:24Z</time>
      </trkpt>
      <trkpt lat="32.755430000000004" lon="35.289300000000004">
        <ele>184</ele>
        <time>2021-09-14T08:45:25Z</time>
      </trkpt>
      <trkpt lat="32.755500000000005" lon="35.28898">
        <ele>184</ele>
        <time>2021-09-14T08:45:26Z</time>
      </trkpt>
      <trkpt lat="32.75547" lon="35.28868">
        <ele>180</ele>
        <time>2021-09-14T08:45:27Z</time>
      </trkpt>
      <trkpt lat="32.755480000000006" lon="35.288450000000005">
        <ele>180</ele>
        <time>2021-09-14T08:45:28Z</time>
      </trkpt>
      <trkpt lat="32.75551" lon="35.28833">
        <ele>180</ele>
        <time>2021-09-14T08:45:29Z</time>
      </trkpt>
      <trkpt lat="32.75564" lon="35.28801">
        <ele>180</ele>
        <time>2021-09-14T08:45:30Z</time>
      </trkpt>
      <trkpt lat="32.75567" lon="35.287890000000004">
        <ele>180</ele>
        <time>2021-09-14T08:45:31Z</time>
      </trkpt>
      <trkpt lat="32.75569" lon="35.287600000000005">
        <ele>180</ele>
        <time>2021-09-14T08:45:32Z</time>
      </trkpt>
      <trkpt lat="32.75571" lon="35.28748">
        <ele>180</ele>
        <time>2021-09-14T08:45:33Z</time>
      </trkpt>
      <trkpt lat="32.75582" lon="35.28721">
        <ele>176</ele>
        <time>2021-09-14T08:45:34Z</time>
      </trkpt>
      <trkpt lat="32.755860000000006" lon="35.2869">
        <ele>176</ele>
        <time>2021-09-14T08:45:35Z</time>
      </trkpt>
      <trkpt lat="32.75592" lon="35.286770000000004">
        <ele>176</ele>
        <time>2021-09-14T08:45:36Z</time>
      </trkpt>
      <trkpt lat="32.75602" lon="35.286570000000005">
        <ele>176</ele>
        <time>2021-09-14T08:45:37Z</time>
      </trkpt>
      <trkpt lat="32.75631" lon="35.28616">
        <ele>175</ele>
        <time>2021-09-14T08:45:38Z</time>
      </trkpt>
      <trkpt lat="32.75643" lon="35.28602">
        <ele>175</ele>
        <time>2021-09-14T08:45:39Z</time>
      </trkpt>
      <trkpt lat="32.756260000000005" lon="35.28571">
        <ele>175</ele>
        <time>2021-09-14T08:45:40Z</time>
      </trkpt>
      <trkpt lat="32.75602" lon="35.285430000000005">
        <ele>180</ele>
        <time>2021-09-14T08:45:41Z</time>
      </trkpt>
      <trkpt lat="32.75592" lon="35.28524">
        <ele>180</ele>
        <time>2021-09-14T08:45:42Z</time>
      </trkpt>
      <trkpt lat="32.75589" lon="35.28511">
        <ele>180</ele>
        <time>2021-09-14T08:45:43Z</time>
      </trkpt>
      <trkpt lat="32.755880000000005" lon="35.28492">
        <ele>180</ele>
        <time>2021-09-14T08:45:44Z</time>
      </trkpt>
      <trkpt lat="32.75592" lon="35.28452">
        <ele>186</ele>
        <time>2021-09-14T08:45:45Z</time>
      </trkpt>
      <trkpt lat="32.756060000000005" lon="35.284000000000006">
        <ele>174</ele>
        <time>2021-09-14T08:45:46Z</time>
      </trkpt>
      <trkpt lat="32.75605" lon="35.28396">
        <ele>174</ele>
        <time>2021-09-14T08:45:47Z</time>
      </trkpt>
      <trkpt lat="32.756130000000006" lon="35.283500000000004">
        <ele>178</ele>
        <time>2021-09-14T08:45:48Z</time>
      </trkpt>
      <trkpt lat="32.756280000000004" lon="35.282920000000004">
        <ele>185</ele>
        <time>2021-09-14T08:45:49Z</time>
      </trkpt>
      <trkpt lat="32.75641" lon="35.282160000000005">
        <ele>193</ele>
        <time>2021-09-14T08:45:50Z</time>
      </trkpt>
      <trkpt lat="32.75641" lon="35.28201">
        <ele>193</ele>
        <time>2021-09-14T08:45:51Z</time>
      </trkpt>
      <trkpt lat="32.75625" lon="35.28117">
        <ele>199</ele>
        <time>2021-09-14T08:45:52Z</time>
      </trkpt>
      <trkpt lat="32.75618" lon="35.28092">
        <ele>199</ele>
        <time>2021-09-14T08:45:53Z</time>
      </trkpt>
      <trkpt lat="32.75616" lon="35.28079">
        <ele>199</ele>
        <time>2021-09-14T08:45:54Z</time>
      </trkpt>
      <trkpt lat="32.75616" lon="35.28079">
        <ele>199</ele>
        <time>2021-09-14T08:45:55Z</time>
      </trkpt>
      <trkpt lat="32.75618" lon="35.28025">
        <ele>209</ele>
        <time>2021-09-14T08:45:56Z</time>
      </trkpt>
      <trkpt lat="32.756260000000005" lon="35.27987">
        <ele>209</ele>
        <time>2021-09-14T08:45:57Z</time>
      </trkpt>
      <trkpt lat="32.756350000000005" lon="35.27949">
        <ele>218</ele>
        <time>2021-09-14T08:45:58Z</time>
      </trkpt>
      <trkpt lat="32.75639" lon="35.27924">
        <ele>218</ele>
        <time>2021-09-14T08:45:59Z</time>
      </trkpt>
      <trkpt lat="32.75639" lon="35.278960000000005">
        <ele>218</ele>
        <time>2021-09-14T08:46:00Z</time>
      </trkpt>
      <trkpt lat="32.756350000000005" lon="35.278800000000004">
        <ele>215</ele>
        <time>2021-09-14T08:46:01Z</time>
      </trkpt>
      <trkpt lat="32.7562" lon="35.27845">
        <ele>215</ele>
        <time>2021-09-14T08:46:02Z</time>
      </trkpt>
      <trkpt lat="32.7558" lon="35.277840000000005">
        <ele>217</ele>
        <time>2021-09-14T08:46:03Z</time>
      </trkpt>
      <trkpt lat="32.75553" lon="35.27747">
        <ele>217</ele>
        <time>2021-09-14T08:46:04Z</time>
      </trkpt>
      <trkpt lat="32.755500000000005" lon="35.2774">
        <ele>217</ele>
        <time>2021-09-14T08:46:05Z</time>
      </trkpt>
      <trkpt lat="32.755480000000006" lon="35.27729">
        <ele>217</ele>
        <time>2021-09-14T08:46:06Z</time>
      </trkpt>
      <trkpt lat="32.75565" lon="35.27734">
        <ele>217</ele>
        <time>2021-09-14T08:46:07Z</time>
      </trkpt>
      <trkpt lat="32.755720000000004" lon="35.277170000000005">
        <ele>212</ele>
        <time>2021-09-14T08:46:08Z</time>
      </trkpt>
      <trkpt lat="32.75574" lon="35.277010000000004">
        <ele>212</ele>
        <time>2021-09-14T08:46:09Z</time>
      </trkpt>
      <trkpt lat="32.75571" lon="35.276540000000004">
        <ele>212</ele>
        <time>2021-09-14T08:46:10Z</time>
      </trkpt>
      <trkpt lat="32.75574" lon="35.27599">
        <ele>209</ele>
        <time>2021-09-14T08:46:11Z</time>
      </trkpt>
      <trkpt lat="32.755790000000005" lon="35.2757">
        <ele>209</ele>
        <time>2021-09-14T08:46:12Z</time>
      </trkpt>
      <trkpt lat="32.75592" lon="35.2753">
        <ele>202</ele>
        <time>2021-09-14T08:46:13Z</time>
      </trkpt>
      <trkpt lat="32.75592" lon="35.27523">
        <ele>202</ele>
        <time>2021-09-14T08:46:14Z</time>
      </trkpt>
      <trkpt lat="32.755900000000004" lon="35.275130000000004">
        <ele>202</ele>
        <time>2021-09-14T08:46:15Z</time>
      </trkpt>
      <trkpt lat="32.7558" lon="35.27492">
        <ele>202</ele>
        <time>2021-09-14T08:46:16Z</time>
      </trkpt>
      <extensions>
        <RoutingType xmlns="">Hike</RoutingType>
      </extensions>
    </trkseg>
    <trkseg>
      <trkpt lat="32.7558" lon="35.27492">
        <ele>202</ele>
        <time>2021-09-14T08:46:16Z</time>
      </trkpt>
      <trkpt lat="32.755720000000004" lon="35.2747">
        <ele>195</ele>
        <time>2021-09-14T08:46:17Z</time>
      </trkpt>
      <trkpt lat="32.755770000000005" lon="35.274370000000005">
        <ele>195</ele>
        <time>2021-09-14T08:46:18Z</time>
      </trkpt>
      <trkpt lat="32.75576" lon="35.274210000000004">
        <ele>195</ele>
        <time>2021-09-14T08:46:19Z</time>
      </trkpt>
      <trkpt lat="32.75573" lon="35.27403">
        <ele>195</ele>
        <time>2021-09-14T08:46:20Z</time>
      </trkpt>
      <trkpt lat="32.755750000000006" lon="35.27387">
        <ele>190</ele>
        <time>2021-09-14T08:46:21Z</time>
      </trkpt>
      <trkpt lat="32.75569" lon="35.27358">
        <ele>190</ele>
        <time>2021-09-14T08:46:22Z</time>
      </trkpt>
      <trkpt lat="32.75571" lon="35.273430000000005">
        <ele>190</ele>
        <time>2021-09-14T08:46:23Z</time>
      </trkpt>
      <trkpt lat="32.755590000000005" lon="35.27319">
        <ele>190</ele>
        <time>2021-09-14T08:46:24Z</time>
      </trkpt>
      <trkpt lat="32.75553" lon="35.27315">
        <ele>190</ele>
        <time>2021-09-14T08:46:25Z</time>
      </trkpt>
      <trkpt lat="32.75542" lon="35.27297">
        <ele>187</ele>
        <time>2021-09-14T08:46:26Z</time>
      </trkpt>
      <trkpt lat="32.75544" lon="35.2729">
        <ele>187</ele>
        <time>2021-09-14T08:46:27Z</time>
      </trkpt>
      <trkpt lat="32.755590000000005" lon="35.27282">
        <ele>187</ele>
        <time>2021-09-14T08:46:28Z</time>
      </trkpt>
      <trkpt lat="32.75564" lon="35.272740000000006">
        <ele>187</ele>
        <time>2021-09-14T08:46:29Z</time>
      </trkpt>
      <trkpt lat="32.755660000000006" lon="35.27264">
        <ele>187</ele>
        <time>2021-09-14T08:46:30Z</time>
      </trkpt>
      <trkpt lat="32.75562" lon="35.272490000000005">
        <ele>187</ele>
        <time>2021-09-14T08:46:31Z</time>
      </trkpt>
      <trkpt lat="32.75562" lon="35.272290000000005">
        <ele>187</ele>
        <time>2021-09-14T08:46:32Z</time>
      </trkpt>
      <trkpt lat="32.755610000000004" lon="35.272200000000005">
        <ele>182</ele>
        <time>2021-09-14T08:46:33Z</time>
      </trkpt>
      <trkpt lat="32.75555" lon="35.27201">
        <ele>182</ele>
        <time>2021-09-14T08:46:34Z</time>
      </trkpt>
      <trkpt lat="32.755610000000004" lon="35.271440000000005">
        <ele>182</ele>
        <time>2021-09-14T08:46:35Z</time>
      </trkpt>
      <trkpt lat="32.75565" lon="35.271260000000005">
        <ele>178</ele>
        <time>2021-09-14T08:46:36Z</time>
      </trkpt>
      <trkpt lat="32.75571" lon="35.27114">
        <ele>178</ele>
        <time>2021-09-14T08:46:37Z</time>
      </trkpt>
      <trkpt lat="32.755790000000005" lon="35.27105">
        <ele>178</ele>
        <time>2021-09-14T08:46:38Z</time>
      </trkpt>
      <trkpt lat="32.75611" lon="35.27084">
        <ele>176</ele>
        <time>2021-09-14T08:46:39Z</time>
      </trkpt>
      <trkpt lat="32.75629" lon="35.27066">
        <ele>176</ele>
        <time>2021-09-14T08:46:40Z</time>
      </trkpt>
      <trkpt lat="32.757130000000004" lon="35.269960000000005">
        <ele>187</ele>
        <time>2021-09-14T08:46:41Z</time>
      </trkpt>
      <trkpt lat="32.75723" lon="35.26984">
        <ele>187</ele>
        <time>2021-09-14T08:46:42Z</time>
      </trkpt>
      <trkpt lat="32.757270000000005" lon="35.26977">
        <ele>187</ele>
        <time>2021-09-14T08:46:43Z</time>
      </trkpt>
      <trkpt lat="32.7573" lon="35.26966">
        <ele>186</ele>
        <time>2021-09-14T08:46:44Z</time>
      </trkpt>
      <trkpt lat="32.757360000000006" lon="35.26903">
        <ele>186</ele>
        <time>2021-09-14T08:46:45Z</time>
      </trkpt>
      <trkpt lat="32.75751" lon="35.26906">
        <ele>186</ele>
        <time>2021-09-14T08:46:46Z</time>
      </trkpt>
      <trkpt lat="32.75784" lon="35.269020000000005">
        <ele>192</ele>
        <time>2021-09-14T08:46:47Z</time>
      </trkpt>
      <trkpt lat="32.75815" lon="35.26901">
        <ele>192</ele>
        <time>2021-09-14T08:46:48Z</time>
      </trkpt>
      <trkpt lat="32.75847" lon="35.269040000000004">
        <ele>192</ele>
        <time>2021-09-14T08:46:49Z</time>
      </trkpt>
      <trkpt lat="32.758630000000004" lon="35.269040000000004">
        <ele>194</ele>
        <time>2021-09-14T08:46:50Z</time>
      </trkpt>
      <trkpt lat="32.75875" lon="35.268980000000006">
        <ele>194</ele>
        <time>2021-09-14T08:46:51Z</time>
      </trkpt>
      <trkpt lat="32.75882" lon="35.26888">
        <ele>207</ele>
        <time>2021-09-14T08:46:52Z</time>
      </trkpt>
      <trkpt lat="32.75889" lon="35.2687">
        <ele>207</ele>
        <time>2021-09-14T08:46:53Z</time>
      </trkpt>
      <trkpt lat="32.75893" lon="35.26865">
        <ele>207</ele>
        <time>2021-09-14T08:46:54Z</time>
      </trkpt>
      <trkpt lat="32.75898" lon="35.26847">
        <ele>207</ele>
        <time>2021-09-14T08:46:55Z</time>
      </trkpt>
      <trkpt lat="32.759040000000006" lon="35.26838">
        <ele>207</ele>
        <time>2021-09-14T08:46:56Z</time>
      </trkpt>
      <trkpt lat="32.759130000000006" lon="35.2684">
        <ele>207</ele>
        <time>2021-09-14T08:46:57Z</time>
      </trkpt>
      <trkpt lat="32.75923" lon="35.268330000000006">
        <ele>207</ele>
        <time>2021-09-14T08:46:58Z</time>
      </trkpt>
      <trkpt lat="32.75923" lon="35.26823">
        <ele>207</ele>
        <time>2021-09-14T08:46:59Z</time>
      </trkpt>
      <trkpt lat="32.759260000000005" lon="35.268150000000006">
        <ele>207</ele>
        <time>2021-09-14T08:47:00Z</time>
      </trkpt>
      <trkpt lat="32.759240000000005" lon="35.26807">
        <ele>228</ele>
        <time>2021-09-14T08:47:01Z</time>
      </trkpt>
      <trkpt lat="32.759280000000004" lon="35.267990000000005">
        <ele>228</ele>
        <time>2021-09-14T08:47:02Z</time>
      </trkpt>
      <trkpt lat="32.75931" lon="35.26782">
        <ele>228</ele>
        <time>2021-09-14T08:47:03Z</time>
      </trkpt>
      <trkpt lat="32.759240000000005" lon="35.26773">
        <ele>228</ele>
        <time>2021-09-14T08:47:04Z</time>
      </trkpt>
      <trkpt lat="32.75929" lon="35.26762">
        <ele>228</ele>
        <time>2021-09-14T08:47:05Z</time>
      </trkpt>
      <trkpt lat="32.7593" lon="35.267360000000004">
        <ele>228</ele>
        <time>2021-09-14T08:47:06Z</time>
      </trkpt>
      <trkpt lat="32.75939" lon="35.267120000000006">
        <ele>248</ele>
        <time>2021-09-14T08:47:07Z</time>
      </trkpt>
      <trkpt lat="32.75936" lon="35.267">
        <ele>246</ele>
        <time>2021-09-14T08:47:08Z</time>
      </trkpt>
      <trkpt lat="32.75947" lon="35.266670000000005">
        <ele>248</ele>
        <time>2021-09-14T08:47:09Z</time>
      </trkpt>
      <trkpt lat="32.75949" lon="35.26648">
        <ele>248</ele>
        <time>2021-09-14T08:47:10Z</time>
      </trkpt>
      <trkpt lat="32.75948" lon="35.26633">
        <ele>262</ele>
        <time>2021-09-14T08:47:11Z</time>
      </trkpt>
      <trkpt lat="32.759440000000005" lon="35.26619">
        <ele>262</ele>
        <time>2021-09-14T08:47:12Z</time>
      </trkpt>
      <extensions>
        <RoutingType xmlns="">Hike</RoutingType>
      </extensions>
    </trkseg>
    <trkseg>
      <trkpt lat="32.759440000000005" lon="35.26619">
        <ele>262</ele>
        <time>2021-09-14T08:47:12Z</time>
      </trkpt>
      <trkpt lat="32.7595" lon="35.26606">
        <ele>262</ele>
        <time>2021-09-14T08:47:13Z</time>
      </trkpt>
      <trkpt lat="32.759530000000005" lon="35.26588">
        <ele>262</ele>
        <time>2021-09-14T08:47:14Z</time>
      </trkpt>
      <trkpt lat="32.759510000000006" lon="35.26578">
        <ele>262</ele>
        <time>2021-09-14T08:47:15Z</time>
      </trkpt>
      <trkpt lat="32.75954" lon="35.26572">
        <ele>262</ele>
        <time>2021-09-14T08:47:16Z</time>
      </trkpt>
      <trkpt lat="32.759510000000006" lon="35.265660000000004">
        <ele>262</ele>
        <time>2021-09-14T08:47:17Z</time>
      </trkpt>
      <trkpt lat="32.7595" lon="35.265550000000005">
        <ele>260</ele>
        <time>2021-09-14T08:47:18Z</time>
      </trkpt>
      <trkpt lat="32.75921" lon="35.26541">
        <ele>262</ele>
        <time>2021-09-14T08:47:19Z</time>
      </trkpt>
      <trkpt lat="32.75914" lon="35.265350000000005">
        <ele>262</ele>
        <time>2021-09-14T08:47:20Z</time>
      </trkpt>
      <trkpt lat="32.758990000000004" lon="35.265150000000006">
        <ele>262</ele>
        <time>2021-09-14T08:47:21Z</time>
      </trkpt>
      <trkpt lat="32.75932" lon="35.26491">
        <ele>262</ele>
        <time>2021-09-14T08:47:22Z</time>
      </trkpt>
      <trkpt lat="32.759350000000005" lon="35.26465">
        <ele>260</ele>
        <time>2021-09-14T08:47:23Z</time>
      </trkpt>
      <trkpt lat="32.7595" lon="35.26417">
        <ele>246</ele>
        <time>2021-09-14T08:47:24Z</time>
      </trkpt>
      <trkpt lat="32.759350000000005" lon="35.264010000000006">
        <ele>260</ele>
        <time>2021-09-14T08:47:25Z</time>
      </trkpt>
      <trkpt lat="32.759190000000004" lon="35.2637">
        <ele>253</ele>
        <time>2021-09-14T08:47:26Z</time>
      </trkpt>
      <trkpt lat="32.759040000000006" lon="35.26324">
        <ele>253</ele>
        <time>2021-09-14T08:47:27Z</time>
      </trkpt>
      <trkpt lat="32.75901" lon="35.262980000000006">
        <ele>244</ele>
        <time>2021-09-14T08:47:28Z</time>
      </trkpt>
      <trkpt lat="32.759040000000006" lon="35.262690000000006">
        <ele>244</ele>
        <time>2021-09-14T08:47:29Z</time>
      </trkpt>
      <trkpt lat="32.75891" lon="35.26229">
        <ele>244</ele>
        <time>2021-09-14T08:47:30Z</time>
      </trkpt>
      <trkpt lat="32.75875" lon="35.26207">
        <ele>232</ele>
        <time>2021-09-14T08:47:31Z</time>
      </trkpt>
      <trkpt lat="32.75845" lon="35.261880000000005">
        <ele>247</ele>
        <time>2021-09-14T08:47:32Z</time>
      </trkpt>
      <trkpt lat="32.758500000000005" lon="35.261340000000004">
        <ele>247</ele>
        <time>2021-09-14T08:47:33Z</time>
      </trkpt>
      <trkpt lat="32.758700000000005" lon="35.261140000000005">
        <ele>235</ele>
        <time>2021-09-14T08:47:34Z</time>
      </trkpt>
      <trkpt lat="32.75893" lon="35.26079">
        <ele>235</ele>
        <time>2021-09-14T08:47:35Z</time>
      </trkpt>
      <trkpt lat="32.759280000000004" lon="35.26006">
        <ele>242</ele>
        <time>2021-09-14T08:47:36Z</time>
      </trkpt>
      <trkpt lat="32.759330000000006" lon="35.25999">
        <ele>239.5</ele>
        <time>2021-09-14T08:47:37Z</time>
      </trkpt>
      <trkpt lat="32.759330000000006" lon="35.25999">
        <ele>239.5</ele>
        <time>2021-09-14T08:47:38Z</time>
      </trkpt>
      <trkpt lat="32.759890000000006" lon="35.259190000000004">
        <ele>237</ele>
        <time>2021-09-14T08:47:39Z</time>
      </trkpt>
      <trkpt lat="32.76003" lon="35.25882">
        <ele>239</ele>
        <time>2021-09-14T08:47:40Z</time>
      </trkpt>
      <trkpt lat="32.76044" lon="35.2582">
        <ele>236</ele>
        <time>2021-09-14T08:47:41Z</time>
      </trkpt>
      <trkpt lat="32.760560000000005" lon="35.25768">
        <ele>241</ele>
        <time>2021-09-14T08:47:42Z</time>
      </trkpt>
      <trkpt lat="32.760760000000005" lon="35.257400000000004">
        <ele>241</ele>
        <time>2021-09-14T08:47:43Z</time>
      </trkpt>
      <trkpt lat="32.76072" lon="35.257110000000004">
        <ele>238</ele>
        <time>2021-09-14T08:47:44Z</time>
      </trkpt>
      <trkpt lat="32.76033" lon="35.256820000000005">
        <ele>238</ele>
        <time>2021-09-14T08:47:45Z</time>
      </trkpt>
      <trkpt lat="32.76005" lon="35.256780000000006">
        <ele>234</ele>
        <time>2021-09-14T08:47:46Z</time>
      </trkpt>
      <trkpt lat="32.759890000000006" lon="35.256620000000005">
        <ele>234</ele>
        <time>2021-09-14T08:47:47Z</time>
      </trkpt>
      <trkpt lat="32.75972" lon="35.25612">
        <ele>227</ele>
        <time>2021-09-14T08:47:48Z</time>
      </trkpt>
      <trkpt lat="32.76001" lon="35.25592">
        <ele>227</ele>
        <time>2021-09-14T08:47:49Z</time>
      </trkpt>
      <trkpt lat="32.760270000000006" lon="35.25562">
        <ele>233</ele>
        <time>2021-09-14T08:47:50Z</time>
      </trkpt>
      <trkpt lat="32.76061" lon="35.25498">
        <ele>226</ele>
        <time>2021-09-14T08:47:51Z</time>
      </trkpt>
      <trkpt lat="32.76089" lon="35.25457">
        <ele>218</ele>
        <time>2021-09-14T08:47:52Z</time>
      </trkpt>
      <trkpt lat="32.76104" lon="35.2541">
        <ele>225</ele>
        <time>2021-09-14T08:47:53Z</time>
      </trkpt>
      <trkpt lat="32.76153" lon="35.2533">
        <ele>218</ele>
        <time>2021-09-14T08:47:54Z</time>
      </trkpt>
      <trkpt lat="32.76162" lon="35.253220000000006">
        <ele>218</ele>
        <time>2021-09-14T08:47:55Z</time>
      </trkpt>
      <trkpt lat="32.761520000000004" lon="35.25269">
        <ele>211</ele>
        <time>2021-09-14T08:47:56Z</time>
      </trkpt>
      <trkpt lat="32.7614" lon="35.2524">
        <ele>211</ele>
        <time>2021-09-14T08:47:57Z</time>
      </trkpt>
      <trkpt lat="32.76133" lon="35.25189">
        <ele>203</ele>
        <time>2021-09-14T08:47:58Z</time>
      </trkpt>
      <trkpt lat="32.761140000000005" lon="35.25169">
        <ele>203</ele>
        <time>2021-09-14T08:47:59Z</time>
      </trkpt>
      <trkpt lat="32.761010000000006" lon="35.250730000000004">
        <ele>202</ele>
        <time>2021-09-14T08:48:00Z</time>
      </trkpt>
      <trkpt lat="32.76098" lon="35.249770000000005">
        <ele>197</ele>
        <time>2021-09-14T08:48:01Z</time>
      </trkpt>
      <trkpt lat="32.76106" lon="35.24924">
        <ele>187</ele>
        <time>2021-09-14T08:48:02Z</time>
      </trkpt>
      <trkpt lat="32.761050000000004" lon="35.248560000000005">
        <ele>185</ele>
        <time>2021-09-14T08:48:03Z</time>
      </trkpt>
      <trkpt lat="32.7609" lon="35.24716">
        <ele>190</ele>
        <time>2021-09-14T08:48:04Z</time>
      </trkpt>
      <trkpt lat="32.76073" lon="35.246210000000005">
        <ele>191</ele>
        <time>2021-09-14T08:48:05Z</time>
      </trkpt>
      <trkpt lat="32.76055" lon="35.24497">
        <ele>188</ele>
        <time>2021-09-14T08:48:06Z</time>
      </trkpt>
      <trkpt lat="32.760490000000004" lon="35.244440000000004">
        <ele>186</ele>
        <time>2021-09-14T08:48:07Z</time>
      </trkpt>
      <trkpt lat="32.76104" lon="35.244400000000006">
        <ele>180</ele>
        <time>2021-09-14T08:48:08Z</time>
      </trkpt>
      <extensions>
        <RoutingType xmlns="">Hike</RoutingType>
      </extensions>
    </trkseg>
    <trkseg>
      <trkpt lat="32.76104" lon="35.244400000000006">
        <ele>180</ele>
        <time>2021-09-14T08:48:08Z</time>
      </trkpt>
      <trkpt lat="32.761210000000005" lon="35.244220000000006">
        <ele>180</ele>
        <time>2021-09-14T08:48:09Z</time>
      </trkpt>
      <trkpt lat="32.761140000000005" lon="35.243770000000005">
        <ele>179.5</ele>
        <time>2021-09-14T08:48:10Z</time>
      </trkpt>
      <trkpt lat="32.761140000000005" lon="35.243770000000005">
        <ele>179.5</ele>
        <time>2021-09-14T08:48:11Z</time>
      </trkpt>
      <trkpt lat="32.76109" lon="35.24344">
        <ele>179</ele>
        <time>2021-09-14T08:48:12Z</time>
      </trkpt>
      <trkpt lat="32.7607" lon="35.242810000000006">
        <ele>182</ele>
        <time>2021-09-14T08:48:13Z</time>
      </trkpt>
      <trkpt lat="32.760310000000004" lon="35.242720000000006">
        <ele>182</ele>
        <time>2021-09-14T08:48:14Z</time>
      </trkpt>
      <trkpt lat="32.76033" lon="35.24239">
        <ele>182</ele>
        <time>2021-09-14T08:48:15Z</time>
      </trkpt>
      <trkpt lat="32.760400000000004" lon="35.24213">
        <ele>178</ele>
        <time>2021-09-14T08:48:16Z</time>
      </trkpt>
      <trkpt lat="32.76057" lon="35.241730000000004">
        <ele>178</ele>
        <time>2021-09-14T08:48:17Z</time>
      </trkpt>
      <trkpt lat="32.76071" lon="35.24166">
        <ele>178</ele>
        <time>2021-09-14T08:48:18Z</time>
      </trkpt>
      <trkpt lat="32.76095" lon="35.241310000000006">
        <ele>173</ele>
        <time>2021-09-14T08:48:19Z</time>
      </trkpt>
      <trkpt lat="32.76185" lon="35.239940000000004">
        <ele>168</ele>
        <time>2021-09-14T08:48:20Z</time>
      </trkpt>
      <trkpt lat="32.761770000000006" lon="35.23978">
        <ele>165</ele>
        <time>2021-09-14T08:48:21Z</time>
      </trkpt>
      <trkpt lat="32.761540000000004" lon="35.2396">
        <ele>165</ele>
        <time>2021-09-14T08:48:22Z</time>
      </trkpt>
      <trkpt lat="32.76122" lon="35.239540000000005">
        <ele>165</ele>
        <time>2021-09-14T08:48:23Z</time>
      </trkpt>
      <trkpt lat="32.76128" lon="35.239270000000005">
        <ele>165</ele>
        <time>2021-09-14T08:48:24Z</time>
      </trkpt>
      <trkpt lat="32.76127" lon="35.238800000000005">
        <ele>158</ele>
        <time>2021-09-14T08:48:25Z</time>
      </trkpt>
      <trkpt lat="32.761300000000006" lon="35.23848">
        <ele>158</ele>
        <time>2021-09-14T08:48:26Z</time>
      </trkpt>
      <trkpt lat="32.76093" lon="35.23785">
        <ele>156</ele>
        <time>2021-09-14T08:48:27Z</time>
      </trkpt>
      <trkpt lat="32.760510000000004" lon="35.23733">
        <ele>156</ele>
        <time>2021-09-14T08:48:28Z</time>
      </trkpt>
      <trkpt lat="32.76053" lon="35.23687">
        <ele>151</ele>
        <time>2021-09-14T08:48:29Z</time>
      </trkpt>
      <trkpt lat="32.760400000000004" lon="35.236430000000006">
        <ele>144</ele>
        <time>2021-09-14T08:48:30Z</time>
      </trkpt>
      <trkpt lat="32.760850000000005" lon="35.23686">
        <ele>151</ele>
        <time>2021-09-14T08:48:31Z</time>
      </trkpt>
      <trkpt lat="32.76136" lon="35.236340000000006">
        <ele>138</ele>
        <time>2021-09-14T08:48:32Z</time>
      </trkpt>
      <trkpt lat="32.76119" lon="35.236070000000005">
        <ele>138</ele>
        <time>2021-09-14T08:48:33Z</time>
      </trkpt>
      <trkpt lat="32.76093" lon="35.23555">
        <ele>138</ele>
        <time>2021-09-14T08:48:34Z</time>
      </trkpt>
      <trkpt lat="32.76066" lon="35.23509">
        <ele>138</ele>
        <time>2021-09-14T08:48:35Z</time>
      </trkpt>
      <trkpt lat="32.760510000000004" lon="35.2348">
        <ele>135</ele>
        <time>2021-09-14T08:48:36Z</time>
      </trkpt>
      <trkpt lat="32.760160000000006" lon="35.23424">
        <ele>142</ele>
        <time>2021-09-14T08:48:37Z</time>
      </trkpt>
      <trkpt lat="32.76003" lon="35.234030000000004">
        <ele>142</ele>
        <time>2021-09-14T08:48:38Z</time>
      </trkpt>
      <trkpt lat="32.75967" lon="35.233610000000006">
        <ele>139</ele>
        <time>2021-09-14T08:48:39Z</time>
      </trkpt>
      <trkpt lat="32.75945" lon="35.233320000000006">
        <ele>139</ele>
        <time>2021-09-14T08:48:40Z</time>
      </trkpt>
      <trkpt lat="32.759350000000005" lon="35.233140000000006">
        <ele>141</ele>
        <time>2021-09-14T08:48:41Z</time>
      </trkpt>
      <trkpt lat="32.75934" lon="35.233050000000006">
        <ele>136</ele>
        <time>2021-09-14T08:48:42Z</time>
      </trkpt>
      <trkpt lat="32.759370000000004" lon="35.232980000000005">
        <ele>140</ele>
        <time>2021-09-14T08:48:43Z</time>
      </trkpt>
      <trkpt lat="32.7594" lon="35.232960000000006">
        <ele>140</ele>
        <time>2021-09-14T08:48:44Z</time>
      </trkpt>
      <trkpt lat="32.759660000000004" lon="35.23293">
        <ele>140</ele>
        <time>2021-09-14T08:48:45Z</time>
      </trkpt>
      <trkpt lat="32.759820000000005" lon="35.23286">
        <ele>140</ele>
        <time>2021-09-14T08:48:46Z</time>
      </trkpt>
      <trkpt lat="32.759910000000005" lon="35.23272">
        <ele>140</ele>
        <time>2021-09-14T08:48:47Z</time>
      </trkpt>
      <trkpt lat="32.7599" lon="35.23264">
        <ele>140</ele>
        <time>2021-09-14T08:48:48Z</time>
      </trkpt>
      <trkpt lat="32.75977" lon="35.232420000000005">
        <ele>140</ele>
        <time>2021-09-14T08:48:49Z</time>
      </trkpt>
      <trkpt lat="32.759930000000004" lon="35.232310000000005">
        <ele>140</ele>
        <time>2021-09-14T08:48:50Z</time>
      </trkpt>
      <trkpt lat="32.76043" lon="35.23221">
        <ele>139</ele>
        <time>2021-09-14T08:48:51Z</time>
      </trkpt>
      <trkpt lat="32.76053" lon="35.23217">
        <ele>139</ele>
        <time>2021-09-14T08:48:52Z</time>
      </trkpt>
      <trkpt lat="32.760650000000005" lon="35.23208">
        <ele>139</ele>
        <time>2021-09-14T08:48:53Z</time>
      </trkpt>
      <trkpt lat="32.760760000000005" lon="35.232040000000005">
        <ele>139</ele>
        <time>2021-09-14T08:48:54Z</time>
      </trkpt>
      <trkpt lat="32.7609" lon="35.23205">
        <ele>139</ele>
        <time>2021-09-14T08:48:55Z</time>
      </trkpt>
      <trkpt lat="32.76097" lon="35.232040000000005">
        <ele>139</ele>
        <time>2021-09-14T08:48:56Z</time>
      </trkpt>
      <trkpt lat="32.761" lon="35.232020000000006">
        <ele>139</ele>
        <time>2021-09-14T08:48:57Z</time>
      </trkpt>
      <trkpt lat="32.76106" lon="35.23189">
        <ele>140</ele>
        <time>2021-09-14T08:48:58Z</time>
      </trkpt>
      <trkpt lat="32.76151" lon="35.231750000000005">
        <ele>140</ele>
        <time>2021-09-14T08:48:59Z</time>
      </trkpt>
      <trkpt lat="32.76165" lon="35.231770000000004">
        <ele>140</ele>
        <time>2021-09-14T08:49:00Z</time>
      </trkpt>
      <trkpt lat="32.761790000000005" lon="35.231750000000005">
        <ele>140</ele>
        <time>2021-09-14T08:49:01Z</time>
      </trkpt>
      <trkpt lat="32.761720000000004" lon="35.231480000000005">
        <ele>140</ele>
        <time>2021-09-14T08:49:02Z</time>
      </trkpt>
      <trkpt lat="32.761700000000005" lon="35.23111">
        <ele>145</ele>
        <time>2021-09-14T08:49:03Z</time>
      </trkpt>
      <trkpt lat="32.76167" lon="35.2312">
        <ele>145</ele>
        <time>2021-09-14T08:49:04Z</time>
      </trkpt>
      <extensions>
        <RoutingType xmlns="">Hike</RoutingType>
      </extensions>
    </trkseg>
    <trkseg>
      <trkpt lat="32.76167" lon="35.2312">
        <ele>145</ele>
        <time>2021-09-14T08:49:04Z</time>
      </trkpt>
      <trkpt lat="32.761520000000004" lon="35.23098">
        <ele>145</ele>
        <time>2021-09-14T08:49:05Z</time>
      </trkpt>
      <trkpt lat="32.76151" lon="35.230900000000005">
        <ele>145</ele>
        <time>2021-09-14T08:49:06Z</time>
      </trkpt>
      <trkpt lat="32.76127" lon="35.23069">
        <ele>145</ele>
        <time>2021-09-14T08:49:07Z</time>
      </trkpt>
      <trkpt lat="32.761160000000004" lon="35.23055">
        <ele>153</ele>
        <time>2021-09-14T08:49:08Z</time>
      </trkpt>
      <trkpt lat="32.76098" lon="35.23008">
        <ele>142</ele>
        <time>2021-09-14T08:49:09Z</time>
      </trkpt>
      <trkpt lat="32.760760000000005" lon="35.22965">
        <ele>147</ele>
        <time>2021-09-14T08:49:10Z</time>
      </trkpt>
      <trkpt lat="32.760760000000005" lon="35.22965">
        <ele>147</ele>
        <time>2021-09-14T08:49:11Z</time>
      </trkpt>
      <trkpt lat="32.76066" lon="35.229440000000004">
        <ele>147</ele>
        <time>2021-09-14T08:49:12Z</time>
      </trkpt>
      <trkpt lat="32.760510000000004" lon="35.229040000000005">
        <ele>147</ele>
        <time>2021-09-14T08:49:13Z</time>
      </trkpt>
      <trkpt lat="32.760380000000005" lon="35.22887">
        <ele>154</ele>
        <time>2021-09-14T08:49:14Z</time>
      </trkpt>
      <trkpt lat="32.76025" lon="35.22878">
        <ele>154</ele>
        <time>2021-09-14T08:49:15Z</time>
      </trkpt>
      <trkpt lat="32.760310000000004" lon="35.22872">
        <ele>154</ele>
        <time>2021-09-14T08:49:16Z</time>
      </trkpt>
      <trkpt lat="32.76039" lon="35.22856">
        <ele>154</ele>
        <time>2021-09-14T08:49:17Z</time>
      </trkpt>
      <trkpt lat="32.76052" lon="35.2284">
        <ele>154</ele>
        <time>2021-09-14T08:49:18Z</time>
      </trkpt>
      <trkpt lat="32.76077" lon="35.227900000000005">
        <ele>164</ele>
        <time>2021-09-14T08:49:19Z</time>
      </trkpt>
      <trkpt lat="32.76081" lon="35.227850000000004">
        <ele>164</ele>
        <time>2021-09-14T08:49:20Z</time>
      </trkpt>
      <trkpt lat="32.76086" lon="35.227810000000005">
        <ele>164</ele>
        <time>2021-09-14T08:49:21Z</time>
      </trkpt>
      <trkpt lat="32.76091" lon="35.22782">
        <ele>164</ele>
        <time>2021-09-14T08:49:22Z</time>
      </trkpt>
      <trkpt lat="32.760960000000004" lon="35.2278">
        <ele>164</ele>
        <time>2021-09-14T08:49:23Z</time>
      </trkpt>
      <trkpt lat="32.76104" lon="35.227720000000005">
        <ele>173</ele>
        <time>2021-09-14T08:49:24Z</time>
      </trkpt>
      <trkpt lat="32.76115" lon="35.22758">
        <ele>173</ele>
        <time>2021-09-14T08:49:25Z</time>
      </trkpt>
      <trkpt lat="32.76124" lon="35.227520000000005">
        <ele>173</ele>
        <time>2021-09-14T08:49:26Z</time>
      </trkpt>
      <trkpt lat="32.76128" lon="35.22746">
        <ele>173</ele>
        <time>2021-09-14T08:49:27Z</time>
      </trkpt>
      <trkpt lat="32.76135" lon="35.22735">
        <ele>173</ele>
        <time>2021-09-14T08:49:28Z</time>
      </trkpt>
      <trkpt lat="32.761390000000006" lon="35.22724">
        <ele>179</ele>
        <time>2021-09-14T08:49:29Z</time>
      </trkpt>
      <trkpt lat="32.76144" lon="35.22701">
        <ele>179</ele>
        <time>2021-09-14T08:49:30Z</time>
      </trkpt>
      <trkpt lat="32.7616" lon="35.226800000000004">
        <ele>179</ele>
        <time>2021-09-14T08:49:31Z</time>
      </trkpt>
      <trkpt lat="32.76169" lon="35.22664">
        <ele>179</ele>
        <time>2021-09-14T08:49:32Z</time>
      </trkpt>
      <trkpt lat="32.761770000000006" lon="35.22655">
        <ele>179</ele>
        <time>2021-09-14T08:49:33Z</time>
      </trkpt>
      <trkpt lat="32.761950000000006" lon="35.22616">
        <ele>199</ele>
        <time>2021-09-14T08:49:34Z</time>
      </trkpt>
      <trkpt lat="32.76211" lon="35.22596">
        <ele>199</ele>
        <time>2021-09-14T08:49:35Z</time>
      </trkpt>
      <trkpt lat="32.76221" lon="35.22572">
        <ele>199</ele>
        <time>2021-09-14T08:49:36Z</time>
      </trkpt>
      <trkpt lat="32.76243" lon="35.225190000000005">
        <ele>205</ele>
        <time>2021-09-14T08:49:37Z</time>
      </trkpt>
      <trkpt lat="32.762550000000005" lon="35.224610000000006">
        <ele>208</ele>
        <time>2021-09-14T08:49:38Z</time>
      </trkpt>
      <trkpt lat="32.76259" lon="35.22455">
        <ele>208</ele>
        <time>2021-09-14T08:49:39Z</time>
      </trkpt>
      <trkpt lat="32.76279" lon="35.22413">
        <ele>208</ele>
        <time>2021-09-14T08:49:40Z</time>
      </trkpt>
      <trkpt lat="32.762840000000004" lon="35.22406">
        <ele>208</ele>
        <time>2021-09-14T08:49:41Z</time>
      </trkpt>
      <trkpt lat="32.76301" lon="35.22393">
        <ele>204</ele>
        <time>2021-09-14T08:49:42Z</time>
      </trkpt>
      <trkpt lat="32.76315" lon="35.22368">
        <ele>204</ele>
        <time>2021-09-14T08:49:43Z</time>
      </trkpt>
      <trkpt lat="32.7639" lon="35.2227">
        <ele>203</ele>
        <time>2021-09-14T08:49:44Z</time>
      </trkpt>
      <trkpt lat="32.763740000000006" lon="35.222550000000005">
        <ele>203</ele>
        <time>2021-09-14T08:49:45Z</time>
      </trkpt>
      <trkpt lat="32.763450000000006" lon="35.222150000000006">
        <ele>209</ele>
        <time>2021-09-14T08:49:46Z</time>
      </trkpt>
      <trkpt lat="32.76333" lon="35.22196">
        <ele>209</ele>
        <time>2021-09-14T08:49:47Z</time>
      </trkpt>
      <trkpt lat="32.76317" lon="35.22164">
        <ele>209</ele>
        <time>2021-09-14T08:49:48Z</time>
      </trkpt>
      <trkpt lat="32.762910000000005" lon="35.22139">
        <ele>224</ele>
        <time>2021-09-14T08:49:49Z</time>
      </trkpt>
      <trkpt lat="32.76277" lon="35.22119">
        <ele>224</ele>
        <time>2021-09-14T08:49:50Z</time>
      </trkpt>
      <trkpt lat="32.762600000000006" lon="35.220850000000006">
        <ele>214</ele>
        <time>2021-09-14T08:49:51Z</time>
      </trkpt>
      <trkpt lat="32.76232" lon="35.22023">
        <ele>225</ele>
        <time>2021-09-14T08:49:52Z</time>
      </trkpt>
      <trkpt lat="32.762240000000006" lon="35.22003">
        <ele>225</ele>
        <time>2021-09-14T08:49:53Z</time>
      </trkpt>
      <trkpt lat="32.7622" lon="35.219860000000004">
        <ele>225</ele>
        <time>2021-09-14T08:49:54Z</time>
      </trkpt>
      <trkpt lat="32.76218" lon="35.219660000000005">
        <ele>227</ele>
        <time>2021-09-14T08:49:55Z</time>
      </trkpt>
      <trkpt lat="32.762240000000006" lon="35.219280000000005">
        <ele>227</ele>
        <time>2021-09-14T08:49:56Z</time>
      </trkpt>
      <trkpt lat="32.76243" lon="35.21848">
        <ele>225</ele>
        <time>2021-09-14T08:49:57Z</time>
      </trkpt>
      <trkpt lat="32.762570000000004" lon="35.21801">
        <ele>220</ele>
        <time>2021-09-14T08:49:58Z</time>
      </trkpt>
      <trkpt lat="32.76259" lon="35.217870000000005">
        <ele>220</ele>
        <time>2021-09-14T08:49:59Z</time>
      </trkpt>
      <trkpt lat="32.76261" lon="35.21732">
        <ele>220</ele>
        <time>2021-09-14T08:50:00Z</time>
      </trkpt>
      <extensions>
        <RoutingType xmlns="">Hike</RoutingType>
      </extensions>
    </trkseg>
    <trkseg>
      <trkpt lat="32.76261" lon="35.21732">
        <ele>220</ele>
        <time>2021-09-14T08:50:00Z</time>
      </trkpt>
      <trkpt lat="32.762660000000004" lon="35.216730000000005">
        <ele>222</ele>
        <time>2021-09-14T08:50:01Z</time>
      </trkpt>
      <trkpt lat="32.76254" lon="35.215610000000005">
        <ele>220</ele>
        <time>2021-09-14T08:50:02Z</time>
      </trkpt>
      <trkpt lat="32.76277" lon="35.21538">
        <ele>228.5</ele>
        <time>2021-09-14T08:50:03Z</time>
      </trkpt>
      <trkpt lat="32.76277" lon="35.21538">
        <ele>228.5</ele>
        <time>2021-09-14T08:50:04Z</time>
      </trkpt>
      <trkpt lat="32.763200000000005" lon="35.21495">
        <ele>237</ele>
        <time>2021-09-14T08:50:05Z</time>
      </trkpt>
      <trkpt lat="32.763920000000006" lon="35.21403">
        <ele>247</ele>
        <time>2021-09-14T08:50:06Z</time>
      </trkpt>
      <trkpt lat="32.76415" lon="35.21331">
        <ele>248</ele>
        <time>2021-09-14T08:50:07Z</time>
      </trkpt>
      <trkpt lat="32.76427" lon="35.212860000000006">
        <ele>246</ele>
        <time>2021-09-14T08:50:08Z</time>
      </trkpt>
      <extensions>
        <RoutingType xmlns="">Hike</RoutingType>
      </extensions>
    </trkseg>
  </trk>
</gpx>
