<?xml version="1.0" encoding="UTF-8" standalone="yes"?>
<gpx xmlns="http://www.topografix.com/GPX/1/1" xmlns:xsi="http://www.w3.org/2001/XMLSchema-instance" version="1.1" creator="IsraelHikingMap" xsi:schemaLocation="http://www.topografix.com/GPX/1/1 http://www.topografix.com/GPX/1/1/gpx.xsd">
  <metadata>
    <bounds maxlat="32.743741" maxlon="35.072887" minlat="32.70828" minlon="35.0135"></bounds>
  </metadata>
  <trk>
    <name>14 - יגור לרקית</name>
    <desc>🏞️ קושי: קל | כרמל
🥾 נחל קישון, יגור, נחל סבך,עוספיה., נחל חיק, הר שוקף, רקית.
⛺ לילה: רקית
🛒 קניות בקרבת המסלול:
• עוספיה — א׳-ה׳: 08:00-20:00 | ו׳: 08:00-16:00 | שבת: 08:00-18:00 | ☎ M Hacarmel | 0.5 ק&quot;מ מערבית לשביל על כביש 672. כפר גדול, חנויות רבות</desc>
    <extensions>
      <Color xmlns="">#00FFFF</Color>
      <Opacity xmlns="">0.4</Opacity>
      <Weight xmlns="">10</Weight>
    </extensions>
    <trkseg>
      <trkpt lat="32.743741" lon="35.072887">
        <ele>27.3</ele>
      </trkpt>
      <trkpt lat="32.743741" lon="35.072887">
        <ele>27.3</ele>
      </trkpt>
      <extensions>
        <RoutingType xmlns="">Hike</RoutingType>
      </extensions>
    </trkseg>
    <trkseg>
      <trkpt lat="32.743741" lon="35.072887">
        <ele>27.3</ele>
      </trkpt>
      <trkpt lat="32.743145" lon="35.072484">
        <ele>28.68270088916487</ele>
      </trkpt>
      <trkpt lat="32.742972" lon="35.072714">
        <ele>31.86476428436936</ele>
      </trkpt>
      <trkpt lat="32.742461" lon="35.072639">
        <ele>39.164525969772946</ele>
      </trkpt>
      <trkpt lat="32.742416" lon="35.072649">
        <ele>39.520855983938986</ele>
      </trkpt>
      <trkpt lat="32.742334" lon="35.072667">
        <ele>40.169902739966744</ele>
      </trkpt>
      <trkpt lat="32.742148" lon="35.072548">
        <ele>42.08330371011069</ele>
      </trkpt>
      <trkpt lat="32.741867" lon="35.072486">
        <ele>47.149261404236945</ele>
      </trkpt>
      <trkpt lat="32.741613" lon="35.072548">
        <ele>55.63719335993977</ele>
      </trkpt>
      <trkpt lat="32.74142" lon="35.07275">
        <ele>66.00861322347951</ele>
      </trkpt>
      <trkpt lat="32.741356" lon="35.072654">
        <ele>70.46745318224761</ele>
      </trkpt>
      <trkpt lat="32.741098" lon="35.072678">
        <ele>86.10239876600096</ele>
      </trkpt>
      <trkpt lat="32.740794" lon="35.071751">
        <ele>93.86164696073959</ele>
      </trkpt>
      <trkpt lat="32.74079" lon="35.071559">
        <ele>94.93943076350124</ele>
      </trkpt>
      <trkpt lat="32.740675" lon="35.071377">
        <ele>96.53544637366505</ele>
      </trkpt>
      <trkpt lat="32.740618" lon="35.071132">
        <ele>99.14912179457542</ele>
      </trkpt>
      <trkpt lat="32.740192" lon="35.070655">
        <ele>111.154375508604</ele>
      </trkpt>
      <trkpt lat="32.739715" lon="35.070348">
        <ele>124.5030113119981</ele>
      </trkpt>
      <trkpt lat="32.739566" lon="35.070115">
        <ele>127.99374181160456</ele>
      </trkpt>
      <trkpt lat="32.739545" lon="35.069915">
        <ele>129.31332788418416</ele>
      </trkpt>
      <trkpt lat="32.739409" lon="35.069554">
        <ele>134.4370521489973</ele>
      </trkpt>
      <trkpt lat="32.739395" lon="35.06935">
        <ele>138.1381483960727</ele>
      </trkpt>
      <trkpt lat="32.739309" lon="35.069366">
        <ele>139.86234177042206</ele>
      </trkpt>
      <trkpt lat="32.739224" lon="35.069759">
        <ele>144.54036928985494</ele>
      </trkpt>
      <trkpt lat="32.739275" lon="35.070129">
        <ele>146.0156455482617</ele>
      </trkpt>
      <extensions>
        <RoutingType xmlns="">Hike</RoutingType>
      </extensions>
    </trkseg>
    <trkseg>
      <trkpt lat="32.739270000000005" lon="35.070130000000006">
        <ele>151</ele>
        <time>2025-12-27T17:03:52Z</time>
      </trkpt>
      <trkpt lat="32.73944" lon="35.07056">
        <ele>117</ele>
        <time>2025-12-27T17:03:53Z</time>
      </trkpt>
      <trkpt lat="32.739180000000005" lon="35.070220000000006">
        <ele>151</ele>
        <time>2025-12-27T17:03:54Z</time>
      </trkpt>
      <trkpt lat="32.73901" lon="35.06991">
        <ele>153</ele>
        <time>2025-12-27T17:03:55Z</time>
      </trkpt>
      <trkpt lat="32.73893" lon="35.06956">
        <ele>153</ele>
        <time>2025-12-27T17:03:56Z</time>
      </trkpt>
      <trkpt lat="32.73893" lon="35.069370000000006">
        <ele>153</ele>
        <time>2025-12-27T17:03:57Z</time>
      </trkpt>
      <trkpt lat="32.73886" lon="35.06917">
        <ele>153</ele>
        <time>2025-12-27T17:03:58Z</time>
      </trkpt>
      <trkpt lat="32.73893" lon="35.06844">
        <ele>174</ele>
        <time>2025-12-27T17:03:59Z</time>
      </trkpt>
      <trkpt lat="32.73876" lon="35.06821">
        <ele>214</ele>
        <time>2025-12-27T17:04:00Z</time>
      </trkpt>
      <trkpt lat="32.73879" lon="35.068090000000005">
        <ele>214</ele>
        <time>2025-12-27T17:04:01Z</time>
      </trkpt>
      <trkpt lat="32.73874" lon="35.067910000000005">
        <ele>214</ele>
        <time>2025-12-27T17:04:02Z</time>
      </trkpt>
      <trkpt lat="32.73861" lon="35.0681">
        <ele>214</ele>
        <time>2025-12-27T17:04:03Z</time>
      </trkpt>
      <trkpt lat="32.738440000000004" lon="35.06951">
        <ele>203</ele>
        <time>2025-12-27T17:04:04Z</time>
      </trkpt>
      <trkpt lat="32.73834" lon="35.06994">
        <ele>203</ele>
        <time>2025-12-27T17:04:05Z</time>
      </trkpt>
      <trkpt lat="32.73829" lon="35.06964">
        <ele>203</ele>
        <time>2025-12-27T17:04:06Z</time>
      </trkpt>
      <trkpt lat="32.73829" lon="35.06927">
        <ele>203</ele>
        <time>2025-12-27T17:04:07Z</time>
      </trkpt>
      <trkpt lat="32.73818" lon="35.068830000000005">
        <ele>204</ele>
        <time>2025-12-27T17:04:08Z</time>
      </trkpt>
      <trkpt lat="32.7381" lon="35.067800000000005">
        <ele>214</ele>
        <time>2025-12-27T17:04:09Z</time>
      </trkpt>
      <trkpt lat="32.73814" lon="35.06736">
        <ele>237</ele>
        <time>2025-12-27T17:04:10Z</time>
      </trkpt>
      <trkpt lat="32.7381" lon="35.067170000000004">
        <ele>237</ele>
        <time>2025-12-27T17:04:11Z</time>
      </trkpt>
      <trkpt lat="32.738220000000005" lon="35.06673">
        <ele>237</ele>
        <time>2025-12-27T17:04:12Z</time>
      </trkpt>
      <trkpt lat="32.73834" lon="35.066520000000004">
        <ele>250</ele>
        <time>2025-12-27T17:04:13Z</time>
      </trkpt>
      <trkpt lat="32.73832" lon="35.06635">
        <ele>250</ele>
        <time>2025-12-27T17:04:14Z</time>
      </trkpt>
      <trkpt lat="32.73839" lon="35.06606">
        <ele>250</ele>
        <time>2025-12-27T17:04:15Z</time>
      </trkpt>
      <trkpt lat="32.73839" lon="35.06606">
        <ele>250</ele>
        <time>2025-12-27T17:04:16Z</time>
      </trkpt>
      <trkpt lat="32.73836" lon="35.06557">
        <ele>272</ele>
        <time>2025-12-27T17:04:17Z</time>
      </trkpt>
      <trkpt lat="32.738420000000005" lon="35.06485">
        <ele>284</ele>
        <time>2025-12-27T17:04:18Z</time>
      </trkpt>
      <trkpt lat="32.73837" lon="35.06465">
        <ele>284</ele>
        <time>2025-12-27T17:04:19Z</time>
      </trkpt>
      <trkpt lat="32.73827" lon="35.06477">
        <ele>284</ele>
        <time>2025-12-27T17:04:20Z</time>
      </trkpt>
      <trkpt lat="32.73809" lon="35.06517">
        <ele>272</ele>
        <time>2025-12-27T17:04:21Z</time>
      </trkpt>
      <trkpt lat="32.737970000000004" lon="35.06579">
        <ele>250</ele>
        <time>2025-12-27T17:04:22Z</time>
      </trkpt>
      <trkpt lat="32.73787" lon="35.06604">
        <ele>250</ele>
        <time>2025-12-27T17:04:23Z</time>
      </trkpt>
      <trkpt lat="32.737610000000004" lon="35.06647">
        <ele>295</ele>
        <time>2025-12-27T17:04:24Z</time>
      </trkpt>
      <trkpt lat="32.73744" lon="35.066860000000005">
        <ele>281</ele>
        <time>2025-12-27T17:04:25Z</time>
      </trkpt>
      <trkpt lat="32.73725" lon="35.06779">
        <ele>273</ele>
        <time>2025-12-27T17:04:26Z</time>
      </trkpt>
      <trkpt lat="32.736940000000004" lon="35.0688">
        <ele>263</ele>
        <time>2025-12-27T17:04:27Z</time>
      </trkpt>
      <trkpt lat="32.7366" lon="35.06904">
        <ele>301</ele>
        <time>2025-12-27T17:04:28Z</time>
      </trkpt>
      <trkpt lat="32.73635" lon="35.06891">
        <ele>301</ele>
        <time>2025-12-27T17:04:29Z</time>
      </trkpt>
      <trkpt lat="32.736380000000004" lon="35.06884">
        <ele>301</ele>
        <time>2025-12-27T17:04:30Z</time>
      </trkpt>
      <trkpt lat="32.736560000000004" lon="35.06875">
        <ele>301</ele>
        <time>2025-12-27T17:04:31Z</time>
      </trkpt>
      <trkpt lat="32.73668" lon="35.06841">
        <ele>301</ele>
        <time>2025-12-27T17:04:32Z</time>
      </trkpt>
      <trkpt lat="32.736740000000005" lon="35.06796">
        <ele>309</ele>
        <time>2025-12-27T17:04:33Z</time>
      </trkpt>
      <trkpt lat="32.736670000000004" lon="35.0675">
        <ele>309</ele>
        <time>2025-12-27T17:04:34Z</time>
      </trkpt>
      <trkpt lat="32.73666" lon="35.066930000000006">
        <ele>315</ele>
        <time>2025-12-27T17:04:35Z</time>
      </trkpt>
      <trkpt lat="32.736920000000005" lon="35.066010000000006">
        <ele>295</ele>
        <time>2025-12-27T17:04:36Z</time>
      </trkpt>
      <trkpt lat="32.73705" lon="35.065380000000005">
        <ele>307</ele>
        <time>2025-12-27T17:04:37Z</time>
      </trkpt>
      <trkpt lat="32.737080000000006" lon="35.06468">
        <ele>312.5</ele>
        <time>2025-12-27T17:04:38Z</time>
      </trkpt>
      <trkpt lat="32.737080000000006" lon="35.06468">
        <ele>312.5</ele>
        <time>2025-12-27T17:04:39Z</time>
      </trkpt>
      <trkpt lat="32.7372" lon="35.06363">
        <ele>331</ele>
        <time>2025-12-27T17:04:40Z</time>
      </trkpt>
      <trkpt lat="32.737300000000005" lon="35.06344">
        <ele>331</ele>
        <time>2025-12-27T17:04:41Z</time>
      </trkpt>
      <trkpt lat="32.737460000000006" lon="35.06286">
        <ele>347</ele>
        <time>2025-12-27T17:04:42Z</time>
      </trkpt>
      <trkpt lat="32.73753" lon="35.06277">
        <ele>347</ele>
        <time>2025-12-27T17:04:43Z</time>
      </trkpt>
      <trkpt lat="32.73754" lon="35.06262">
        <ele>347</ele>
        <time>2025-12-27T17:04:44Z</time>
      </trkpt>
      <trkpt lat="32.737770000000005" lon="35.0621">
        <ele>338</ele>
        <time>2025-12-27T17:04:45Z</time>
      </trkpt>
      <trkpt lat="32.737860000000005" lon="35.06168">
        <ele>338</ele>
        <time>2025-12-27T17:04:46Z</time>
      </trkpt>
      <trkpt lat="32.737750000000005" lon="35.06098">
        <ele>343</ele>
        <time>2025-12-27T17:04:47Z</time>
      </trkpt>
      <trkpt lat="32.73778" lon="35.06083">
        <ele>343</ele>
        <time>2025-12-27T17:04:48Z</time>
      </trkpt>
      <trkpt lat="32.73805" lon="35.060410000000005">
        <ele>349.5</ele>
        <time>2025-12-27T17:04:49Z</time>
      </trkpt>
      <extensions>
        <RoutingType xmlns="">Hike</RoutingType>
      </extensions>
    </trkseg>
    <trkseg>
      <trkpt lat="32.73805" lon="35.060410000000005">
        <ele>349.5</ele>
        <time>2025-12-27T17:04:49Z</time>
      </trkpt>
      <trkpt lat="32.73805" lon="35.060410000000005">
        <ele>349.5</ele>
        <time>2025-12-27T17:04:50Z</time>
      </trkpt>
      <trkpt lat="32.73818" lon="35.060190000000006">
        <ele>356</ele>
        <time>2025-12-27T17:04:51Z</time>
      </trkpt>
      <trkpt lat="32.73841" lon="35.059990000000006">
        <ele>356</ele>
        <time>2025-12-27T17:04:52Z</time>
      </trkpt>
      <trkpt lat="32.738510000000005" lon="35.059810000000006">
        <ele>371</ele>
        <time>2025-12-27T17:04:53Z</time>
      </trkpt>
      <trkpt lat="32.73868" lon="35.06">
        <ele>357</ele>
        <time>2025-12-27T17:04:54Z</time>
      </trkpt>
      <trkpt lat="32.73886" lon="35.06006">
        <ele>357</ele>
        <time>2025-12-27T17:04:55Z</time>
      </trkpt>
      <trkpt lat="32.73926" lon="35.06038">
        <ele>357</ele>
        <time>2025-12-27T17:04:56Z</time>
      </trkpt>
      <trkpt lat="32.73979" lon="35.06049">
        <ele>361</ele>
        <time>2025-12-27T17:04:57Z</time>
      </trkpt>
      <trkpt lat="32.740170000000006" lon="35.06029">
        <ele>361</ele>
        <time>2025-12-27T17:04:58Z</time>
      </trkpt>
      <trkpt lat="32.74051" lon="35.05988">
        <ele>368</ele>
        <time>2025-12-27T17:04:59Z</time>
      </trkpt>
      <trkpt lat="32.740610000000004" lon="35.059850000000004">
        <ele>368</ele>
        <time>2025-12-27T17:05:00Z</time>
      </trkpt>
      <trkpt lat="32.74081" lon="35.059960000000004">
        <ele>356</ele>
        <time>2025-12-27T17:05:01Z</time>
      </trkpt>
      <trkpt lat="32.74089" lon="35.0602">
        <ele>356</ele>
        <time>2025-12-27T17:05:02Z</time>
      </trkpt>
      <trkpt lat="32.741220000000006" lon="35.06056">
        <ele>368</ele>
        <time>2025-12-27T17:05:03Z</time>
      </trkpt>
      <trkpt lat="32.741690000000006" lon="35.06076">
        <ele>368</ele>
        <time>2025-12-27T17:05:04Z</time>
      </trkpt>
      <trkpt lat="32.741980000000005" lon="35.060810000000004">
        <ele>353</ele>
        <time>2025-12-27T17:05:05Z</time>
      </trkpt>
      <trkpt lat="32.742490000000004" lon="35.06047">
        <ele>356.5</ele>
        <time>2025-12-27T17:05:06Z</time>
      </trkpt>
      <trkpt lat="32.742490000000004" lon="35.06047">
        <ele>356.5</ele>
        <time>2025-12-27T17:05:07Z</time>
      </trkpt>
      <trkpt lat="32.742720000000006" lon="35.060320000000004">
        <ele>360</ele>
        <time>2025-12-27T17:05:08Z</time>
      </trkpt>
      <trkpt lat="32.742850000000004" lon="35.06013">
        <ele>360</ele>
        <time>2025-12-27T17:05:09Z</time>
      </trkpt>
      <trkpt lat="32.74284" lon="35.060010000000005">
        <ele>360</ele>
        <time>2025-12-27T17:05:10Z</time>
      </trkpt>
      <trkpt lat="32.7428" lon="35.059810000000006">
        <ele>373</ele>
        <time>2025-12-27T17:05:11Z</time>
      </trkpt>
      <trkpt lat="32.74304" lon="35.05941">
        <ele>373</ele>
        <time>2025-12-27T17:05:12Z</time>
      </trkpt>
      <trkpt lat="32.74298" lon="35.05923">
        <ele>373</ele>
        <time>2025-12-27T17:05:13Z</time>
      </trkpt>
      <trkpt lat="32.742810000000006" lon="35.059070000000006">
        <ele>382</ele>
        <time>2025-12-27T17:05:14Z</time>
      </trkpt>
      <trkpt lat="32.742720000000006" lon="35.05876">
        <ele>382</ele>
        <time>2025-12-27T17:05:15Z</time>
      </trkpt>
      <trkpt lat="32.74269" lon="35.05868">
        <ele>387</ele>
        <time>2025-12-27T17:05:16Z</time>
      </trkpt>
      <trkpt lat="32.74257" lon="35.058640000000004">
        <ele>387</ele>
        <time>2025-12-27T17:05:17Z</time>
      </trkpt>
      <trkpt lat="32.7425" lon="35.058550000000004">
        <ele>387</ele>
        <time>2025-12-27T17:05:18Z</time>
      </trkpt>
      <trkpt lat="32.74253" lon="35.058400000000006">
        <ele>387</ele>
        <time>2025-12-27T17:05:19Z</time>
      </trkpt>
      <trkpt lat="32.742630000000005" lon="35.058330000000005">
        <ele>387</ele>
        <time>2025-12-27T17:05:20Z</time>
      </trkpt>
      <trkpt lat="32.742670000000004" lon="35.05828">
        <ele>398</ele>
        <time>2025-12-27T17:05:21Z</time>
      </trkpt>
      <trkpt lat="32.7428" lon="35.0582">
        <ele>394</ele>
        <time>2025-12-27T17:05:22Z</time>
      </trkpt>
      <trkpt lat="32.74287" lon="35.058040000000005">
        <ele>394</ele>
        <time>2025-12-27T17:05:23Z</time>
      </trkpt>
      <trkpt lat="32.742850000000004" lon="35.057950000000005">
        <ele>394</ele>
        <time>2025-12-27T17:05:24Z</time>
      </trkpt>
      <trkpt lat="32.742720000000006" lon="35.057790000000004">
        <ele>394</ele>
        <time>2025-12-27T17:05:25Z</time>
      </trkpt>
      <trkpt lat="32.742760000000004" lon="35.05769">
        <ele>394</ele>
        <time>2025-12-27T17:05:26Z</time>
      </trkpt>
      <trkpt lat="32.742850000000004" lon="35.057570000000005">
        <ele>394</ele>
        <time>2025-12-27T17:05:27Z</time>
      </trkpt>
      <trkpt lat="32.74287" lon="35.05744">
        <ele>411</ele>
        <time>2025-12-27T17:05:28Z</time>
      </trkpt>
      <trkpt lat="32.74286" lon="35.057410000000004">
        <ele>411</ele>
        <time>2025-12-27T17:05:29Z</time>
      </trkpt>
      <trkpt lat="32.742900000000006" lon="35.057300000000005">
        <ele>411</ele>
        <time>2025-12-27T17:05:30Z</time>
      </trkpt>
      <trkpt lat="32.74295" lon="35.057210000000005">
        <ele>411</ele>
        <time>2025-12-27T17:05:31Z</time>
      </trkpt>
      <trkpt lat="32.74297" lon="35.057050000000004">
        <ele>411</ele>
        <time>2025-12-27T17:05:32Z</time>
      </trkpt>
      <trkpt lat="32.74288" lon="35.05677">
        <ele>411</ele>
        <time>2025-12-27T17:05:33Z</time>
      </trkpt>
      <trkpt lat="32.7428" lon="35.05664">
        <ele>411</ele>
        <time>2025-12-27T17:05:34Z</time>
      </trkpt>
      <trkpt lat="32.7428" lon="35.056580000000004">
        <ele>438</ele>
        <time>2025-12-27T17:05:35Z</time>
      </trkpt>
      <trkpt lat="32.74269" lon="35.056610000000006">
        <ele>443</ele>
        <time>2025-12-27T17:05:36Z</time>
      </trkpt>
      <trkpt lat="32.742630000000005" lon="35.056610000000006">
        <ele>443</ele>
        <time>2025-12-27T17:05:37Z</time>
      </trkpt>
      <trkpt lat="32.742540000000005" lon="35.05657">
        <ele>443</ele>
        <time>2025-12-27T17:05:38Z</time>
      </trkpt>
      <trkpt lat="32.74221" lon="35.056360000000005">
        <ele>443</ele>
        <time>2025-12-27T17:05:39Z</time>
      </trkpt>
      <trkpt lat="32.74185" lon="35.056050000000006">
        <ele>437</ele>
        <time>2025-12-27T17:05:40Z</time>
      </trkpt>
      <trkpt lat="32.7415" lon="35.055890000000005">
        <ele>437</ele>
        <time>2025-12-27T17:05:41Z</time>
      </trkpt>
      <trkpt lat="32.741490000000006" lon="35.05583">
        <ele>437</ele>
        <time>2025-12-27T17:05:42Z</time>
      </trkpt>
      <trkpt lat="32.741510000000005" lon="35.055780000000006">
        <ele>463</ele>
        <time>2025-12-27T17:05:43Z</time>
      </trkpt>
      <trkpt lat="32.741580000000006" lon="35.05572">
        <ele>463</ele>
        <time>2025-12-27T17:05:44Z</time>
      </trkpt>
      <trkpt lat="32.74181" lon="35.055580000000006">
        <ele>463</ele>
        <time>2025-12-27T17:05:45Z</time>
      </trkpt>
      <trkpt lat="32.742050000000006" lon="35.055510000000005">
        <ele>465</ele>
        <time>2025-12-27T17:05:46Z</time>
      </trkpt>
      <extensions>
        <RoutingType xmlns="">Hike</RoutingType>
      </extensions>
    </trkseg>
    <trkseg>
      <trkpt lat="32.742050000000006" lon="35.055510000000005">
        <ele>465</ele>
        <time>2025-12-27T17:05:46Z</time>
      </trkpt>
      <trkpt lat="32.74212" lon="35.05548">
        <ele>465</ele>
        <time>2025-12-27T17:05:47Z</time>
      </trkpt>
      <trkpt lat="32.742160000000005" lon="35.05545">
        <ele>465</ele>
        <time>2025-12-27T17:05:48Z</time>
      </trkpt>
      <trkpt lat="32.74213" lon="35.05534">
        <ele>465</ele>
        <time>2025-12-27T17:05:49Z</time>
      </trkpt>
      <trkpt lat="32.74213" lon="35.05534">
        <ele>465</ele>
        <time>2025-12-27T17:05:50Z</time>
      </trkpt>
      <trkpt lat="32.74204" lon="35.055260000000004">
        <ele>465</ele>
        <time>2025-12-27T17:05:51Z</time>
      </trkpt>
      <trkpt lat="32.74194" lon="35.05521">
        <ele>465</ele>
        <time>2025-12-27T17:05:52Z</time>
      </trkpt>
      <trkpt lat="32.741730000000004" lon="35.055170000000004">
        <ele>463</ele>
        <time>2025-12-27T17:05:53Z</time>
      </trkpt>
      <trkpt lat="32.74159" lon="35.05519">
        <ele>463</ele>
        <time>2025-12-27T17:05:54Z</time>
      </trkpt>
      <trkpt lat="32.74123" lon="35.05534">
        <ele>463</ele>
        <time>2025-12-27T17:05:55Z</time>
      </trkpt>
      <trkpt lat="32.74098" lon="35.055400000000006">
        <ele>465</ele>
        <time>2025-12-27T17:05:56Z</time>
      </trkpt>
      <trkpt lat="32.7409" lon="35.055400000000006">
        <ele>465</ele>
        <time>2025-12-27T17:05:57Z</time>
      </trkpt>
      <trkpt lat="32.740840000000006" lon="35.05537">
        <ele>465</ele>
        <time>2025-12-27T17:05:58Z</time>
      </trkpt>
      <trkpt lat="32.74076" lon="35.05529">
        <ele>465</ele>
        <time>2025-12-27T17:05:59Z</time>
      </trkpt>
      <trkpt lat="32.740480000000005" lon="35.054860000000005">
        <ele>490</ele>
        <time>2025-12-27T17:06:00Z</time>
      </trkpt>
      <trkpt lat="32.740410000000004" lon="35.05481">
        <ele>490</ele>
        <time>2025-12-27T17:06:01Z</time>
      </trkpt>
      <trkpt lat="32.74035" lon="35.0548">
        <ele>490</ele>
        <time>2025-12-27T17:06:02Z</time>
      </trkpt>
      <trkpt lat="32.740190000000005" lon="35.05485">
        <ele>479</ele>
        <time>2025-12-27T17:06:03Z</time>
      </trkpt>
      <trkpt lat="32.739940000000004" lon="35.054990000000004">
        <ele>454</ele>
        <time>2025-12-27T17:06:04Z</time>
      </trkpt>
      <trkpt lat="32.739850000000004" lon="35.055020000000006">
        <ele>454</ele>
        <time>2025-12-27T17:06:05Z</time>
      </trkpt>
      <trkpt lat="32.73973" lon="35.05503">
        <ele>454</ele>
        <time>2025-12-27T17:06:06Z</time>
      </trkpt>
      <trkpt lat="32.739520000000006" lon="35.05501">
        <ele>454</ele>
        <time>2025-12-27T17:06:07Z</time>
      </trkpt>
      <trkpt lat="32.739380000000004" lon="35.05494">
        <ele>479</ele>
        <time>2025-12-27T17:06:08Z</time>
      </trkpt>
      <trkpt lat="32.739070000000005" lon="35.054610000000004">
        <ele>466</ele>
        <time>2025-12-27T17:06:09Z</time>
      </trkpt>
      <trkpt lat="32.738820000000004" lon="35.054500000000004">
        <ele>466</ele>
        <time>2025-12-27T17:06:10Z</time>
      </trkpt>
      <trkpt lat="32.7387" lon="35.054390000000005">
        <ele>466</ele>
        <time>2025-12-27T17:06:11Z</time>
      </trkpt>
      <trkpt lat="32.738620000000004" lon="35.054280000000006">
        <ele>466</ele>
        <time>2025-12-27T17:06:12Z</time>
      </trkpt>
      <trkpt lat="32.73854" lon="35.054100000000005">
        <ele>481</ele>
        <time>2025-12-27T17:06:13Z</time>
      </trkpt>
      <trkpt lat="32.73846" lon="35.053990000000006">
        <ele>481</ele>
        <time>2025-12-27T17:06:14Z</time>
      </trkpt>
      <trkpt lat="32.738400000000006" lon="35.05395">
        <ele>481</ele>
        <time>2025-12-27T17:06:15Z</time>
      </trkpt>
      <trkpt lat="32.7383" lon="35.053960000000004">
        <ele>481</ele>
        <time>2025-12-27T17:06:16Z</time>
      </trkpt>
      <trkpt lat="32.738240000000005" lon="35.054010000000005">
        <ele>481</ele>
        <time>2025-12-27T17:06:17Z</time>
      </trkpt>
      <trkpt lat="32.73792" lon="35.054410000000004">
        <ele>462</ele>
        <time>2025-12-27T17:06:18Z</time>
      </trkpt>
      <trkpt lat="32.73781" lon="35.05449">
        <ele>462</ele>
        <time>2025-12-27T17:06:19Z</time>
      </trkpt>
      <trkpt lat="32.737700000000004" lon="35.054500000000004">
        <ele>473</ele>
        <time>2025-12-27T17:06:20Z</time>
      </trkpt>
      <trkpt lat="32.73753" lon="35.05447">
        <ele>473</ele>
        <time>2025-12-27T17:06:21Z</time>
      </trkpt>
      <trkpt lat="32.73684" lon="35.05431">
        <ele>476</ele>
        <time>2025-12-27T17:06:22Z</time>
      </trkpt>
      <trkpt lat="32.73669" lon="35.05422">
        <ele>476</ele>
        <time>2025-12-27T17:06:23Z</time>
      </trkpt>
      <trkpt lat="32.736540000000005" lon="35.054080000000006">
        <ele>495</ele>
        <time>2025-12-27T17:06:24Z</time>
      </trkpt>
      <trkpt lat="32.73633" lon="35.05379">
        <ele>495</ele>
        <time>2025-12-27T17:06:25Z</time>
      </trkpt>
      <trkpt lat="32.73615" lon="35.053430000000006">
        <ele>495</ele>
        <time>2025-12-27T17:06:26Z</time>
      </trkpt>
      <trkpt lat="32.73584" lon="35.05266">
        <ele>500</ele>
        <time>2025-12-27T17:06:27Z</time>
      </trkpt>
      <trkpt lat="32.73581" lon="35.052490000000006">
        <ele>504.5</ele>
        <time>2025-12-27T17:06:28Z</time>
      </trkpt>
      <trkpt lat="32.73581" lon="35.052490000000006">
        <ele>504.5</ele>
        <time>2025-12-27T17:06:29Z</time>
      </trkpt>
      <trkpt lat="32.73572" lon="35.05207">
        <ele>509</ele>
        <time>2025-12-27T17:06:30Z</time>
      </trkpt>
      <trkpt lat="32.735620000000004" lon="35.05198">
        <ele>509</ele>
        <time>2025-12-27T17:06:31Z</time>
      </trkpt>
      <trkpt lat="32.73543" lon="35.0516">
        <ele>508</ele>
        <time>2025-12-27T17:06:32Z</time>
      </trkpt>
      <trkpt lat="32.73512" lon="35.051320000000004">
        <ele>517</ele>
        <time>2025-12-27T17:06:33Z</time>
      </trkpt>
      <trkpt lat="32.735150000000004" lon="35.050920000000005">
        <ele>517</ele>
        <time>2025-12-27T17:06:34Z</time>
      </trkpt>
      <trkpt lat="32.73491" lon="35.050850000000004">
        <ele>517</ele>
        <time>2025-12-27T17:06:35Z</time>
      </trkpt>
      <trkpt lat="32.73407" lon="35.05111">
        <ele>524</ele>
        <time>2025-12-27T17:06:36Z</time>
      </trkpt>
      <trkpt lat="32.733790000000006" lon="35.05113">
        <ele>524</ele>
        <time>2025-12-27T17:06:37Z</time>
      </trkpt>
      <trkpt lat="32.7334" lon="35.05143">
        <ele>528</ele>
        <time>2025-12-27T17:06:38Z</time>
      </trkpt>
      <trkpt lat="32.733250000000005" lon="35.05162">
        <ele>528</ele>
        <time>2025-12-27T17:06:39Z</time>
      </trkpt>
      <trkpt lat="32.733050000000006" lon="35.05199">
        <ele>523</ele>
        <time>2025-12-27T17:06:40Z</time>
      </trkpt>
      <trkpt lat="32.73266" lon="35.052870000000006">
        <ele>525</ele>
        <time>2025-12-27T17:06:41Z</time>
      </trkpt>
      <trkpt lat="32.73266" lon="35.052870000000006">
        <ele>525</ele>
        <time>2025-12-27T17:06:42Z</time>
      </trkpt>
      <trkpt lat="32.732440000000004" lon="35.053050000000006">
        <ele>525</ele>
        <time>2025-12-27T17:06:43Z</time>
      </trkpt>
      <extensions>
        <RoutingType xmlns="">Hike</RoutingType>
      </extensions>
    </trkseg>
    <trkseg>
      <trkpt lat="32.732440000000004" lon="35.053050000000006">
        <ele>525</ele>
        <time>2025-12-27T17:06:43Z</time>
      </trkpt>
      <trkpt lat="32.732220000000005" lon="35.05308">
        <ele>525</ele>
        <time>2025-12-27T17:06:44Z</time>
      </trkpt>
      <trkpt lat="32.73185" lon="35.052820000000004">
        <ele>525</ele>
        <time>2025-12-27T17:06:45Z</time>
      </trkpt>
      <trkpt lat="32.73138" lon="35.05263">
        <ele>525</ele>
        <time>2025-12-27T17:06:46Z</time>
      </trkpt>
      <trkpt lat="32.73111" lon="35.052600000000005">
        <ele>525</ele>
        <time>2025-12-27T17:06:47Z</time>
      </trkpt>
      <trkpt lat="32.73033" lon="35.052730000000004">
        <ele>525</ele>
        <time>2025-12-27T17:06:48Z</time>
      </trkpt>
      <trkpt lat="32.730140000000006" lon="35.052620000000005">
        <ele>520</ele>
        <time>2025-12-27T17:06:49Z</time>
      </trkpt>
      <trkpt lat="32.73003" lon="35.05268">
        <ele>520</ele>
        <time>2025-12-27T17:06:50Z</time>
      </trkpt>
      <trkpt lat="32.729780000000005" lon="35.05265">
        <ele>520</ele>
        <time>2025-12-27T17:06:51Z</time>
      </trkpt>
      <trkpt lat="32.72939" lon="35.052800000000005">
        <ele>520</ele>
        <time>2025-12-27T17:06:52Z</time>
      </trkpt>
      <trkpt lat="32.729350000000004" lon="35.052730000000004">
        <ele>519</ele>
        <time>2025-12-27T17:06:53Z</time>
      </trkpt>
      <trkpt lat="32.729330000000004" lon="35.05261">
        <ele>519</ele>
        <time>2025-12-27T17:06:54Z</time>
      </trkpt>
      <trkpt lat="32.729350000000004" lon="35.05254">
        <ele>519</ele>
        <time>2025-12-27T17:06:55Z</time>
      </trkpt>
      <trkpt lat="32.7297" lon="35.052040000000005">
        <ele>526</ele>
        <time>2025-12-27T17:06:56Z</time>
      </trkpt>
      <trkpt lat="32.72974" lon="35.0519">
        <ele>526</ele>
        <time>2025-12-27T17:06:57Z</time>
      </trkpt>
      <trkpt lat="32.72975" lon="35.05178">
        <ele>526</ele>
        <time>2025-12-27T17:06:58Z</time>
      </trkpt>
      <trkpt lat="32.729670000000006" lon="35.051640000000006">
        <ele>526</ele>
        <time>2025-12-27T17:06:59Z</time>
      </trkpt>
      <trkpt lat="32.729440000000004" lon="35.05145">
        <ele>535</ele>
        <time>2025-12-27T17:07:00Z</time>
      </trkpt>
      <trkpt lat="32.72901" lon="35.051190000000005">
        <ele>521</ele>
        <time>2025-12-27T17:07:01Z</time>
      </trkpt>
      <trkpt lat="32.72901" lon="35.051190000000005">
        <ele>521</ele>
        <time>2025-12-27T17:07:02Z</time>
      </trkpt>
      <trkpt lat="32.72878" lon="35.05106">
        <ele>521</ele>
        <time>2025-12-27T17:07:03Z</time>
      </trkpt>
      <trkpt lat="32.72858" lon="35.05089">
        <ele>521</ele>
        <time>2025-12-27T17:07:04Z</time>
      </trkpt>
      <trkpt lat="32.72843" lon="35.0508">
        <ele>507</ele>
        <time>2025-12-27T17:07:05Z</time>
      </trkpt>
      <trkpt lat="32.728320000000004" lon="35.050700000000006">
        <ele>515</ele>
        <time>2025-12-27T17:07:06Z</time>
      </trkpt>
      <trkpt lat="32.72807" lon="35.050360000000005">
        <ele>515</ele>
        <time>2025-12-27T17:07:07Z</time>
      </trkpt>
      <trkpt lat="32.727920000000005" lon="35.050200000000004">
        <ele>515</ele>
        <time>2025-12-27T17:07:08Z</time>
      </trkpt>
      <trkpt lat="32.72782" lon="35.050140000000006">
        <ele>515</ele>
        <time>2025-12-27T17:07:09Z</time>
      </trkpt>
      <trkpt lat="32.72726" lon="35.04988">
        <ele>512</ele>
        <time>2025-12-27T17:07:10Z</time>
      </trkpt>
      <trkpt lat="32.726940000000006" lon="35.04961">
        <ele>512</ele>
        <time>2025-12-27T17:07:11Z</time>
      </trkpt>
      <trkpt lat="32.72677" lon="35.04946">
        <ele>492</ele>
        <time>2025-12-27T17:07:12Z</time>
      </trkpt>
      <trkpt lat="32.72661" lon="35.04925">
        <ele>492</ele>
        <time>2025-12-27T17:07:13Z</time>
      </trkpt>
      <trkpt lat="32.7263" lon="35.04899">
        <ele>503</ele>
        <time>2025-12-27T17:07:14Z</time>
      </trkpt>
      <trkpt lat="32.726130000000005" lon="35.048820000000006">
        <ele>503</ele>
        <time>2025-12-27T17:07:15Z</time>
      </trkpt>
      <trkpt lat="32.725660000000005" lon="35.04847">
        <ele>484</ele>
        <time>2025-12-27T17:07:16Z</time>
      </trkpt>
      <trkpt lat="32.725460000000005" lon="35.048210000000005">
        <ele>488</ele>
        <time>2025-12-27T17:07:17Z</time>
      </trkpt>
      <trkpt lat="32.725300000000004" lon="35.04793">
        <ele>488</ele>
        <time>2025-12-27T17:07:18Z</time>
      </trkpt>
      <trkpt lat="32.72525" lon="35.047810000000005">
        <ele>488</ele>
        <time>2025-12-27T17:07:19Z</time>
      </trkpt>
      <trkpt lat="32.72507" lon="35.04721">
        <ele>477</ele>
        <time>2025-12-27T17:07:20Z</time>
      </trkpt>
      <trkpt lat="32.724990000000005" lon="35.04704">
        <ele>477</ele>
        <time>2025-12-27T17:07:21Z</time>
      </trkpt>
      <trkpt lat="32.72495" lon="35.046980000000005">
        <ele>477</ele>
        <time>2025-12-27T17:07:22Z</time>
      </trkpt>
      <trkpt lat="32.72462" lon="35.04663">
        <ele>477</ele>
        <time>2025-12-27T17:07:23Z</time>
      </trkpt>
      <trkpt lat="32.72433" lon="35.04647">
        <ele>475</ele>
        <time>2025-12-27T17:07:24Z</time>
      </trkpt>
      <trkpt lat="32.7241" lon="35.04639">
        <ele>475</ele>
        <time>2025-12-27T17:07:25Z</time>
      </trkpt>
      <trkpt lat="32.72406" lon="35.04646">
        <ele>475</ele>
        <time>2025-12-27T17:07:26Z</time>
      </trkpt>
      <trkpt lat="32.72404" lon="35.04659">
        <ele>475</ele>
        <time>2025-12-27T17:07:27Z</time>
      </trkpt>
      <trkpt lat="32.723960000000005" lon="35.04672">
        <ele>455</ele>
        <time>2025-12-27T17:07:28Z</time>
      </trkpt>
      <trkpt lat="32.723890000000004" lon="35.04674">
        <ele>455</ele>
        <time>2025-12-27T17:07:29Z</time>
      </trkpt>
      <trkpt lat="32.72386" lon="35.04679">
        <ele>455</ele>
        <time>2025-12-27T17:07:30Z</time>
      </trkpt>
      <trkpt lat="32.72381" lon="35.04674">
        <ele>455</ele>
        <time>2025-12-27T17:07:31Z</time>
      </trkpt>
      <trkpt lat="32.72381" lon="35.046710000000004">
        <ele>455</ele>
        <time>2025-12-27T17:07:32Z</time>
      </trkpt>
      <trkpt lat="32.72383" lon="35.0467">
        <ele>455</ele>
        <time>2025-12-27T17:07:33Z</time>
      </trkpt>
      <trkpt lat="32.723780000000005" lon="35.04661">
        <ele>475</ele>
        <time>2025-12-27T17:07:34Z</time>
      </trkpt>
      <trkpt lat="32.723290000000006" lon="35.04656">
        <ele>442</ele>
        <time>2025-12-27T17:07:35Z</time>
      </trkpt>
      <trkpt lat="32.72326" lon="35.046580000000006">
        <ele>442</ele>
        <time>2025-12-27T17:07:36Z</time>
      </trkpt>
      <trkpt lat="32.723110000000005" lon="35.04657">
        <ele>442</ele>
        <time>2025-12-27T17:07:37Z</time>
      </trkpt>
      <trkpt lat="32.72276" lon="35.046620000000004">
        <ele>455</ele>
        <time>2025-12-27T17:07:38Z</time>
      </trkpt>
      <trkpt lat="32.72262" lon="35.0467">
        <ele>452</ele>
        <time>2025-12-27T17:07:39Z</time>
      </trkpt>
      <trkpt lat="32.72256" lon="35.0467">
        <ele>452</ele>
        <time>2025-12-27T17:07:40Z</time>
      </trkpt>
      <extensions>
        <RoutingType xmlns="">Hike</RoutingType>
      </extensions>
    </trkseg>
    <trkseg>
      <trkpt lat="32.72256" lon="35.0467">
        <ele>452</ele>
        <time>2025-12-27T17:07:40Z</time>
      </trkpt>
      <trkpt lat="32.72251" lon="35.04666">
        <ele>452</ele>
        <time>2025-12-27T17:07:41Z</time>
      </trkpt>
      <trkpt lat="32.72252" lon="35.046530000000004">
        <ele>439</ele>
        <time>2025-12-27T17:07:42Z</time>
      </trkpt>
      <trkpt lat="32.722440000000006" lon="35.04643">
        <ele>439</ele>
        <time>2025-12-27T17:07:43Z</time>
      </trkpt>
      <trkpt lat="32.72234" lon="35.04625">
        <ele>439</ele>
        <time>2025-12-27T17:07:44Z</time>
      </trkpt>
      <trkpt lat="32.72231" lon="35.046240000000004">
        <ele>439</ele>
        <time>2025-12-27T17:07:45Z</time>
      </trkpt>
      <trkpt lat="32.72231" lon="35.046130000000005">
        <ele>439</ele>
        <time>2025-12-27T17:07:46Z</time>
      </trkpt>
      <trkpt lat="32.722530000000006" lon="35.04581">
        <ele>439</ele>
        <time>2025-12-27T17:07:47Z</time>
      </trkpt>
      <trkpt lat="32.72262" lon="35.04562">
        <ele>437.5</ele>
        <time>2025-12-27T17:07:48Z</time>
      </trkpt>
      <trkpt lat="32.72262" lon="35.04562">
        <ele>437.5</ele>
        <time>2025-12-27T17:07:49Z</time>
      </trkpt>
      <trkpt lat="32.72263" lon="35.045590000000004">
        <ele>436</ele>
        <time>2025-12-27T17:07:50Z</time>
      </trkpt>
      <trkpt lat="32.72263" lon="35.04545">
        <ele>436</ele>
        <time>2025-12-27T17:07:51Z</time>
      </trkpt>
      <trkpt lat="32.722550000000005" lon="35.045010000000005">
        <ele>436</ele>
        <time>2025-12-27T17:07:52Z</time>
      </trkpt>
      <trkpt lat="32.72254" lon="35.04482">
        <ele>428</ele>
        <time>2025-12-27T17:07:53Z</time>
      </trkpt>
      <trkpt lat="32.72229" lon="35.0443">
        <ele>428</ele>
        <time>2025-12-27T17:07:54Z</time>
      </trkpt>
      <trkpt lat="32.72215" lon="35.04408">
        <ele>437</ele>
        <time>2025-12-27T17:07:55Z</time>
      </trkpt>
      <trkpt lat="32.721900000000005" lon="35.04388">
        <ele>437</ele>
        <time>2025-12-27T17:07:56Z</time>
      </trkpt>
      <trkpt lat="32.721500000000006" lon="35.043620000000004">
        <ele>426</ele>
        <time>2025-12-27T17:07:57Z</time>
      </trkpt>
      <trkpt lat="32.720760000000006" lon="35.043040000000005">
        <ele>423</ele>
        <time>2025-12-27T17:07:58Z</time>
      </trkpt>
      <trkpt lat="32.72066" lon="35.042910000000006">
        <ele>423</ele>
        <time>2025-12-27T17:07:59Z</time>
      </trkpt>
      <trkpt lat="32.720470000000006" lon="35.042570000000005">
        <ele>423</ele>
        <time>2025-12-27T17:08:00Z</time>
      </trkpt>
      <trkpt lat="32.72035" lon="35.042410000000004">
        <ele>438</ele>
        <time>2025-12-27T17:08:01Z</time>
      </trkpt>
      <trkpt lat="32.720240000000004" lon="35.042280000000005">
        <ele>438</ele>
        <time>2025-12-27T17:08:02Z</time>
      </trkpt>
      <trkpt lat="32.72007" lon="35.04231">
        <ele>419</ele>
        <time>2025-12-27T17:08:03Z</time>
      </trkpt>
      <trkpt lat="32.71997" lon="35.04227">
        <ele>419</ele>
        <time>2025-12-27T17:08:04Z</time>
      </trkpt>
      <trkpt lat="32.71989" lon="35.042190000000005">
        <ele>419</ele>
        <time>2025-12-27T17:08:05Z</time>
      </trkpt>
      <trkpt lat="32.71974" lon="35.04215">
        <ele>419</ele>
        <time>2025-12-27T17:08:06Z</time>
      </trkpt>
      <trkpt lat="32.719440000000006" lon="35.042210000000004">
        <ele>419</ele>
        <time>2025-12-27T17:08:07Z</time>
      </trkpt>
      <trkpt lat="32.71936" lon="35.04214">
        <ele>409</ele>
        <time>2025-12-27T17:08:08Z</time>
      </trkpt>
      <trkpt lat="32.719190000000005" lon="35.04178">
        <ele>409</ele>
        <time>2025-12-27T17:08:09Z</time>
      </trkpt>
      <trkpt lat="32.71918" lon="35.04164">
        <ele>409</ele>
        <time>2025-12-27T17:08:10Z</time>
      </trkpt>
      <trkpt lat="32.71925" lon="35.041450000000005">
        <ele>410</ele>
        <time>2025-12-27T17:08:11Z</time>
      </trkpt>
      <trkpt lat="32.71924" lon="35.04139">
        <ele>410</ele>
        <time>2025-12-27T17:08:12Z</time>
      </trkpt>
      <trkpt lat="32.719120000000004" lon="35.04124">
        <ele>410</ele>
        <time>2025-12-27T17:08:13Z</time>
      </trkpt>
      <trkpt lat="32.71905" lon="35.0412">
        <ele>410</ele>
        <time>2025-12-27T17:08:14Z</time>
      </trkpt>
      <trkpt lat="32.71898" lon="35.041070000000005">
        <ele>410</ele>
        <time>2025-12-27T17:08:15Z</time>
      </trkpt>
      <trkpt lat="32.71886" lon="35.041070000000005">
        <ele>410</ele>
        <time>2025-12-27T17:08:16Z</time>
      </trkpt>
      <trkpt lat="32.71887" lon="35.04092">
        <ele>410</ele>
        <time>2025-12-27T17:08:17Z</time>
      </trkpt>
      <trkpt lat="32.71877" lon="35.04081">
        <ele>410</ele>
        <time>2025-12-27T17:08:18Z</time>
      </trkpt>
      <trkpt lat="32.71871" lon="35.04066">
        <ele>416</ele>
        <time>2025-12-27T17:08:19Z</time>
      </trkpt>
      <trkpt lat="32.71866" lon="35.04043">
        <ele>416</ele>
        <time>2025-12-27T17:08:20Z</time>
      </trkpt>
      <trkpt lat="32.718500000000006" lon="35.040330000000004">
        <ele>392</ele>
        <time>2025-12-27T17:08:21Z</time>
      </trkpt>
      <trkpt lat="32.718340000000005" lon="35.04032">
        <ele>392</ele>
        <time>2025-12-27T17:08:22Z</time>
      </trkpt>
      <trkpt lat="32.71831" lon="35.040290000000006">
        <ele>392</ele>
        <time>2025-12-27T17:08:23Z</time>
      </trkpt>
      <trkpt lat="32.71829" lon="35.04014">
        <ele>392</ele>
        <time>2025-12-27T17:08:24Z</time>
      </trkpt>
      <trkpt lat="32.71813" lon="35.03998">
        <ele>392</ele>
        <time>2025-12-27T17:08:25Z</time>
      </trkpt>
      <trkpt lat="32.71795" lon="35.03965">
        <ele>390</ele>
        <time>2025-12-27T17:08:26Z</time>
      </trkpt>
      <trkpt lat="32.71791" lon="35.03952">
        <ele>390</ele>
        <time>2025-12-27T17:08:27Z</time>
      </trkpt>
      <trkpt lat="32.71788" lon="35.03925">
        <ele>390</ele>
        <time>2025-12-27T17:08:28Z</time>
      </trkpt>
      <trkpt lat="32.717850000000006" lon="35.03923">
        <ele>390</ele>
        <time>2025-12-27T17:08:29Z</time>
      </trkpt>
      <trkpt lat="32.71783" lon="35.03916">
        <ele>390</ele>
        <time>2025-12-27T17:08:30Z</time>
      </trkpt>
      <trkpt lat="32.71777" lon="35.039100000000005">
        <ele>390</ele>
        <time>2025-12-27T17:08:31Z</time>
      </trkpt>
      <trkpt lat="32.71773" lon="35.039100000000005">
        <ele>390</ele>
        <time>2025-12-27T17:08:32Z</time>
      </trkpt>
      <trkpt lat="32.717560000000006" lon="35.03893">
        <ele>365</ele>
        <time>2025-12-27T17:08:33Z</time>
      </trkpt>
      <trkpt lat="32.71752" lon="35.039">
        <ele>365</ele>
        <time>2025-12-27T17:08:34Z</time>
      </trkpt>
      <trkpt lat="32.71727" lon="35.038650000000004">
        <ele>365</ele>
        <time>2025-12-27T17:08:35Z</time>
      </trkpt>
      <trkpt lat="32.71723" lon="35.038630000000005">
        <ele>365</ele>
        <time>2025-12-27T17:08:36Z</time>
      </trkpt>
      <trkpt lat="32.71719" lon="35.03849">
        <ele>365</ele>
        <time>2025-12-27T17:08:37Z</time>
      </trkpt>
      <extensions>
        <RoutingType xmlns="">Hike</RoutingType>
      </extensions>
    </trkseg>
    <trkseg>
      <trkpt lat="32.71719" lon="35.03849">
        <ele>365</ele>
        <time>2025-12-27T17:08:37Z</time>
      </trkpt>
      <trkpt lat="32.71716" lon="35.038470000000004">
        <ele>365</ele>
        <time>2025-12-27T17:08:38Z</time>
      </trkpt>
      <trkpt lat="32.71708" lon="35.03824">
        <ele>358</ele>
        <time>2025-12-27T17:08:39Z</time>
      </trkpt>
      <trkpt lat="32.71694" lon="35.03775">
        <ele>358</ele>
        <time>2025-12-27T17:08:40Z</time>
      </trkpt>
      <trkpt lat="32.71688" lon="35.03768">
        <ele>341</ele>
        <time>2025-12-27T17:08:41Z</time>
      </trkpt>
      <trkpt lat="32.71681" lon="35.037560000000006">
        <ele>341</ele>
        <time>2025-12-27T17:08:42Z</time>
      </trkpt>
      <trkpt lat="32.716730000000005" lon="35.03748">
        <ele>341</ele>
        <time>2025-12-27T17:08:43Z</time>
      </trkpt>
      <trkpt lat="32.71669" lon="35.037330000000004">
        <ele>340</ele>
        <time>2025-12-27T17:08:44Z</time>
      </trkpt>
      <trkpt lat="32.71652" lon="35.037060000000004">
        <ele>340</ele>
        <time>2025-12-27T17:08:45Z</time>
      </trkpt>
      <trkpt lat="32.71636" lon="35.03672">
        <ele>340</ele>
        <time>2025-12-27T17:08:46Z</time>
      </trkpt>
      <trkpt lat="32.716300000000004" lon="35.036680000000004">
        <ele>340</ele>
        <time>2025-12-27T17:08:47Z</time>
      </trkpt>
      <trkpt lat="32.716100000000004" lon="35.036620000000006">
        <ele>343</ele>
        <time>2025-12-27T17:08:48Z</time>
      </trkpt>
      <trkpt lat="32.716010000000004" lon="35.03652">
        <ele>328</ele>
        <time>2025-12-27T17:08:49Z</time>
      </trkpt>
      <trkpt lat="32.715720000000005" lon="35.03629">
        <ele>328</ele>
        <time>2025-12-27T17:08:50Z</time>
      </trkpt>
      <trkpt lat="32.71544" lon="35.03598">
        <ele>328</ele>
        <time>2025-12-27T17:08:51Z</time>
      </trkpt>
      <trkpt lat="32.71531" lon="35.035790000000006">
        <ele>323</ele>
        <time>2025-12-27T17:08:52Z</time>
      </trkpt>
      <trkpt lat="32.71553" lon="35.035470000000004">
        <ele>323</ele>
        <time>2025-12-27T17:08:53Z</time>
      </trkpt>
      <trkpt lat="32.71577" lon="35.03524">
        <ele>323</ele>
        <time>2025-12-27T17:08:54Z</time>
      </trkpt>
      <trkpt lat="32.71603" lon="35.03488">
        <ele>323</ele>
        <time>2025-12-27T17:08:55Z</time>
      </trkpt>
      <trkpt lat="32.71603" lon="35.03488">
        <ele>323</ele>
        <time>2025-12-27T17:08:56Z</time>
      </trkpt>
      <trkpt lat="32.716370000000005" lon="35.03441">
        <ele>323</ele>
        <time>2025-12-27T17:08:57Z</time>
      </trkpt>
      <trkpt lat="32.71658" lon="35.034150000000004">
        <ele>323</ele>
        <time>2025-12-27T17:08:58Z</time>
      </trkpt>
      <trkpt lat="32.716730000000005" lon="35.033930000000005">
        <ele>316</ele>
        <time>2025-12-27T17:08:59Z</time>
      </trkpt>
      <trkpt lat="32.716910000000006" lon="35.03351">
        <ele>321</ele>
        <time>2025-12-27T17:09:00Z</time>
      </trkpt>
      <trkpt lat="32.716770000000004" lon="35.03342">
        <ele>316</ele>
        <time>2025-12-27T17:09:01Z</time>
      </trkpt>
      <trkpt lat="32.716710000000006" lon="35.03336">
        <ele>316</ele>
        <time>2025-12-27T17:09:02Z</time>
      </trkpt>
      <trkpt lat="32.716640000000005" lon="35.03322">
        <ele>313</ele>
        <time>2025-12-27T17:09:03Z</time>
      </trkpt>
      <trkpt lat="32.716570000000004" lon="35.03314">
        <ele>313</ele>
        <time>2025-12-27T17:09:04Z</time>
      </trkpt>
      <trkpt lat="32.71643" lon="35.033120000000004">
        <ele>313</ele>
        <time>2025-12-27T17:09:05Z</time>
      </trkpt>
      <trkpt lat="32.716240000000006" lon="35.033170000000005">
        <ele>313</ele>
        <time>2025-12-27T17:09:06Z</time>
      </trkpt>
      <trkpt lat="32.71595" lon="35.033300000000004">
        <ele>318</ele>
        <time>2025-12-27T17:09:07Z</time>
      </trkpt>
      <trkpt lat="32.71587" lon="35.03332">
        <ele>317</ele>
        <time>2025-12-27T17:09:08Z</time>
      </trkpt>
      <trkpt lat="32.715810000000005" lon="35.033280000000005">
        <ele>318</ele>
        <time>2025-12-27T17:09:09Z</time>
      </trkpt>
      <trkpt lat="32.71558" lon="35.032970000000006">
        <ele>318</ele>
        <time>2025-12-27T17:09:10Z</time>
      </trkpt>
      <trkpt lat="32.71542" lon="35.032700000000006">
        <ele>318</ele>
        <time>2025-12-27T17:09:11Z</time>
      </trkpt>
      <trkpt lat="32.715140000000005" lon="35.03248">
        <ele>328</ele>
        <time>2025-12-27T17:09:12Z</time>
      </trkpt>
      <trkpt lat="32.71497" lon="35.032270000000004">
        <ele>326</ele>
        <time>2025-12-27T17:09:13Z</time>
      </trkpt>
      <trkpt lat="32.7149" lon="35.0322">
        <ele>326</ele>
        <time>2025-12-27T17:09:14Z</time>
      </trkpt>
      <trkpt lat="32.71459" lon="35.03202">
        <ele>326</ele>
        <time>2025-12-27T17:09:15Z</time>
      </trkpt>
      <trkpt lat="32.71421" lon="35.03193">
        <ele>335</ele>
        <time>2025-12-27T17:09:16Z</time>
      </trkpt>
      <trkpt lat="32.713570000000004" lon="35.03148">
        <ele>359</ele>
        <time>2025-12-27T17:09:17Z</time>
      </trkpt>
      <trkpt lat="32.713840000000005" lon="35.031240000000004">
        <ele>359</ele>
        <time>2025-12-27T17:09:18Z</time>
      </trkpt>
      <trkpt lat="32.713640000000005" lon="35.031200000000005">
        <ele>359</ele>
        <time>2025-12-27T17:09:19Z</time>
      </trkpt>
      <trkpt lat="32.713480000000004" lon="35.031110000000005">
        <ele>352</ele>
        <time>2025-12-27T17:09:20Z</time>
      </trkpt>
      <trkpt lat="32.713150000000006" lon="35.030950000000004">
        <ele>352</ele>
        <time>2025-12-27T17:09:21Z</time>
      </trkpt>
      <trkpt lat="32.713" lon="35.030820000000006">
        <ele>352</ele>
        <time>2025-12-27T17:09:22Z</time>
      </trkpt>
      <trkpt lat="32.71282" lon="35.03056">
        <ele>385</ele>
        <time>2025-12-27T17:09:23Z</time>
      </trkpt>
      <trkpt lat="32.71247" lon="35.02996">
        <ele>393</ele>
        <time>2025-12-27T17:09:24Z</time>
      </trkpt>
      <trkpt lat="32.712250000000004" lon="35.02967">
        <ele>393</ele>
        <time>2025-12-27T17:09:25Z</time>
      </trkpt>
      <trkpt lat="32.712140000000005" lon="35.02957">
        <ele>393</ele>
        <time>2025-12-27T17:09:26Z</time>
      </trkpt>
      <trkpt lat="32.711850000000005" lon="35.02938">
        <ele>390</ele>
        <time>2025-12-27T17:09:27Z</time>
      </trkpt>
      <trkpt lat="32.71161" lon="35.02917">
        <ele>390</ele>
        <time>2025-12-27T17:09:28Z</time>
      </trkpt>
      <trkpt lat="32.71144" lon="35.028980000000004">
        <ele>417</ele>
        <time>2025-12-27T17:09:29Z</time>
      </trkpt>
      <trkpt lat="32.7111" lon="35.028470000000006">
        <ele>417</ele>
        <time>2025-12-27T17:09:30Z</time>
      </trkpt>
      <trkpt lat="32.711000000000006" lon="35.02839">
        <ele>416</ele>
        <time>2025-12-27T17:09:31Z</time>
      </trkpt>
      <trkpt lat="32.71065" lon="35.028200000000005">
        <ele>441</ele>
        <time>2025-12-27T17:09:32Z</time>
      </trkpt>
      <trkpt lat="32.71023" lon="35.028110000000005">
        <ele>456</ele>
        <time>2025-12-27T17:09:33Z</time>
      </trkpt>
      <trkpt lat="32.710080000000005" lon="35.028040000000004">
        <ele>456</ele>
        <time>2025-12-27T17:09:34Z</time>
      </trkpt>
      <extensions>
        <RoutingType xmlns="">Hike</RoutingType>
      </extensions>
    </trkseg>
    <trkseg>
      <trkpt lat="32.710080000000005" lon="35.028040000000004">
        <ele>456</ele>
        <time>2025-12-27T17:09:34Z</time>
      </trkpt>
      <trkpt lat="32.709990000000005" lon="35.02796">
        <ele>456</ele>
        <time>2025-12-27T17:09:35Z</time>
      </trkpt>
      <trkpt lat="32.70994" lon="35.027890000000006">
        <ele>456</ele>
        <time>2025-12-27T17:09:36Z</time>
      </trkpt>
      <trkpt lat="32.709860000000006" lon="35.027680000000004">
        <ele>456</ele>
        <time>2025-12-27T17:09:37Z</time>
      </trkpt>
      <trkpt lat="32.709860000000006" lon="35.027680000000004">
        <ele>456</ele>
        <time>2025-12-27T17:09:38Z</time>
      </trkpt>
      <trkpt lat="32.709740000000004" lon="35.027480000000004">
        <ele>456</ele>
        <time>2025-12-27T17:09:39Z</time>
      </trkpt>
      <trkpt lat="32.709610000000005" lon="35.027350000000006">
        <ele>469</ele>
        <time>2025-12-27T17:09:40Z</time>
      </trkpt>
      <trkpt lat="32.70956" lon="35.02725">
        <ele>469</ele>
        <time>2025-12-27T17:09:41Z</time>
      </trkpt>
      <trkpt lat="32.709520000000005" lon="35.02722">
        <ele>469</ele>
        <time>2025-12-27T17:09:42Z</time>
      </trkpt>
      <trkpt lat="32.70946" lon="35.02722">
        <ele>469</ele>
        <time>2025-12-27T17:09:43Z</time>
      </trkpt>
      <trkpt lat="32.709050000000005" lon="35.02747">
        <ele>484</ele>
        <time>2025-12-27T17:09:44Z</time>
      </trkpt>
      <trkpt lat="32.708800000000004" lon="35.02774">
        <ele>477</ele>
        <time>2025-12-27T17:09:45Z</time>
      </trkpt>
      <trkpt lat="32.708740000000006" lon="35.027770000000004">
        <ele>477</ele>
        <time>2025-12-27T17:09:46Z</time>
      </trkpt>
      <trkpt lat="32.70864" lon="35.027770000000004">
        <ele>477</ele>
        <time>2025-12-27T17:09:47Z</time>
      </trkpt>
      <trkpt lat="32.70863" lon="35.02765">
        <ele>477</ele>
        <time>2025-12-27T17:09:48Z</time>
      </trkpt>
      <trkpt lat="32.708330000000004" lon="35.027280000000005">
        <ele>487</ele>
        <time>2025-12-27T17:09:49Z</time>
      </trkpt>
      <trkpt lat="32.70828" lon="35.027190000000004">
        <ele>487</ele>
        <time>2025-12-27T17:09:50Z</time>
      </trkpt>
      <trkpt lat="32.708310000000004" lon="35.02709">
        <ele>487</ele>
        <time>2025-12-27T17:09:51Z</time>
      </trkpt>
      <trkpt lat="32.70853" lon="35.02673">
        <ele>487</ele>
        <time>2025-12-27T17:09:52Z</time>
      </trkpt>
      <trkpt lat="32.70854" lon="35.026630000000004">
        <ele>486</ele>
        <time>2025-12-27T17:09:53Z</time>
      </trkpt>
      <trkpt lat="32.70848" lon="35.0266">
        <ele>486</ele>
        <time>2025-12-27T17:09:54Z</time>
      </trkpt>
      <trkpt lat="32.708420000000004" lon="35.02651">
        <ele>486</ele>
        <time>2025-12-27T17:09:55Z</time>
      </trkpt>
      <trkpt lat="32.70844" lon="35.02648">
        <ele>486</ele>
        <time>2025-12-27T17:09:56Z</time>
      </trkpt>
      <trkpt lat="32.70844" lon="35.02637">
        <ele>486</ele>
        <time>2025-12-27T17:09:57Z</time>
      </trkpt>
      <trkpt lat="32.70841" lon="35.02631">
        <ele>486</ele>
        <time>2025-12-27T17:09:58Z</time>
      </trkpt>
      <trkpt lat="32.708420000000004" lon="35.026120000000006">
        <ele>486</ele>
        <time>2025-12-27T17:09:59Z</time>
      </trkpt>
      <trkpt lat="32.708290000000005" lon="35.02601">
        <ele>486</ele>
        <time>2025-12-27T17:10:00Z</time>
      </trkpt>
      <trkpt lat="32.70835" lon="35.0259">
        <ele>486</ele>
        <time>2025-12-27T17:10:01Z</time>
      </trkpt>
      <trkpt lat="32.70843" lon="35.025830000000006">
        <ele>486</ele>
        <time>2025-12-27T17:10:02Z</time>
      </trkpt>
      <trkpt lat="32.70875" lon="35.025830000000006">
        <ele>481</ele>
        <time>2025-12-27T17:10:03Z</time>
      </trkpt>
      <trkpt lat="32.70881" lon="35.025800000000004">
        <ele>473</ele>
        <time>2025-12-27T17:10:04Z</time>
      </trkpt>
      <trkpt lat="32.708960000000005" lon="35.02563">
        <ele>473</ele>
        <time>2025-12-27T17:10:05Z</time>
      </trkpt>
      <trkpt lat="32.709050000000005" lon="35.02541">
        <ele>473</ele>
        <time>2025-12-27T17:10:06Z</time>
      </trkpt>
      <trkpt lat="32.70918" lon="35.025220000000004">
        <ele>473</ele>
        <time>2025-12-27T17:10:07Z</time>
      </trkpt>
      <trkpt lat="32.709210000000006" lon="35.0249">
        <ele>471</ele>
        <time>2025-12-27T17:10:08Z</time>
      </trkpt>
      <trkpt lat="32.709250000000004" lon="35.02478">
        <ele>471</ele>
        <time>2025-12-27T17:10:09Z</time>
      </trkpt>
      <trkpt lat="32.70931" lon="35.02467">
        <ele>471</ele>
        <time>2025-12-27T17:10:10Z</time>
      </trkpt>
      <trkpt lat="32.70947" lon="35.02458">
        <ele>453</ele>
        <time>2025-12-27T17:10:11Z</time>
      </trkpt>
      <trkpt lat="32.709520000000005" lon="35.02451">
        <ele>453</ele>
        <time>2025-12-27T17:10:12Z</time>
      </trkpt>
      <trkpt lat="32.70955" lon="35.0244">
        <ele>453</ele>
        <time>2025-12-27T17:10:13Z</time>
      </trkpt>
      <trkpt lat="32.709590000000006" lon="35.02412">
        <ele>455</ele>
        <time>2025-12-27T17:10:14Z</time>
      </trkpt>
      <trkpt lat="32.70969" lon="35.02387">
        <ele>455</ele>
        <time>2025-12-27T17:10:15Z</time>
      </trkpt>
      <trkpt lat="32.709810000000004" lon="35.02362">
        <ele>455</ele>
        <time>2025-12-27T17:10:16Z</time>
      </trkpt>
      <trkpt lat="32.709860000000006" lon="35.02344">
        <ele>455</ele>
        <time>2025-12-27T17:10:17Z</time>
      </trkpt>
      <trkpt lat="32.709880000000005" lon="35.02326">
        <ele>455</ele>
        <time>2025-12-27T17:10:18Z</time>
      </trkpt>
      <trkpt lat="32.709970000000006" lon="35.02295">
        <ele>455</ele>
        <time>2025-12-27T17:10:19Z</time>
      </trkpt>
      <trkpt lat="32.71023" lon="35.02261">
        <ele>455</ele>
        <time>2025-12-27T17:10:20Z</time>
      </trkpt>
      <trkpt lat="32.710300000000004" lon="35.022580000000005">
        <ele>449</ele>
        <time>2025-12-27T17:10:21Z</time>
      </trkpt>
      <trkpt lat="32.710530000000006" lon="35.022580000000005">
        <ele>449</ele>
        <time>2025-12-27T17:10:22Z</time>
      </trkpt>
      <trkpt lat="32.7106" lon="35.022560000000006">
        <ele>449</ele>
        <time>2025-12-27T17:10:23Z</time>
      </trkpt>
      <trkpt lat="32.711040000000004" lon="35.02232">
        <ele>439.5</ele>
        <time>2025-12-27T17:10:24Z</time>
      </trkpt>
      <trkpt lat="32.711040000000004" lon="35.02232">
        <ele>439.5</ele>
        <time>2025-12-27T17:10:25Z</time>
      </trkpt>
      <trkpt lat="32.71114" lon="35.022270000000006">
        <ele>430</ele>
        <time>2025-12-27T17:10:26Z</time>
      </trkpt>
      <trkpt lat="32.71123" lon="35.022180000000006">
        <ele>430</ele>
        <time>2025-12-27T17:10:27Z</time>
      </trkpt>
      <trkpt lat="32.71139" lon="35.021890000000006">
        <ele>430</ele>
        <time>2025-12-27T17:10:28Z</time>
      </trkpt>
      <trkpt lat="32.711580000000005" lon="35.021420000000006">
        <ele>428</ele>
        <time>2025-12-27T17:10:29Z</time>
      </trkpt>
      <trkpt lat="32.71173" lon="35.021280000000004">
        <ele>428</ele>
        <time>2025-12-27T17:10:30Z</time>
      </trkpt>
      <trkpt lat="32.71192" lon="35.020970000000005">
        <ele>402</ele>
        <time>2025-12-27T17:10:31Z</time>
      </trkpt>
      <extensions>
        <RoutingType xmlns="">Hike</RoutingType>
      </extensions>
    </trkseg>
    <trkseg>
      <trkpt lat="32.71192" lon="35.020970000000005">
        <ele>402</ele>
        <time>2025-12-27T17:10:31Z</time>
      </trkpt>
      <trkpt lat="32.712050000000005" lon="35.020830000000004">
        <ele>402</ele>
        <time>2025-12-27T17:10:32Z</time>
      </trkpt>
      <trkpt lat="32.7121" lon="35.02075">
        <ele>401</ele>
        <time>2025-12-27T17:10:33Z</time>
      </trkpt>
      <trkpt lat="32.71215" lon="35.02058">
        <ele>401</ele>
        <time>2025-12-27T17:10:34Z</time>
      </trkpt>
      <trkpt lat="32.712160000000004" lon="35.020480000000006">
        <ele>401</ele>
        <time>2025-12-27T17:10:35Z</time>
      </trkpt>
      <trkpt lat="32.71209" lon="35.02017">
        <ele>401</ele>
        <time>2025-12-27T17:10:36Z</time>
      </trkpt>
      <trkpt lat="32.712070000000004" lon="35.020120000000006">
        <ele>401</ele>
        <time>2025-12-27T17:10:37Z</time>
      </trkpt>
      <trkpt lat="32.71199" lon="35.02002">
        <ele>401</ele>
        <time>2025-12-27T17:10:38Z</time>
      </trkpt>
      <trkpt lat="32.71199" lon="35.01999">
        <ele>401</ele>
        <time>2025-12-27T17:10:39Z</time>
      </trkpt>
      <trkpt lat="32.71204" lon="35.01993">
        <ele>392</ele>
        <time>2025-12-27T17:10:40Z</time>
      </trkpt>
      <trkpt lat="32.712230000000005" lon="35.019940000000005">
        <ele>392</ele>
        <time>2025-12-27T17:10:41Z</time>
      </trkpt>
      <trkpt lat="32.71233" lon="35.01993">
        <ele>392</ele>
        <time>2025-12-27T17:10:42Z</time>
      </trkpt>
      <trkpt lat="32.71239" lon="35.019890000000004">
        <ele>392</ele>
        <time>2025-12-27T17:10:43Z</time>
      </trkpt>
      <trkpt lat="32.712520000000005" lon="35.01979">
        <ele>392</ele>
        <time>2025-12-27T17:10:44Z</time>
      </trkpt>
      <trkpt lat="32.712650000000004" lon="35.01962">
        <ele>392</ele>
        <time>2025-12-27T17:10:45Z</time>
      </trkpt>
      <trkpt lat="32.71276" lon="35.019560000000006">
        <ele>382</ele>
        <time>2025-12-27T17:10:46Z</time>
      </trkpt>
      <trkpt lat="32.71282" lon="35.019490000000005">
        <ele>382</ele>
        <time>2025-12-27T17:10:47Z</time>
      </trkpt>
      <trkpt lat="32.71289" lon="35.01934">
        <ele>382</ele>
        <time>2025-12-27T17:10:48Z</time>
      </trkpt>
      <trkpt lat="32.71295" lon="35.01903">
        <ele>378</ele>
        <time>2025-12-27T17:10:49Z</time>
      </trkpt>
      <trkpt lat="32.71307" lon="35.0187">
        <ele>378</ele>
        <time>2025-12-27T17:10:50Z</time>
      </trkpt>
      <trkpt lat="32.713100000000004" lon="35.01863">
        <ele>378</ele>
        <time>2025-12-27T17:10:51Z</time>
      </trkpt>
      <trkpt lat="32.713170000000005" lon="35.018570000000004">
        <ele>378</ele>
        <time>2025-12-27T17:10:52Z</time>
      </trkpt>
      <trkpt lat="32.713440000000006" lon="35.0185">
        <ele>378</ele>
        <time>2025-12-27T17:10:53Z</time>
      </trkpt>
      <trkpt lat="32.71372" lon="35.01852">
        <ele>364</ele>
        <time>2025-12-27T17:10:54Z</time>
      </trkpt>
      <trkpt lat="32.713860000000004" lon="35.018480000000004">
        <ele>364</ele>
        <time>2025-12-27T17:10:55Z</time>
      </trkpt>
      <trkpt lat="32.71392" lon="35.0184">
        <ele>364</ele>
        <time>2025-12-27T17:10:56Z</time>
      </trkpt>
      <trkpt lat="32.71392" lon="35.0184">
        <ele>364</ele>
        <time>2025-12-27T17:10:57Z</time>
      </trkpt>
      <trkpt lat="32.713950000000004" lon="35.018280000000004">
        <ele>373</ele>
        <time>2025-12-27T17:10:58Z</time>
      </trkpt>
      <trkpt lat="32.71398" lon="35.01782">
        <ele>373</ele>
        <time>2025-12-27T17:10:59Z</time>
      </trkpt>
      <trkpt lat="32.71399" lon="35.017720000000004">
        <ele>373</ele>
        <time>2025-12-27T17:11:00Z</time>
      </trkpt>
      <trkpt lat="32.71405" lon="35.01758">
        <ele>373</ele>
        <time>2025-12-27T17:11:01Z</time>
      </trkpt>
      <trkpt lat="32.71414" lon="35.01744">
        <ele>378</ele>
        <time>2025-12-27T17:11:02Z</time>
      </trkpt>
      <trkpt lat="32.714270000000006" lon="35.017320000000005">
        <ele>378</ele>
        <time>2025-12-27T17:11:03Z</time>
      </trkpt>
      <trkpt lat="32.7147" lon="35.01702">
        <ele>371</ele>
        <time>2025-12-27T17:11:04Z</time>
      </trkpt>
      <trkpt lat="32.71492" lon="35.016850000000005">
        <ele>371</ele>
        <time>2025-12-27T17:11:05Z</time>
      </trkpt>
      <trkpt lat="32.71501" lon="35.01675">
        <ele>371</ele>
        <time>2025-12-27T17:11:06Z</time>
      </trkpt>
      <trkpt lat="32.71508" lon="35.01664">
        <ele>369</ele>
        <time>2025-12-27T17:11:07Z</time>
      </trkpt>
      <trkpt lat="32.715090000000004" lon="35.01657">
        <ele>369</ele>
        <time>2025-12-27T17:11:08Z</time>
      </trkpt>
      <trkpt lat="32.71506" lon="35.0165">
        <ele>369</ele>
        <time>2025-12-27T17:11:09Z</time>
      </trkpt>
      <trkpt lat="32.71495" lon="35.016380000000005">
        <ele>369</ele>
        <time>2025-12-27T17:11:10Z</time>
      </trkpt>
      <trkpt lat="32.7147" lon="35.016290000000005">
        <ele>369</ele>
        <time>2025-12-27T17:11:11Z</time>
      </trkpt>
      <trkpt lat="32.714560000000006" lon="35.016270000000006">
        <ele>369</ele>
        <time>2025-12-27T17:11:12Z</time>
      </trkpt>
      <trkpt lat="32.71434" lon="35.016290000000005">
        <ele>371</ele>
        <time>2025-12-27T17:11:13Z</time>
      </trkpt>
      <trkpt lat="32.71412" lon="35.016270000000006">
        <ele>371</ele>
        <time>2025-12-27T17:11:14Z</time>
      </trkpt>
      <trkpt lat="32.71405" lon="35.01621">
        <ele>371</ele>
        <time>2025-12-27T17:11:15Z</time>
      </trkpt>
      <trkpt lat="32.713910000000006" lon="35.015890000000006">
        <ele>371</ele>
        <time>2025-12-27T17:11:16Z</time>
      </trkpt>
      <trkpt lat="32.713910000000006" lon="35.01581">
        <ele>364</ele>
        <time>2025-12-27T17:11:17Z</time>
      </trkpt>
      <trkpt lat="32.71403" lon="35.01556">
        <ele>364</ele>
        <time>2025-12-27T17:11:18Z</time>
      </trkpt>
      <trkpt lat="32.714110000000005" lon="35.015280000000004">
        <ele>364</ele>
        <time>2025-12-27T17:11:19Z</time>
      </trkpt>
      <trkpt lat="32.71419" lon="35.015080000000005">
        <ele>364</ele>
        <time>2025-12-27T17:11:20Z</time>
      </trkpt>
      <trkpt lat="32.71423" lon="35.01502">
        <ele>364</ele>
        <time>2025-12-27T17:11:21Z</time>
      </trkpt>
      <trkpt lat="32.714310000000005" lon="35.014920000000004">
        <ele>357</ele>
        <time>2025-12-27T17:11:22Z</time>
      </trkpt>
      <trkpt lat="32.71437" lon="35.01482">
        <ele>357</ele>
        <time>2025-12-27T17:11:23Z</time>
      </trkpt>
      <trkpt lat="32.71437" lon="35.01475">
        <ele>357</ele>
        <time>2025-12-27T17:11:24Z</time>
      </trkpt>
      <trkpt lat="32.714330000000004" lon="35.01429">
        <ele>357</ele>
        <time>2025-12-27T17:11:25Z</time>
      </trkpt>
      <trkpt lat="32.71437" lon="35.01408">
        <ele>354</ele>
        <time>2025-12-27T17:11:26Z</time>
      </trkpt>
      <trkpt lat="32.71432" lon="35.01393">
        <ele>354</ele>
        <time>2025-12-27T17:11:27Z</time>
      </trkpt>
      <trkpt lat="32.71432" lon="35.01382">
        <ele>354</ele>
        <time>2025-12-27T17:11:28Z</time>
      </trkpt>
      <extensions>
        <RoutingType xmlns="">Hike</RoutingType>
      </extensions>
    </trkseg>
    <trkseg>
      <trkpt lat="32.71432" lon="35.01382">
        <ele>354</ele>
        <time>2025-12-27T17:11:28Z</time>
      </trkpt>
      <trkpt lat="32.71437" lon="35.01359">
        <ele>354</ele>
        <time>2025-12-27T17:11:29Z</time>
      </trkpt>
      <trkpt lat="32.714420000000004" lon="35.0135">
        <ele>352.5</ele>
        <time>2025-12-27T17:11:30Z</time>
      </trkpt>
      <extensions>
        <RoutingType xmlns="">Hike</RoutingType>
      </extensions>
    </trkseg>
  </trk>
</gpx>
