<?xml version="1.0" encoding="UTF-8" standalone="yes"?>
<gpx xmlns="http://www.topografix.com/GPX/1/1" xmlns:xsi="http://www.w3.org/2001/XMLSchema-instance" version="1.1" creator="IsraelHikingMap" xsi:schemaLocation="http://www.topografix.com/GPX/1/1 http://www.topografix.com/GPX/1/1/gpx.xsd">
  <metadata>
    <bounds maxlat="32.543033" maxlon="34.93978" minlat="32.414346" minlon="34.883581"></bounds>
  </metadata>
  <trk>
    <name>17 - בנימינה לברכת יער</name>
    <desc>🏞️ קושי: בינוני | מישור החוף
🥾 רמת הנדיב, חורבת עקב, שמורת חוטם הכרמל, בית חנניה, ג&#39;יסר א-רקא, קיסריה.
💦 טבילה: ים תיכון
⛺ לילה: על החוף בקיסריה
🛏️ מתקני לינה: חניון יער חדרה / בריכת יער — אין כלום. למלא מים בפארק נחל חדרה, כ-5 ק"מ לפני ההגעה.
🛒 קניות בקרבת המסלול:
• בית חנניה — א׳-ה׳: 05:30-14:00 16:30-19:00.         סגור בשלישי בצהריים | ו׳: 05:30-14:00 | שבת: סגור | ☎ 04-6360286
• ג&#39;יסר א-זרקא — א׳-ה׳: חנויות מכולת ברחוב הראשי | על השביל
• קיסריה — א׳-ה׳: 07:00-20:30 | ו׳: 06:30-15:00 | שבת: סגור | ☎ 04-6361820 | סופרמרקט פוליצר. 1 ק&quot;מ מהשביל
• שדות ים | תחנת דלק מדרום לקיבוץ ליד תחנת הכח אורות רבין. מסעדה איטלקית\יפנית כשרה</desc>
    <trkseg>
      <trkpt lat="32.543033" lon="34.935832">
        <ele>134.5</ele>
      </trkpt>
      <trkpt lat="32.543033" lon="34.935832">
        <ele>134.5</ele>
      </trkpt>
      <extensions>
        <RoutingType xmlns="">Hike</RoutingType>
      </extensions>
    </trkseg>
    <trkseg>
      <trkpt lat="32.543033" lon="34.935832">
        <ele>134.5</ele>
      </trkpt>
      <trkpt lat="32.542918" lon="34.935846">
        <ele>133.60017956989026</ele>
      </trkpt>
      <trkpt lat="32.542716" lon="34.935811">
        <ele>132.14079994645772</ele>
      </trkpt>
      <trkpt lat="32.542569" lon="34.935838">
        <ele>131.3689132846788</ele>
      </trkpt>
      <trkpt lat="32.542432" lon="34.935852">
        <ele>131.07384840472818</ele>
      </trkpt>
      <trkpt lat="32.542298" lon="34.935796">
        <ele>131.23182569134224</ele>
      </trkpt>
      <trkpt lat="32.542217" lon="34.935777">
        <ele>131.29212081108952</ele>
      </trkpt>
      <trkpt lat="32.542153" lon="34.935817">
        <ele>131.26530813334023</ele>
      </trkpt>
      <trkpt lat="32.542036" lon="34.935844">
        <ele>131.22112914093552</ele>
      </trkpt>
      <trkpt lat="32.541916" lon="34.935776">
        <ele>130.41143244526285</ele>
      </trkpt>
      <trkpt lat="32.541872" lon="34.935755">
        <ele>129.91921771038645</ele>
      </trkpt>
      <trkpt lat="32.541784" lon="34.935737">
        <ele>128.99245902453438</ele>
      </trkpt>
      <trkpt lat="32.541579" lon="34.935725">
        <ele>125.81892897891362</ele>
      </trkpt>
      <trkpt lat="32.541135" lon="34.935673">
        <ele>119.81600960713837</ele>
      </trkpt>
      <trkpt lat="32.540436" lon="34.935478">
        <ele>117.56781320056433</ele>
      </trkpt>
      <trkpt lat="32.539559" lon="34.935237">
        <ele>113.1380976236091</ele>
      </trkpt>
      <trkpt lat="32.539462" lon="34.935193">
        <ele>112.44524005607693</ele>
      </trkpt>
      <trkpt lat="32.539358" lon="34.935153">
        <ele>111.71582211273433</ele>
      </trkpt>
      <trkpt lat="32.539295" lon="34.935192">
        <ele>110.8343433502865</ele>
      </trkpt>
      <trkpt lat="32.539319" lon="34.935019">
        <ele>108.97169808016767</ele>
      </trkpt>
      <trkpt lat="32.539264" lon="34.93495">
        <ele>107.9826870255332</ele>
      </trkpt>
      <trkpt lat="32.539159" lon="34.934899">
        <ele>106.63694431420352</ele>
      </trkpt>
      <trkpt lat="32.538971" lon="34.934876">
        <ele>104.90179957170973</ele>
      </trkpt>
      <trkpt lat="32.53888" lon="34.934857">
        <ele>104.59357084081068</ele>
      </trkpt>
      <trkpt lat="32.538748" lon="34.934854">
        <ele>104.02304177532653</ele>
      </trkpt>
      <trkpt lat="32.538567" lon="34.934816">
        <ele>101.70661253115816</ele>
      </trkpt>
      <trkpt lat="32.538352" lon="34.934797">
        <ele>99.09614502132882</ele>
      </trkpt>
      <trkpt lat="32.538047" lon="34.934732">
        <ele>95.82930437270731</ele>
      </trkpt>
      <trkpt lat="32.537859" lon="34.934637">
        <ele>92.19390396694867</ele>
      </trkpt>
      <trkpt lat="32.537762" lon="34.934655">
        <ele>89.86492389924275</ele>
      </trkpt>
      <trkpt lat="32.53765" lon="34.934687">
        <ele>87.3614781597238</ele>
      </trkpt>
      <trkpt lat="32.537425" lon="34.934748">
        <ele>83.03883628278166</ele>
      </trkpt>
      <trkpt lat="32.537298" lon="34.934913">
        <ele>81.71236241382512</ele>
      </trkpt>
      <trkpt lat="32.537285" lon="34.935068">
        <ele>82.02816697672193</ele>
      </trkpt>
      <trkpt lat="32.537268" lon="34.935236">
        <ele>83.45571916578687</ele>
      </trkpt>
      <trkpt lat="32.537218" lon="34.935389">
        <ele>83.78218673922625</ele>
      </trkpt>
      <trkpt lat="32.537197" lon="34.935431">
        <ele>83.67537731958805</ele>
      </trkpt>
      <trkpt lat="32.537084" lon="34.935487">
        <ele>83.35763441388039</ele>
      </trkpt>
      <trkpt lat="32.536936" lon="34.935589">
        <ele>81.80933638902282</ele>
      </trkpt>
      <trkpt lat="32.536614" lon="34.935641">
        <ele>78.55718030582021</ele>
      </trkpt>
      <trkpt lat="32.536187" lon="34.935728">
        <ele>75.81877365691341</ele>
      </trkpt>
      <trkpt lat="32.535787" lon="34.935855">
        <ele>73.16716326525436</ele>
      </trkpt>
      <trkpt lat="32.535659" lon="34.935932">
        <ele>70.49647127291296</ele>
      </trkpt>
      <trkpt lat="32.535511" lon="34.935993">
        <ele>67.24833098191259</ele>
      </trkpt>
      <trkpt lat="32.535499" lon="34.936018">
        <ele>66.78088020952244</ele>
      </trkpt>
      <trkpt lat="32.535466" lon="34.936018">
        <ele>66.14484522907802</ele>
      </trkpt>
      <trkpt lat="32.535424" lon="34.936005">
        <ele>65.30823930853875</ele>
      </trkpt>
      <trkpt lat="32.535385" lon="34.935987">
        <ele>64.50166351337286</ele>
      </trkpt>
      <trkpt lat="32.535361" lon="34.936">
        <ele>63.99314347175036</ele>
      </trkpt>
      <trkpt lat="32.535378" lon="34.936105">
        <ele>62.25582635626048</ele>
      </trkpt>
      <trkpt lat="32.535341" lon="34.936115">
        <ele>61.38052314410227</ele>
      </trkpt>
      <trkpt lat="32.535363" lon="34.936241">
        <ele>58.76700281263207</ele>
      </trkpt>
      <trkpt lat="32.535299" lon="34.936356">
        <ele>55.96818711269206</ele>
      </trkpt>
      <trkpt lat="32.534901" lon="34.936635">
        <ele>46.20962373856468</ele>
      </trkpt>
      <trkpt lat="32.534343" lon="34.936891">
        <ele>40.18833388520994</ele>
      </trkpt>
      <trkpt lat="32.534268" lon="34.93692">
        <ele>39.89990256916361</ele>
      </trkpt>
      <trkpt lat="32.534174" lon="34.936996">
        <ele>39.6469113201469</ele>
      </trkpt>
      <trkpt lat="32.534088" lon="34.937065">
        <ele>39.416011402552044</ele>
      </trkpt>
      <trkpt lat="32.533824" lon="34.937246">
        <ele>37.77929353470746</ele>
      </trkpt>
      <extensions>
        <RoutingType xmlns="">Hike</RoutingType>
      </extensions>
    </trkseg>
    <trkseg>
      <trkpt lat="32.533824" lon="34.937246">
        <ele>37.6</ele>
      </trkpt>
      <trkpt lat="32.533807" lon="34.937258">
        <ele>37.34336537763441</ele>
      </trkpt>
      <trkpt lat="32.533436" lon="34.937423">
        <ele>32.311663290325015</ele>
      </trkpt>
      <trkpt lat="32.533212" lon="34.937562">
        <ele>29.4589920202434</ele>
      </trkpt>
      <trkpt lat="32.533049" lon="34.937632">
        <ele>27.951411947841294</ele>
      </trkpt>
      <trkpt lat="32.532907" lon="34.937693">
        <ele>27.727501011631755</ele>
      </trkpt>
      <trkpt lat="32.532441" lon="34.938017">
        <ele>25.826661296130247</ele>
      </trkpt>
      <trkpt lat="32.532298" lon="34.938149">
        <ele>26.019472182807316</ele>
      </trkpt>
      <trkpt lat="32.531988" lon="34.938463">
        <ele>26.686593904697524</ele>
      </trkpt>
      <trkpt lat="32.531819" lon="34.938677">
        <ele>25.683108935637602</ele>
      </trkpt>
      <trkpt lat="32.531775" lon="34.938934">
        <ele>25.038967642755427</ele>
      </trkpt>
      <trkpt lat="32.53179" lon="34.938997">
        <ele>24.91622556613406</ele>
      </trkpt>
      <trkpt lat="32.531772" lon="34.939357">
        <ele>23.773436355297623</ele>
      </trkpt>
      <trkpt lat="32.531617" lon="34.939571">
        <ele>22.559188472958603</ele>
      </trkpt>
      <trkpt lat="32.531514" lon="34.939641">
        <ele>22.096110245275646</ele>
      </trkpt>
      <trkpt lat="32.531324" lon="34.939662">
        <ele>21.530281864484483</ele>
      </trkpt>
      <trkpt lat="32.531112" lon="34.939593">
        <ele>20.41223920085377</ele>
      </trkpt>
      <trkpt lat="32.530876" lon="34.939747">
        <ele>18.239167012119182</ele>
      </trkpt>
      <trkpt lat="32.530671" lon="34.93978">
        <ele>16.61570987608082</ele>
      </trkpt>
      <trkpt lat="32.530729" lon="34.939617">
        <ele>15.671493800694822</ele>
      </trkpt>
      <trkpt lat="32.531052" lon="34.938923">
        <ele>15.715017406896258</ele>
      </trkpt>
      <trkpt lat="32.531133" lon="34.938854">
        <ele>16.047686919094208</ele>
      </trkpt>
      <trkpt lat="32.530988" lon="34.938715">
        <ele>14.581034772474112</ele>
      </trkpt>
      <trkpt lat="32.530964" lon="34.938484">
        <ele>12.54727578886551</ele>
      </trkpt>
      <trkpt lat="32.530916" lon="34.938454">
        <ele>11.903754014215826</ele>
      </trkpt>
      <trkpt lat="32.530885" lon="34.938435">
        <ele>11.489881005803568</ele>
      </trkpt>
      <trkpt lat="32.530834" lon="34.938406">
        <ele>10.819059057146784</ele>
      </trkpt>
      <trkpt lat="32.530794" lon="34.938305">
        <ele>10.176297121572269</ele>
      </trkpt>
      <trkpt lat="32.530815" lon="34.938137">
        <ele>9.486346131752885</ele>
      </trkpt>
      <trkpt lat="32.530821" lon="34.937569">
        <ele>9</ele>
      </trkpt>
      <trkpt lat="32.530859" lon="34.937311">
        <ele>9</ele>
      </trkpt>
      <trkpt lat="32.530858" lon="34.937114">
        <ele>9</ele>
      </trkpt>
      <trkpt lat="32.530841" lon="34.936975">
        <ele>9.085567990473601</ele>
      </trkpt>
      <trkpt lat="32.53101" lon="34.936595">
        <ele>9.045918444836925</ele>
      </trkpt>
      <extensions>
        <RoutingType xmlns="">Hike</RoutingType>
      </extensions>
    </trkseg>
    <trkseg>
      <trkpt lat="32.53101" lon="34.936595">
        <ele>9</ele>
      </trkpt>
      <trkpt lat="32.531088" lon="34.936419">
        <ele>8.130113395311989</ele>
      </trkpt>
      <trkpt lat="32.531277" lon="34.936141">
        <ele>6.71519202049056</ele>
      </trkpt>
      <trkpt lat="32.531417" lon="34.935872">
        <ele>6.182436613135638</ele>
      </trkpt>
      <trkpt lat="32.531837" lon="34.935574">
        <ele>6.831368150895432</ele>
      </trkpt>
      <trkpt lat="32.531817" lon="34.935147">
        <ele>7.9004874293932446</ele>
      </trkpt>
      <trkpt lat="32.531837" lon="34.934584">
        <ele>8.89095035965404</ele>
      </trkpt>
      <trkpt lat="32.531928" lon="34.933529">
        <ele>9</ele>
      </trkpt>
      <trkpt lat="32.531966" lon="34.933289">
        <ele>8.643204168578558</ele>
      </trkpt>
      <trkpt lat="32.532091" lon="34.933072">
        <ele>8.125595917337474</ele>
      </trkpt>
      <trkpt lat="32.532112" lon="34.932982">
        <ele>7.9213258627926555</ele>
      </trkpt>
      <trkpt lat="32.532037" lon="34.932846">
        <ele>7.766549208910376</ele>
      </trkpt>
      <trkpt lat="32.532023" lon="34.932686">
        <ele>7.7162820229457685</ele>
      </trkpt>
      <trkpt lat="32.532042" lon="34.932185">
        <ele>8.05739299192275</ele>
      </trkpt>
      <trkpt lat="32.532087" lon="34.931307">
        <ele>7.853084038056729</ele>
      </trkpt>
      <trkpt lat="32.532139" lon="34.93112">
        <ele>8.468407301904588</ele>
      </trkpt>
      <trkpt lat="32.5322" lon="34.930346">
        <ele>9.122131138721132</ele>
      </trkpt>
      <trkpt lat="32.532231" lon="34.930289">
        <ele>8.931363009740245</ele>
      </trkpt>
      <trkpt lat="32.532213" lon="34.929072">
        <ele>7.106597343849483</ele>
      </trkpt>
      <trkpt lat="32.532266" lon="34.928718">
        <ele>7.8030470715512035</ele>
      </trkpt>
      <trkpt lat="32.532301" lon="34.928561">
        <ele>8.259771638714446</ele>
      </trkpt>
      <trkpt lat="32.532358" lon="34.927056">
        <ele>9.672128358194021</ele>
      </trkpt>
      <trkpt lat="32.532296" lon="34.926484">
        <ele>7.410521472619952</ele>
      </trkpt>
      <trkpt lat="32.532415" lon="34.925405">
        <ele>5.650913750856525</ele>
      </trkpt>
      <trkpt lat="32.532307" lon="34.925382">
        <ele>5.7645086252741295</ele>
      </trkpt>
      <trkpt lat="32.532206" lon="34.925251">
        <ele>5.9863988624266025</ele>
      </trkpt>
      <trkpt lat="32.532035" lon="34.925247">
        <ele>6.41493833313049</ele>
      </trkpt>
      <trkpt lat="32.531727" lon="34.924835">
        <ele>7.628254452178478</ele>
      </trkpt>
      <trkpt lat="32.531611" lon="34.924645">
        <ele>7.921480047767551</ele>
      </trkpt>
      <trkpt lat="32.531566" lon="34.924572">
        <ele>7.974112287924719</ele>
      </trkpt>
      <trkpt lat="32.531402" lon="34.924344">
        <ele>7.693145792233247</ele>
      </trkpt>
      <trkpt lat="32.531138" lon="34.924019">
        <ele>7.313370429940669</ele>
      </trkpt>
      <trkpt lat="32.531082" lon="34.923951">
        <ele>7.253960847433153</ele>
      </trkpt>
      <trkpt lat="32.530945" lon="34.923543">
        <ele>7.148712690013558</ele>
      </trkpt>
      <trkpt lat="32.530804" lon="34.922912">
        <ele>5.614498461141369</ele>
      </trkpt>
      <trkpt lat="32.530674" lon="34.922197">
        <ele>5.171285565547788</ele>
      </trkpt>
      <trkpt lat="32.530637" lon="34.921995">
        <ele>5.385163648709561</ele>
      </trkpt>
      <trkpt lat="32.530619" lon="34.921888">
        <ele>5.3169712246541</ele>
      </trkpt>
      <trkpt lat="32.530602" lon="34.921788">
        <ele>5.25321408769774</ele>
      </trkpt>
      <trkpt lat="32.530746" lon="34.921582">
        <ele>5.314031557852705</ele>
      </trkpt>
      <trkpt lat="32.531462" lon="34.920132">
        <ele>4.571481367759953</ele>
      </trkpt>
      <extensions>
        <RoutingType xmlns="">Hike</RoutingType>
      </extensions>
    </trkseg>
    <trkseg>
      <trkpt lat="32.531462" lon="34.920132">
        <ele>4.5</ele>
      </trkpt>
      <trkpt lat="32.531644" lon="34.919764">
        <ele>4.966676958715523</ele>
      </trkpt>
      <trkpt lat="32.531687" lon="34.919681">
        <ele>4.936234546124455</ele>
      </trkpt>
      <trkpt lat="32.531737" lon="34.919658">
        <ele>4.916357151940501</ele>
      </trkpt>
      <trkpt lat="32.531778" lon="34.919663">
        <ele>4.901080399861387</ele>
      </trkpt>
      <trkpt lat="32.532159" lon="34.919483">
        <ele>4.092582881127671</ele>
      </trkpt>
      <trkpt lat="32.532389" lon="34.919393">
        <ele>3.7</ele>
      </trkpt>
      <trkpt lat="32.532842" lon="34.919352">
        <ele>4.427265131369533</ele>
      </trkpt>
      <trkpt lat="32.532875" lon="34.919274">
        <ele>4.5090780158300925</ele>
      </trkpt>
      <trkpt lat="32.533086" lon="34.918629">
        <ele>5.4627766852816455</ele>
      </trkpt>
      <trkpt lat="32.533192" lon="34.917479">
        <ele>4.956229665993924</ele>
      </trkpt>
      <trkpt lat="32.533453" lon="34.916063">
        <ele>7.468934079799246</ele>
      </trkpt>
      <trkpt lat="32.533605" lon="34.915831">
        <ele>7.582390478353851</ele>
      </trkpt>
      <trkpt lat="32.533735" lon="34.91584">
        <ele>7.422216428423865</ele>
      </trkpt>
      <trkpt lat="32.535353" lon="34.916037">
        <ele>7.75960228653516</ele>
      </trkpt>
      <trkpt lat="32.53536" lon="34.915771">
        <ele>8.258563080555431</ele>
      </trkpt>
      <trkpt lat="32.535378" lon="34.915404">
        <ele>10.443421323407907</ele>
      </trkpt>
      <trkpt lat="32.535384" lon="34.915259">
        <ele>11.259975385472371</ele>
      </trkpt>
      <trkpt lat="32.535302" lon="34.914701">
        <ele>14.033573507242256</ele>
      </trkpt>
      <trkpt lat="32.535105" lon="34.913745">
        <ele>17.227102868903376</ele>
      </trkpt>
      <trkpt lat="32.535068" lon="34.913592">
        <ele>17.52552850608669</ele>
      </trkpt>
      <trkpt lat="32.535012" lon="34.913167">
        <ele>19.698042777540543</ele>
      </trkpt>
      <trkpt lat="32.534979" lon="34.912813">
        <ele>20.966053368107627</ele>
      </trkpt>
      <trkpt lat="32.535081" lon="34.912206">
        <ele>24.78011294986995</ele>
      </trkpt>
      <trkpt lat="32.535165" lon="34.911874">
        <ele>25</ele>
      </trkpt>
      <trkpt lat="32.535252" lon="34.911644">
        <ele>24.862077591888443</ele>
      </trkpt>
      <trkpt lat="32.535577" lon="34.911666">
        <ele>23.689955287340542</ele>
      </trkpt>
      <trkpt lat="32.535602" lon="34.911361">
        <ele>22.979180280720765</ele>
      </trkpt>
      <trkpt lat="32.535634" lon="34.909912">
        <ele>14.940593323873873</ele>
      </trkpt>
      <trkpt lat="32.535983" lon="34.908197">
        <ele>5.734433766847772</ele>
      </trkpt>
      <trkpt lat="32.53616" lon="34.90735">
        <ele>6.1</ele>
      </trkpt>
      <trkpt lat="32.536189" lon="34.907354">
        <ele>6.1</ele>
      </trkpt>
      <trkpt lat="32.536218" lon="34.907347">
        <ele>6.1</ele>
      </trkpt>
      <trkpt lat="32.536244" lon="34.907329">
        <ele>6.1</ele>
      </trkpt>
      <trkpt lat="32.536263" lon="34.907303">
        <ele>6.1</ele>
      </trkpt>
      <trkpt lat="32.536275" lon="34.90727">
        <ele>6.1</ele>
      </trkpt>
      <trkpt lat="32.536278" lon="34.907236">
        <ele>6.1</ele>
      </trkpt>
      <trkpt lat="32.536271" lon="34.907202">
        <ele>6.1</ele>
      </trkpt>
      <trkpt lat="32.536256" lon="34.907172">
        <ele>6.1</ele>
      </trkpt>
      <trkpt lat="32.536234" lon="34.907149">
        <ele>6.061993702345955</ele>
      </trkpt>
      <trkpt lat="32.536206" lon="34.907135">
        <ele>5.983155960150918</ele>
      </trkpt>
      <trkpt lat="32.536347" lon="34.906572">
        <ele>4.800214921646227</ele>
      </trkpt>
      <trkpt lat="32.536631" lon="34.905944">
        <ele>4.239698277845925</ele>
      </trkpt>
      <trkpt lat="32.5373" lon="34.904619">
        <ele>6.100934739852929</ele>
      </trkpt>
      <trkpt lat="32.537354" lon="34.904642">
        <ele>5.718141584579704</ele>
      </trkpt>
      <trkpt lat="32.537412" lon="34.904642">
        <ele>5.331183239838102</ele>
      </trkpt>
      <trkpt lat="32.537466" lon="34.904619">
        <ele>4.948390139086512</ele>
      </trkpt>
      <trkpt lat="32.53765" lon="34.904945">
        <ele>2.833925793109633</ele>
      </trkpt>
      <trkpt lat="32.53777" lon="34.904915">
        <ele>1.685418428645228</ele>
      </trkpt>
      <trkpt lat="32.537861" lon="34.904908">
        <ele>0.7728190929550167</ele>
      </trkpt>
      <trkpt lat="32.538003" lon="34.904903">
        <ele>-0.12016259772876481</ele>
      </trkpt>
      <trkpt lat="32.538067" lon="34.904545">
        <ele>-0.2696931112537726</ele>
      </trkpt>
      <trkpt lat="32.53809" lon="34.904191">
        <ele>0.6425972692043899</ele>
      </trkpt>
      <trkpt lat="32.538175" lon="34.903869">
        <ele>1.5285579563198581</ele>
      </trkpt>
      <trkpt lat="32.53823" lon="34.903517">
        <ele>2.1997338842670415</ele>
      </trkpt>
      <trkpt lat="32.53827" lon="34.903451">
        <ele>2.3521289745454848</ele>
      </trkpt>
      <trkpt lat="32.53831" lon="34.903342">
        <ele>2.4</ele>
      </trkpt>
      <trkpt lat="32.538344" lon="34.903165">
        <ele>2.4</ele>
      </trkpt>
      <trkpt lat="32.538351" lon="34.903097">
        <ele>2.3781056998325565</ele>
      </trkpt>
      <trkpt lat="32.538367" lon="34.903072">
        <ele>2.3486823191127457</ele>
      </trkpt>
      <extensions>
        <RoutingType xmlns="">Hike</RoutingType>
      </extensions>
    </trkseg>
    <trkseg>
      <trkpt lat="32.538367" lon="34.903072">
        <ele>2.1</ele>
      </trkpt>
      <trkpt lat="32.538475" lon="34.902903">
        <ele>0.9734981704443377</ele>
      </trkpt>
      <trkpt lat="32.538497" lon="34.902849">
        <ele>0.6549118037907748</ele>
      </trkpt>
      <trkpt lat="32.538507" lon="34.902804">
        <ele>0.4077077678717149</ele>
      </trkpt>
      <trkpt lat="32.538619" lon="34.90258">
        <ele>0.6427728959643325</ele>
      </trkpt>
      <trkpt lat="32.538661" lon="34.902573">
        <ele>0.6899334970892609</ele>
      </trkpt>
      <trkpt lat="32.538866" lon="34.902425">
        <ele>3.0966410888510802</ele>
      </trkpt>
      <trkpt lat="32.539023" lon="34.902293">
        <ele>4.638423233228698</ele>
      </trkpt>
      <trkpt lat="32.53926" lon="34.90207">
        <ele>5.707136670829815</ele>
      </trkpt>
      <trkpt lat="32.539243" lon="34.902024">
        <ele>5.754218445235699</ele>
      </trkpt>
      <trkpt lat="32.539289" lon="34.901938">
        <ele>5.932513068131816</ele>
      </trkpt>
      <trkpt lat="32.539353" lon="34.901805">
        <ele>6.315326238931118</ele>
      </trkpt>
      <trkpt lat="32.539391" lon="34.901637">
        <ele>6.956568115501116</ele>
      </trkpt>
      <trkpt lat="32.539362" lon="34.901497">
        <ele>7.812450599290969</ele>
      </trkpt>
      <trkpt lat="32.539339" lon="34.901414">
        <ele>8.331147860996577</ele>
      </trkpt>
      <extensions>
        <RoutingType xmlns="">Hike</RoutingType>
      </extensions>
    </trkseg>
    <trkseg>
      <trkpt lat="32.539339" lon="34.901414">
        <ele>8.5</ele>
      </trkpt>
      <trkpt lat="32.539327" lon="34.901372">
        <ele>8.51385680664387</ele>
      </trkpt>
      <trkpt lat="32.539284" lon="34.901204">
        <ele>8.568717272089536</ele>
      </trkpt>
      <trkpt lat="32.539249" lon="34.901122">
        <ele>8.597436445644055</ele>
      </trkpt>
      <trkpt lat="32.539208" lon="34.90105">
        <ele>8.6</ele>
      </trkpt>
      <trkpt lat="32.539163" lon="34.901038">
        <ele>8.6</ele>
      </trkpt>
      <trkpt lat="32.538913" lon="34.901306">
        <ele>7.934232392072884</ele>
      </trkpt>
      <trkpt lat="32.538816" lon="34.901391">
        <ele>7.374475847794582</ele>
      </trkpt>
      <trkpt lat="32.53873" lon="34.90143">
        <ele>6.691958040914617</ele>
      </trkpt>
      <trkpt lat="32.538621" lon="34.901427">
        <ele>5.883724100685505</ele>
      </trkpt>
      <trkpt lat="32.538461" lon="34.901488">
        <ele>5.311366537087528</ele>
      </trkpt>
      <trkpt lat="32.538201" lon="34.901756">
        <ele>4.696897098590631</ele>
      </trkpt>
      <trkpt lat="32.537939" lon="34.901811">
        <ele>4.079235324278994</ele>
      </trkpt>
      <trkpt lat="32.537831" lon="34.90176">
        <ele>4.0398446866769335</ele>
      </trkpt>
      <trkpt lat="32.53764" lon="34.901718">
        <ele>4.615846874481766</ele>
      </trkpt>
      <trkpt lat="32.53752" lon="34.901823">
        <ele>4.923753626974163</ele>
      </trkpt>
      <trkpt lat="32.537402" lon="34.901815">
        <ele>5.142793880433294</ele>
      </trkpt>
      <trkpt lat="32.537173" lon="34.901801">
        <ele>5.126449771348082</ele>
      </trkpt>
      <trkpt lat="32.536483" lon="34.901729">
        <ele>5.2422898835553795</ele>
      </trkpt>
      <trkpt lat="32.53571" lon="34.901654">
        <ele>10.61775538565204</ele>
      </trkpt>
      <trkpt lat="32.535082" lon="34.901555">
        <ele>8.358877780089568</ele>
      </trkpt>
      <trkpt lat="32.534138" lon="34.901571">
        <ele>5.107497681783303</ele>
      </trkpt>
      <trkpt lat="32.533653" lon="34.901662">
        <ele>5.48449954609638</ele>
      </trkpt>
      <trkpt lat="32.532752" lon="34.901398">
        <ele>6.884936289970282</ele>
      </trkpt>
      <trkpt lat="32.53215" lon="34.900985">
        <ele>10.762601377916921</ele>
      </trkpt>
      <trkpt lat="32.531304" lon="34.901232">
        <ele>4.963240736833808</ele>
      </trkpt>
      <extensions>
        <RoutingType xmlns="">Hike</RoutingType>
      </extensions>
    </trkseg>
    <trkseg>
      <trkpt lat="32.531304" lon="34.901232">
        <ele>4.6</ele>
      </trkpt>
      <trkpt lat="32.531275" lon="34.90124">
        <ele>4.58896426780586</ele>
      </trkpt>
      <trkpt lat="32.530269" lon="34.901034">
        <ele>3.3845962589105634</ele>
      </trkpt>
      <trkpt lat="32.529159" lon="34.900943">
        <ele>6.472575135174187</ele>
      </trkpt>
      <trkpt lat="32.528202" lon="34.900389">
        <ele>4.796534966996805</ele>
      </trkpt>
      <trkpt lat="32.52762" lon="34.899661">
        <ele>5.539692220348781</ele>
      </trkpt>
      <trkpt lat="32.526861" lon="34.899625">
        <ele>3.5672054054499513</ele>
      </trkpt>
      <trkpt lat="32.526126" lon="34.899799">
        <ele>3.6694007361113306</ele>
      </trkpt>
      <trkpt lat="32.525341" lon="34.899429">
        <ele>3.624950331723258</ele>
      </trkpt>
      <trkpt lat="32.524831" lon="34.898946">
        <ele>9.55120308935768</ele>
      </trkpt>
      <trkpt lat="32.524531" lon="34.898612">
        <ele>7.861808681128979</ele>
      </trkpt>
      <trkpt lat="32.524069" lon="34.898761">
        <ele>5.656319245846249</ele>
      </trkpt>
      <trkpt lat="32.523579" lon="34.898823">
        <ele>3.7149143834967684</ele>
      </trkpt>
      <trkpt lat="32.523088" lon="34.898645">
        <ele>3.527820848593757</ele>
      </trkpt>
      <trkpt lat="32.522567" lon="34.898301">
        <ele>5.051663752854264</ele>
      </trkpt>
      <trkpt lat="32.521858" lon="34.898296">
        <ele>4.833578835878334</ele>
      </trkpt>
      <trkpt lat="32.519459" lon="34.898358">
        <ele>7.1930913332153565</ele>
      </trkpt>
      <trkpt lat="32.517405" lon="34.898086">
        <ele>6.133422410979155</ele>
      </trkpt>
      <trkpt lat="32.516403" lon="34.897575">
        <ele>10.350235959656569</ele>
      </trkpt>
      <trkpt lat="32.515088" lon="34.897146">
        <ele>8.418180056403518</ele>
      </trkpt>
      <trkpt lat="32.514796" lon="34.897051">
        <ele>7.591257500752249</ele>
      </trkpt>
      <trkpt lat="32.514453" lon="34.89688">
        <ele>5.8349677355781235</ele>
      </trkpt>
      <trkpt lat="32.514014" lon="34.896485">
        <ele>6.453567198920459</ele>
      </trkpt>
      <trkpt lat="32.513927" lon="34.896451">
        <ele>7.064711189903477</ele>
      </trkpt>
      <extensions>
        <RoutingType xmlns="">Hike</RoutingType>
      </extensions>
    </trkseg>
    <trkseg>
      <trkpt lat="32.513927" lon="34.896451">
        <ele>7.7</ele>
      </trkpt>
      <trkpt lat="32.513276" lon="34.896201">
        <ele>13.7</ele>
      </trkpt>
      <trkpt lat="32.512936" lon="34.896219">
        <ele>12.1842545715172</ele>
      </trkpt>
      <trkpt lat="32.512861" lon="34.896486">
        <ele>10.648466582033603</ele>
      </trkpt>
      <trkpt lat="32.512376" lon="34.896434">
        <ele>9.55882180822584</ele>
      </trkpt>
      <trkpt lat="32.512286" lon="34.896413">
        <ele>9.388831294529728</ele>
      </trkpt>
      <trkpt lat="32.512215" lon="34.896415">
        <ele>9.111739458777285</ele>
      </trkpt>
      <trkpt lat="32.512086" lon="34.896512">
        <ele>7.866188664165829</ele>
      </trkpt>
      <trkpt lat="32.511989" lon="34.896643">
        <ele>6.51010462818695</ele>
      </trkpt>
      <trkpt lat="32.511967" lon="34.896676">
        <ele>6.1156510219261335</ele>
      </trkpt>
      <trkpt lat="32.511803" lon="34.896816">
        <ele>4.022896223277803</ele>
      </trkpt>
      <trkpt lat="32.511623" lon="34.896796">
        <ele>3.352804420143974</ele>
      </trkpt>
      <trkpt lat="32.511014" lon="34.896606">
        <ele>4.721901186379447</ele>
      </trkpt>
      <trkpt lat="32.510612" lon="34.896467">
        <ele>7.176659964839443</ele>
      </trkpt>
      <trkpt lat="32.510523" lon="34.896436">
        <ele>7.761144631608687</ele>
      </trkpt>
      <trkpt lat="32.510336" lon="34.896356">
        <ele>8.44258667760683</ele>
      </trkpt>
      <trkpt lat="32.510115" lon="34.89627">
        <ele>9.045659810788973</ele>
      </trkpt>
      <trkpt lat="32.509958" lon="34.896219">
        <ele>9.38972949791497</ele>
      </trkpt>
      <trkpt lat="32.509812" lon="34.896157">
        <ele>9.6771305104606</ele>
      </trkpt>
      <trkpt lat="32.509417" lon="34.895838">
        <ele>8.86414011962302</ele>
      </trkpt>
      <trkpt lat="32.508818" lon="34.895628">
        <ele>7.6204029745422295</ele>
      </trkpt>
      <trkpt lat="32.50843" lon="34.895227">
        <ele>9.925151307715002</ele>
      </trkpt>
      <trkpt lat="32.507886" lon="34.894902">
        <ele>9.201254306615752</ele>
      </trkpt>
      <trkpt lat="32.507378" lon="34.894786">
        <ele>9.215246765488295</ele>
      </trkpt>
      <trkpt lat="32.50709" lon="34.894613">
        <ele>8.66019648527227</ele>
      </trkpt>
      <trkpt lat="32.506993" lon="34.89469">
        <ele>8.87652461558315</ele>
      </trkpt>
      <trkpt lat="32.506905" lon="34.894843">
        <ele>9.165966610314811</ele>
      </trkpt>
      <trkpt lat="32.506782" lon="34.894905">
        <ele>9.413657009368857</ele>
      </trkpt>
      <trkpt lat="32.506678" lon="34.89481">
        <ele>9.611390535677502</ele>
      </trkpt>
      <trkpt lat="32.506612" lon="34.894663">
        <ele>9.663445925321543</ele>
      </trkpt>
      <trkpt lat="32.506558" lon="34.894319">
        <ele>10.355383242654732</ele>
      </trkpt>
      <trkpt lat="32.506612" lon="34.894173">
        <ele>10.441427769568348</ele>
      </trkpt>
      <trkpt lat="32.50672" lon="34.894005">
        <ele>9.979211975974183</ele>
      </trkpt>
      <trkpt lat="32.506725" lon="34.89385">
        <ele>9.862830748269289</ele>
      </trkpt>
      <trkpt lat="32.506576" lon="34.893606">
        <ele>9.517992556906098</ele>
      </trkpt>
      <trkpt lat="32.506516" lon="34.893243">
        <ele>8.853040433167516</ele>
      </trkpt>
      <trkpt lat="32.50631" lon="34.892978">
        <ele>8.501922573871681</ele>
      </trkpt>
      <trkpt lat="32.505867" lon="34.892679">
        <ele>8.73114348532362</ele>
      </trkpt>
      <trkpt lat="32.505444" lon="34.892494">
        <ele>11.209612314831633</ele>
      </trkpt>
      <trkpt lat="32.50534" lon="34.892445">
        <ele>11.499965899181687</ele>
      </trkpt>
      <trkpt lat="32.505117" lon="34.892346">
        <ele>11.436831900201009</ele>
      </trkpt>
      <trkpt lat="32.50499" lon="34.892282">
        <ele>11.027653965083312</ele>
      </trkpt>
      <trkpt lat="32.504988" lon="34.892329">
        <ele>11.078774238708808</ele>
      </trkpt>
      <trkpt lat="32.504976" lon="34.892469">
        <ele>11.38668617774975</ele>
      </trkpt>
      <trkpt lat="32.504961" lon="34.892578">
        <ele>11.628343385799784</ele>
      </trkpt>
      <trkpt lat="32.504955" lon="34.892628">
        <ele>11.716650143328174</ele>
      </trkpt>
      <trkpt lat="32.504909" lon="34.892963">
        <ele>12.05822602730903</ele>
      </trkpt>
      <trkpt lat="32.504902" lon="34.893032">
        <ele>12.166845589916772</ele>
      </trkpt>
      <trkpt lat="32.504881" lon="34.893357">
        <ele>12.746800818356444</ele>
      </trkpt>
      <trkpt lat="32.504879" lon="34.893553">
        <ele>13.175700023661873</ele>
      </trkpt>
      <trkpt lat="32.504877" lon="34.893674">
        <ele>13.474869837394186</ele>
      </trkpt>
      <trkpt lat="32.504829" lon="34.893954">
        <ele>14.047345443599076</ele>
      </trkpt>
      <trkpt lat="32.504788" lon="34.894028">
        <ele>14.10269879121063</ele>
      </trkpt>
      <trkpt lat="32.504646" lon="34.894113">
        <ele>14.09692041624547</ele>
      </trkpt>
      <trkpt lat="32.503597" lon="34.893877">
        <ele>16.327326686330515</ele>
      </trkpt>
      <trkpt lat="32.502955" lon="34.893768">
        <ele>13.60711950022922</ele>
      </trkpt>
      <trkpt lat="32.502295" lon="34.893614">
        <ele>12.455111247501787</ele>
      </trkpt>
      <trkpt lat="32.502137" lon="34.893585">
        <ele>11.739750237708762</ele>
      </trkpt>
      <trkpt lat="32.502083" lon="34.893575">
        <ele>11.496657575661526</ele>
      </trkpt>
      <trkpt lat="32.501982" lon="34.893562">
        <ele>11.225868160616146</ele>
      </trkpt>
      <trkpt lat="32.501917" lon="34.893569">
        <ele>11.2742509609758</ele>
      </trkpt>
      <trkpt lat="32.501842" lon="34.893606">
        <ele>11.334468675899583</ele>
      </trkpt>
      <trkpt lat="32.501818" lon="34.893595">
        <ele>11.353542773316464</ele>
      </trkpt>
      <trkpt lat="32.501792" lon="34.893594">
        <ele>11.372826697779457</ele>
      </trkpt>
      <trkpt lat="32.501767" lon="34.893602">
        <ele>11.392022232915632</ele>
      </trkpt>
      <trkpt lat="32.501677" lon="34.893501">
        <ele>11.567765864490596</ele>
      </trkpt>
      <trkpt lat="32.501558" lon="34.893451">
        <ele>11.75494485039599</ele>
      </trkpt>
      <trkpt lat="32.501291" lon="34.893386">
        <ele>11.889764067532566</ele>
      </trkpt>
      <trkpt lat="32.501242" lon="34.893374">
        <ele>11.88338150389873</ele>
      </trkpt>
      <trkpt lat="32.500585" lon="34.893257">
        <ele>10.872655694553258</ele>
      </trkpt>
      <trkpt lat="32.500356" lon="34.89322">
        <ele>10.47933817994101</ele>
      </trkpt>
      <trkpt lat="32.500039" lon="34.893127">
        <ele>10.11622061988279</ele>
      </trkpt>
      <trkpt lat="32.499532" lon="34.892971">
        <ele>9.633788958782532</ele>
      </trkpt>
      <trkpt lat="32.498972" lon="34.892798">
        <ele>9.569897232016816</ele>
      </trkpt>
      <extensions>
        <RoutingType xmlns="">Hike</RoutingType>
      </extensions>
    </trkseg>
    <trkseg>
      <trkpt lat="32.498972" lon="34.892798">
        <ele>9.6</ele>
      </trkpt>
      <trkpt lat="32.498364" lon="34.89261">
        <ele>8.56578465378044</ele>
      </trkpt>
      <trkpt lat="32.49767" lon="34.892423">
        <ele>9.393364378383366</ele>
      </trkpt>
      <trkpt lat="32.497409" lon="34.892339">
        <ele>9.206155185358336</ele>
      </trkpt>
      <trkpt lat="32.497253" lon="34.89229">
        <ele>9.71064543657063</ele>
      </trkpt>
      <trkpt lat="32.497116" lon="34.892238">
        <ele>10.1100559340851</ele>
      </trkpt>
      <trkpt lat="32.49708" lon="34.892222">
        <ele>10.124305992297883</ele>
      </trkpt>
      <trkpt lat="32.497062" lon="34.892228">
        <ele>10.131236337918189</ele>
      </trkpt>
      <trkpt lat="32.49705" lon="34.89225">
        <ele>10.139426742806297</ele>
      </trkpt>
      <trkpt lat="32.496957" lon="34.892419">
        <ele>10.197490831540323</ele>
      </trkpt>
      <trkpt lat="32.496917" lon="34.892489">
        <ele>10.171058404409663</ele>
      </trkpt>
      <trkpt lat="32.496746" lon="34.892799">
        <ele>10.278951349490232</ele>
      </trkpt>
      <trkpt lat="32.496701" lon="34.89288">
        <ele>10.400237004611695</ele>
      </trkpt>
      <trkpt lat="32.496181" lon="34.893935">
        <ele>11.886491596267362</ele>
      </trkpt>
      <trkpt lat="32.495914" lon="34.89444">
        <ele>10.396327047132667</ele>
      </trkpt>
      <trkpt lat="32.494994" lon="34.896153">
        <ele>7.056498425302143</ele>
      </trkpt>
      <trkpt lat="32.49471" lon="34.896705">
        <ele>9.045036843187912</ele>
      </trkpt>
      <trkpt lat="32.494438" lon="34.897097">
        <ele>9.921848647690142</ele>
      </trkpt>
      <trkpt lat="32.493774" lon="34.897851">
        <ele>10.41803694540394</ele>
      </trkpt>
      <trkpt lat="32.492786" lon="34.898711">
        <ele>14.568320200375942</ele>
      </trkpt>
      <trkpt lat="32.49207" lon="34.899353">
        <ele>14.83241717039852</ele>
      </trkpt>
      <trkpt lat="32.491924" lon="34.899469">
        <ele>14.63592305245823</ele>
      </trkpt>
      <trkpt lat="32.491715" lon="34.899653">
        <ele>14.614106806756462</ele>
      </trkpt>
      <trkpt lat="32.491625" lon="34.899753">
        <ele>14.796980506310552</ele>
      </trkpt>
      <trkpt lat="32.49138" lon="34.900026">
        <ele>14.702265299472211</ele>
      </trkpt>
      <trkpt lat="32.491267" lon="34.899905">
        <ele>14.202253796332275</ele>
      </trkpt>
      <trkpt lat="32.491078" lon="34.899603">
        <ele>13.872870639322183</ele>
      </trkpt>
      <trkpt lat="32.49089" lon="34.899359">
        <ele>14.433322148859824</ele>
      </trkpt>
      <trkpt lat="32.490673" lon="34.899176">
        <ele>13.551506840152284</ele>
      </trkpt>
      <trkpt lat="32.490612" lon="34.899086">
        <ele>13.090119723964225</ele>
      </trkpt>
      <trkpt lat="32.490531" lon="34.899053">
        <ele>12.772661334047097</ele>
      </trkpt>
      <trkpt lat="32.49043" lon="34.89907">
        <ele>12.394551131422578</ele>
      </trkpt>
      <trkpt lat="32.490359" lon="34.899161">
        <ele>12.219299698157574</ele>
      </trkpt>
      <trkpt lat="32.490186" lon="34.899192">
        <ele>12.28415039524174</ele>
      </trkpt>
      <trkpt lat="32.490074" lon="34.899166">
        <ele>12.3</ele>
      </trkpt>
      <trkpt lat="32.489885" lon="34.899121">
        <ele>12.3</ele>
      </trkpt>
      <trkpt lat="32.489763" lon="34.899056">
        <ele>12.062606494635745</ele>
      </trkpt>
      <trkpt lat="32.489581" lon="34.899031">
        <ele>11.784611759146749</ele>
      </trkpt>
      <trkpt lat="32.489483" lon="34.899018">
        <ele>11.748061409561805</ele>
      </trkpt>
      <trkpt lat="32.489415" lon="34.899005">
        <ele>11.722531632754793</ele>
      </trkpt>
      <trkpt lat="32.489303" lon="34.899013">
        <ele>11.7</ele>
      </trkpt>
      <trkpt lat="32.489147" lon="34.899004">
        <ele>11.7</ele>
      </trkpt>
      <trkpt lat="32.489019" lon="34.898947">
        <ele>11.644748328386772</ele>
      </trkpt>
      <trkpt lat="32.488951" lon="34.898932">
        <ele>11.593474812248843</ele>
      </trkpt>
      <trkpt lat="32.488857" lon="34.898929">
        <ele>11.523767413809686</ele>
      </trkpt>
      <trkpt lat="32.488845" lon="34.898828">
        <ele>11.19992793115205</ele>
      </trkpt>
      <trkpt lat="32.48882" lon="34.89874">
        <ele>10.764462924779476</ele>
      </trkpt>
      <trkpt lat="32.48873" lon="34.898607">
        <ele>9.992967034027334</ele>
      </trkpt>
      <trkpt lat="32.488717" lon="34.8986">
        <ele>9.977090559993057</ele>
      </trkpt>
      <extensions>
        <RoutingType xmlns="">Hike</RoutingType>
      </extensions>
    </trkseg>
    <trkseg>
      <trkpt lat="32.488717" lon="34.8986">
        <ele>9.7</ele>
      </trkpt>
      <trkpt lat="32.48864" lon="34.898562">
        <ele>9.329031620794547</ele>
      </trkpt>
      <trkpt lat="32.488559" lon="34.898578">
        <ele>8.963793504666056</ele>
      </trkpt>
      <trkpt lat="32.488514" lon="34.898582">
        <ele>8.76308083580931</ele>
      </trkpt>
      <trkpt lat="32.488489" lon="34.898528">
        <ele>8.531979029176156</ele>
      </trkpt>
      <trkpt lat="32.48847" lon="34.898446">
        <ele>8.476078535331816</ele>
      </trkpt>
      <trkpt lat="32.488414" lon="34.898419">
        <ele>8.453671301048015</ele>
      </trkpt>
      <trkpt lat="32.488312" lon="34.898395">
        <ele>8.415127611232977</ele>
      </trkpt>
      <trkpt lat="32.488354" lon="34.898242">
        <ele>8.611057226738582</ele>
      </trkpt>
      <trkpt lat="32.488431" lon="34.898128">
        <ele>8.885017331090506</ele>
      </trkpt>
      <trkpt lat="32.488456" lon="34.898003">
        <ele>9.063000368356295</ele>
      </trkpt>
      <trkpt lat="32.488498" lon="34.897801">
        <ele>9.25813303244896</ele>
      </trkpt>
      <trkpt lat="32.488558" lon="34.897565">
        <ele>8.858253242886677</ele>
      </trkpt>
      <trkpt lat="32.488573" lon="34.897426">
        <ele>8.530818012083127</ele>
      </trkpt>
      <trkpt lat="32.488484" lon="34.89723">
        <ele>7.834887964127198</ele>
      </trkpt>
      <trkpt lat="32.488436" lon="34.897099">
        <ele>7.536505765890044</ele>
      </trkpt>
      <trkpt lat="32.488412" lon="34.896921">
        <ele>7.367434914337395</ele>
      </trkpt>
      <trkpt lat="32.488315" lon="34.896708">
        <ele>8.044804090314729</ele>
      </trkpt>
      <trkpt lat="32.488245" lon="34.896728">
        <ele>8.418440585199706</ele>
      </trkpt>
      <trkpt lat="32.488113" lon="34.896699">
        <ele>9.17435815160267</ele>
      </trkpt>
      <trkpt lat="32.488009" lon="34.896676">
        <ele>9.801758811281394</ele>
      </trkpt>
      <trkpt lat="32.487988" lon="34.89668">
        <ele>9.927894304773151</ele>
      </trkpt>
      <trkpt lat="32.487828" lon="34.896706">
        <ele>10.3</ele>
      </trkpt>
      <trkpt lat="32.487809" lon="34.896709">
        <ele>10.3</ele>
      </trkpt>
      <trkpt lat="32.487539" lon="34.896817">
        <ele>9.708104111047598</ele>
      </trkpt>
      <trkpt lat="32.487298" lon="34.896913">
        <ele>8.53373486833213</ele>
      </trkpt>
      <trkpt lat="32.487097" lon="34.896994">
        <ele>7.599786007858953</ele>
      </trkpt>
      <trkpt lat="32.486604" lon="34.897192">
        <ele>7.136596686563119</ele>
      </trkpt>
      <trkpt lat="32.486116" lon="34.897389">
        <ele>8.274985661788463</ele>
      </trkpt>
      <trkpt lat="32.485981" lon="34.897444">
        <ele>8.063345611494437</ele>
      </trkpt>
      <trkpt lat="32.485466" lon="34.897647">
        <ele>8.382585552003421</ele>
      </trkpt>
      <trkpt lat="32.485411" lon="34.897666">
        <ele>8.552454544085355</ele>
      </trkpt>
      <trkpt lat="32.484974" lon="34.897811">
        <ele>10.348777682393704</ele>
      </trkpt>
      <trkpt lat="32.484477" lon="34.897977">
        <ele>10.017719521092724</ele>
      </trkpt>
      <trkpt lat="32.4839" lon="34.898397">
        <ele>12.421027093891606</ele>
      </trkpt>
      <trkpt lat="32.483832" lon="34.898433">
        <ele>12.086173829450283</ele>
      </trkpt>
      <trkpt lat="32.483222" lon="34.896933">
        <ele>10.72105323448605</ele>
      </trkpt>
      <trkpt lat="32.483121" lon="34.896506">
        <ele>11.137020080515063</ele>
      </trkpt>
      <trkpt lat="32.483075" lon="34.896309">
        <ele>10.64207566608462</ele>
      </trkpt>
      <trkpt lat="32.48301" lon="34.895822">
        <ele>8.443833884696355</ele>
      </trkpt>
      <trkpt lat="32.482982" lon="34.895615">
        <ele>8.024246618030778</ele>
      </trkpt>
      <trkpt lat="32.482973" lon="34.895345">
        <ele>7.376008351599192</ele>
      </trkpt>
      <trkpt lat="32.482958" lon="34.894736">
        <ele>5.5247949808661305</ele>
      </trkpt>
      <trkpt lat="32.482954" lon="34.894131">
        <ele>6.160613200082996</ele>
      </trkpt>
      <trkpt lat="32.482868" lon="34.894037">
        <ele>6.420757200815552</ele>
      </trkpt>
      <trkpt lat="32.482736" lon="34.893927">
        <ele>6.7496544665908775</ele>
      </trkpt>
      <trkpt lat="32.482595" lon="34.893784">
        <ele>7.093541577431514</ele>
      </trkpt>
      <trkpt lat="32.482511" lon="34.893651">
        <ele>7.454595312035501</ele>
      </trkpt>
      <trkpt lat="32.482361" lon="34.893633">
        <ele>7.793461940036711</ele>
      </trkpt>
      <trkpt lat="32.481969" lon="34.893598">
        <ele>7.125312783438628</ele>
      </trkpt>
      <trkpt lat="32.48181" lon="34.893584">
        <ele>6.554640221966596</ele>
      </trkpt>
      <trkpt lat="32.481813" lon="34.893534">
        <ele>6.4919490348987745</ele>
      </trkpt>
      <trkpt lat="32.481612" lon="34.893518">
        <ele>6.198318884190196</ele>
      </trkpt>
      <extensions>
        <RoutingType xmlns="">Hike</RoutingType>
      </extensions>
    </trkseg>
    <trkseg>
      <trkpt lat="32.481612" lon="34.893518">
        <ele>6.1</ele>
      </trkpt>
      <trkpt lat="32.479776" lon="34.893372">
        <ele>9.725703476276095</ele>
      </trkpt>
      <trkpt lat="32.477571" lon="34.893201">
        <ele>9.306433025948827</ele>
      </trkpt>
      <trkpt lat="32.477461" lon="34.893209">
        <ele>9.551521845237097</ele>
      </trkpt>
      <trkpt lat="32.47705" lon="34.893344">
        <ele>10.699980890275437</ele>
      </trkpt>
      <trkpt lat="32.476761" lon="34.893485">
        <ele>11.420831528960017</ele>
      </trkpt>
      <trkpt lat="32.47664" lon="34.893592">
        <ele>11.141064630705332</ele>
      </trkpt>
      <trkpt lat="32.476447" lon="34.893762">
        <ele>9.72088833925907</ele>
      </trkpt>
      <trkpt lat="32.476419" lon="34.893798">
        <ele>9.39936259192397</ele>
      </trkpt>
      <trkpt lat="32.476169" lon="34.894119">
        <ele>7.848697708831742</ele>
      </trkpt>
      <trkpt lat="32.476079" lon="34.894235">
        <ele>7.651581964053847</ele>
      </trkpt>
      <trkpt lat="32.476072" lon="34.894244">
        <ele>7.636271181316824</ele>
      </trkpt>
      <trkpt lat="32.475996" lon="34.89436">
        <ele>7.5</ele>
      </trkpt>
      <trkpt lat="32.475785" lon="34.894681">
        <ele>7.61730402377397</ele>
      </trkpt>
      <trkpt lat="32.475456" lon="34.895184">
        <ele>8.290592863213728</ele>
      </trkpt>
      <trkpt lat="32.475392" lon="34.895164">
        <ele>8.41325328214248</ele>
      </trkpt>
      <trkpt lat="32.475347" lon="34.895121">
        <ele>8.52037251746911</ele>
      </trkpt>
      <trkpt lat="32.475301" lon="34.895066">
        <ele>8.658040871781726</ele>
      </trkpt>
      <trkpt lat="32.475139" lon="34.895156">
        <ele>9.122231434912976</ele>
      </trkpt>
      <trkpt lat="32.474832" lon="34.895355">
        <ele>9.94296539811578</ele>
      </trkpt>
      <trkpt lat="32.474532" lon="34.895974">
        <ele>12.265111555707923</ele>
      </trkpt>
      <trkpt lat="32.473047" lon="34.898074">
        <ele>16.7</ele>
      </trkpt>
      <trkpt lat="32.472872" lon="34.898269">
        <ele>17.28697323566704</ele>
      </trkpt>
      <trkpt lat="32.472708" lon="34.898393">
        <ele>18.13660857383656</ele>
      </trkpt>
      <trkpt lat="32.472181" lon="34.898577">
        <ele>20.043714820275483</ele>
      </trkpt>
      <trkpt lat="32.471927" lon="34.898633">
        <ele>20.758894955429255</ele>
      </trkpt>
      <trkpt lat="32.471583" lon="34.898611">
        <ele>21.852957552789118</ele>
      </trkpt>
      <trkpt lat="32.470709" lon="34.898356">
        <ele>22.7013077583062</ele>
      </trkpt>
      <trkpt lat="32.470301" lon="34.898157">
        <ele>21.13030375763653</ele>
      </trkpt>
      <trkpt lat="32.470057" lon="34.898037">
        <ele>21.302832056612544</ele>
      </trkpt>
      <trkpt lat="32.469514" lon="34.897801">
        <ele>20.35406827513608</ele>
      </trkpt>
      <trkpt lat="32.469504" lon="34.897783">
        <ele>20.3338497353039</ele>
      </trkpt>
      <trkpt lat="32.468986" lon="34.897572">
        <ele>21.0256120490402</ele>
      </trkpt>
      <trkpt lat="32.468562" lon="34.897433">
        <ele>20.11377010904576</ele>
      </trkpt>
      <trkpt lat="32.468005" lon="34.897284">
        <ele>16.834259597722074</ele>
      </trkpt>
      <trkpt lat="32.467612" lon="34.897103">
        <ele>16.268493910550546</ele>
      </trkpt>
      <trkpt lat="32.467072" lon="34.89693">
        <ele>12.509867024834662</ele>
      </trkpt>
      <trkpt lat="32.466995" lon="34.896899">
        <ele>12.41944244446706</ele>
      </trkpt>
      <trkpt lat="32.466855" lon="34.896692">
        <ele>12.386299137631205</ele>
      </trkpt>
      <trkpt lat="32.466813" lon="34.896575">
        <ele>12.46582330265537</ele>
      </trkpt>
      <trkpt lat="32.466655" lon="34.896258">
        <ele>12.009753324909894</ele>
      </trkpt>
      <trkpt lat="32.466518" lon="34.895874">
        <ele>11.915716360078502</ele>
      </trkpt>
      <trkpt lat="32.466274" lon="34.895306">
        <ele>10.816745809397936</ele>
      </trkpt>
      <trkpt lat="32.465947" lon="34.894769">
        <ele>10.3</ele>
      </trkpt>
      <trkpt lat="32.46545" lon="34.893445">
        <ele>10.267628204375796</ele>
      </trkpt>
      <trkpt lat="32.465355" lon="34.892791">
        <ele>9.391112862570578</ele>
      </trkpt>
      <trkpt lat="32.465315" lon="34.892258">
        <ele>7.316287913712238</ele>
      </trkpt>
      <trkpt lat="32.46534" lon="34.891147">
        <ele>9.495448741302772</ele>
      </trkpt>
      <trkpt lat="32.465321" lon="34.890676">
        <ele>7.499595066518765</ele>
      </trkpt>
      <trkpt lat="32.465313" lon="34.890471">
        <ele>6.7</ele>
      </trkpt>
      <trkpt lat="32.465319" lon="34.890222">
        <ele>6.7</ele>
      </trkpt>
      <trkpt lat="32.464728" lon="34.890099">
        <ele>9.66877914110022</ele>
      </trkpt>
      <trkpt lat="32.46466" lon="34.890079">
        <ele>9.980402703070165</ele>
      </trkpt>
      <trkpt lat="32.464648" lon="34.889995">
        <ele>10.30011675232376</ele>
      </trkpt>
      <trkpt lat="32.46479" lon="34.890029">
        <ele>10.169421256966436</ele>
      </trkpt>
      <trkpt lat="32.464774" lon="34.889829">
        <ele>9.227037823845086</ele>
      </trkpt>
      <trkpt lat="32.464734" lon="34.889199">
        <ele>6.0089520215733305</ele>
      </trkpt>
      <trkpt lat="32.464707" lon="34.888764">
        <ele>5.266364756454833</ele>
      </trkpt>
      <trkpt lat="32.464579" lon="34.888211">
        <ele>3.2951650746639967</ele>
      </trkpt>
      <extensions>
        <RoutingType xmlns="">Hike</RoutingType>
      </extensions>
    </trkseg>
    <trkseg>
      <trkpt lat="32.464579" lon="34.888211">
        <ele>3.2</ele>
      </trkpt>
      <trkpt lat="32.464429" lon="34.888192">
        <ele>3.0322577992860773</ele>
      </trkpt>
      <trkpt lat="32.46429" lon="34.888157">
        <ele>3.0030106895777027</ele>
      </trkpt>
      <trkpt lat="32.463724" lon="34.887987">
        <ele>6.675038121343671</ele>
      </trkpt>
      <trkpt lat="32.463672" lon="34.887867">
        <ele>7.1391012761192485</ele>
      </trkpt>
      <trkpt lat="32.463599" lon="34.887815">
        <ele>7.486352054045252</ele>
      </trkpt>
      <trkpt lat="32.463477" lon="34.887799">
        <ele>7.588509085097907</ele>
      </trkpt>
      <trkpt lat="32.463373" lon="34.887839">
        <ele>7.669562042785565</ele>
      </trkpt>
      <trkpt lat="32.463287" lon="34.887846">
        <ele>7.716731981780213</ele>
      </trkpt>
      <trkpt lat="32.462385" lon="34.88759">
        <ele>9.52102030686049</ele>
      </trkpt>
      <trkpt lat="32.461969" lon="34.887494">
        <ele>8.771250569648338</ele>
      </trkpt>
      <trkpt lat="32.461522" lon="34.887306">
        <ele>6.205610355829225</ele>
      </trkpt>
      <trkpt lat="32.460188" lon="34.886952">
        <ele>5.700177637579007</ele>
      </trkpt>
      <trkpt lat="32.459321" lon="34.886701">
        <ele>5.761781649510866</ele>
      </trkpt>
      <trkpt lat="32.458868" lon="34.88665">
        <ele>6.497306260628943</ele>
      </trkpt>
      <trkpt lat="32.45844" lon="34.886557">
        <ele>6.039166573723999</ele>
      </trkpt>
      <trkpt lat="32.457693" lon="34.886369">
        <ele>5.417287739004534</ele>
      </trkpt>
      <trkpt lat="32.453835" lon="34.885346">
        <ele>8.836825596510156</ele>
      </trkpt>
      <trkpt lat="32.453772" lon="34.88533">
        <ele>8.932350110016817</ele>
      </trkpt>
      <trkpt lat="32.453691" lon="34.885311">
        <ele>9.054770482120569</ele>
      </trkpt>
      <trkpt lat="32.452078" lon="34.884891">
        <ele>9.490255257545925</ele>
      </trkpt>
      <trkpt lat="32.452072" lon="34.884923">
        <ele>9.367222684733264</ele>
      </trkpt>
      <trkpt lat="32.450697" lon="34.884573">
        <ele>10.636662840876921</ele>
      </trkpt>
      <trkpt lat="32.448951" lon="34.88411">
        <ele>12.040984146732644</ele>
      </trkpt>
      <trkpt lat="32.44712" lon="34.883624">
        <ele>12.7</ele>
      </trkpt>
      <extensions>
        <RoutingType xmlns="">Hike</RoutingType>
      </extensions>
    </trkseg>
    <trkseg>
      <trkpt lat="32.44712" lon="34.883624">
        <ele>12.7</ele>
      </trkpt>
      <trkpt lat="32.447046" lon="34.883604">
        <ele>12.7</ele>
      </trkpt>
      <trkpt lat="32.446827" lon="34.883581">
        <ele>12.79622905327973</ele>
      </trkpt>
      <trkpt lat="32.446695" lon="34.885956">
        <ele>16.7</ele>
      </trkpt>
      <trkpt lat="32.446677" lon="34.886286">
        <ele>17.102770409868757</ele>
      </trkpt>
      <trkpt lat="32.446348" lon="34.88629">
        <ele>18.35386581416065</ele>
      </trkpt>
      <trkpt lat="32.444933" lon="34.886573">
        <ele>19.15687989406318</ele>
      </trkpt>
      <trkpt lat="32.444862" lon="34.886583">
        <ele>19.289386767390436</ele>
      </trkpt>
      <trkpt lat="32.444163" lon="34.886697">
        <ele>17.01013306006321</ele>
      </trkpt>
      <trkpt lat="32.444164" lon="34.886741">
        <ele>17.329299630747954</ele>
      </trkpt>
      <trkpt lat="32.444153" lon="34.886784">
        <ele>17.680665417232973</ele>
      </trkpt>
      <trkpt lat="32.444131" lon="34.88682">
        <ele>18.028242362857547</ele>
      </trkpt>
      <trkpt lat="32.4441" lon="34.886845">
        <ele>18.375710501772865</ele>
      </trkpt>
      <trkpt lat="32.444094" lon="34.88693">
        <ele>19.042725249714124</ele>
      </trkpt>
      <trkpt lat="32.444038" lon="34.887631">
        <ele>21.298040003328033</ele>
      </trkpt>
      <extensions>
        <RoutingType xmlns="">Hike</RoutingType>
      </extensions>
    </trkseg>
    <trkseg>
      <trkpt lat="32.444037" lon="34.887631">
        <ele>21.2</ele>
      </trkpt>
      <trkpt lat="32.443985" lon="34.888282">
        <ele>21.745411402823205</ele>
      </trkpt>
      <trkpt lat="32.443915" lon="34.889464">
        <ele>23.578717639712245</ele>
      </trkpt>
      <trkpt lat="32.443895" lon="34.88975">
        <ele>26.437975708762202</ele>
      </trkpt>
      <trkpt lat="32.44388" lon="34.889863">
        <ele>27.700724498600845</ele>
      </trkpt>
      <trkpt lat="32.443856" lon="34.890064">
        <ele>27.764223039269613</ele>
      </trkpt>
      <trkpt lat="32.443851" lon="34.890146">
        <ele>27.789939326287918</ele>
      </trkpt>
      <trkpt lat="32.44385" lon="34.890218">
        <ele>27.70028943041522</ele>
      </trkpt>
      <trkpt lat="32.443858" lon="34.890312">
        <ele>27.46387236018782</ele>
      </trkpt>
      <trkpt lat="32.443864" lon="34.890373">
        <ele>27.310193721858813</ele>
      </trkpt>
      <trkpt lat="32.443873" lon="34.890446">
        <ele>27.125580773453592</ele>
      </trkpt>
      <trkpt lat="32.443884" lon="34.890569">
        <ele>27</ele>
      </trkpt>
      <trkpt lat="32.443893" lon="34.89068">
        <ele>27</ele>
      </trkpt>
      <trkpt lat="32.443899" lon="34.890787">
        <ele>27</ele>
      </trkpt>
      <trkpt lat="32.4439" lon="34.890878">
        <ele>27.139177773710415</ele>
      </trkpt>
      <trkpt lat="32.443896" lon="34.89099">
        <ele>27.384630660437303</ele>
      </trkpt>
      <trkpt lat="32.443896" lon="34.891064">
        <ele>27.546659864278702</ele>
      </trkpt>
      <trkpt lat="32.443897" lon="34.891256">
        <ele>27.623694867254027</ele>
      </trkpt>
      <trkpt lat="32.4439" lon="34.891668">
        <ele>26.49454987349</ele>
      </trkpt>
      <trkpt lat="32.443889" lon="34.892111">
        <ele>24.198131591082614</ele>
      </trkpt>
      <trkpt lat="32.443872" lon="34.892408">
        <ele>22.522072921296168</ele>
      </trkpt>
      <trkpt lat="32.443826" lon="34.893076">
        <ele>19.957914198718427</ele>
      </trkpt>
      <trkpt lat="32.443813" lon="34.893224">
        <ele>19.725193287744336</ele>
      </trkpt>
      <trkpt lat="32.443806" lon="34.893301">
        <ele>19.604069347440692</ele>
      </trkpt>
      <trkpt lat="32.443795" lon="34.893376">
        <ele>19.5149881775795</ele>
      </trkpt>
      <trkpt lat="32.443774" lon="34.893488">
        <ele>19.694426410101116</ele>
      </trkpt>
      <trkpt lat="32.443749" lon="34.893588">
        <ele>19.857543710672644</ele>
      </trkpt>
      <trkpt lat="32.443714" lon="34.893701">
        <ele>20.054962303392564</ele>
      </trkpt>
      <trkpt lat="32.44368" lon="34.893795">
        <ele>20.246901537967176</ele>
      </trkpt>
      <trkpt lat="32.443631" lon="34.893934">
        <ele>20.52962032637749</ele>
      </trkpt>
      <trkpt lat="32.44359" lon="34.894055">
        <ele>20.309444401805678</ele>
      </trkpt>
      <trkpt lat="32.443555" lon="34.894144">
        <ele>20.002311336573186</ele>
      </trkpt>
      <trkpt lat="32.443506" lon="34.894269">
        <ele>19.51645230536524</ele>
      </trkpt>
      <trkpt lat="32.443465" lon="34.894374">
        <ele>18.466964742158524</ele>
      </trkpt>
      <trkpt lat="32.443407" lon="34.894495">
        <ele>17.204656458275682</ele>
      </trkpt>
      <trkpt lat="32.443306" lon="34.894697">
        <ele>15.85938821706522</ele>
      </trkpt>
      <trkpt lat="32.443093" lon="34.895221">
        <ele>13.468412334839329</ele>
      </trkpt>
      <trkpt lat="32.442763" lon="34.895858">
        <ele>12.702403426504675</ele>
      </trkpt>
      <trkpt lat="32.442479" lon="34.896412">
        <ele>14.170770617330415</ele>
      </trkpt>
      <trkpt lat="32.442215" lon="34.896951">
        <ele>16.208406873707094</ele>
      </trkpt>
      <trkpt lat="32.442147" lon="34.897087">
        <ele>16.09192369963211</ele>
      </trkpt>
      <trkpt lat="32.442091" lon="34.89721">
        <ele>15.611040794578697</ele>
      </trkpt>
      <trkpt lat="32.441573" lon="34.89827">
        <ele>14.371089908323098</ele>
      </trkpt>
      <trkpt lat="32.441157" lon="34.899179">
        <ele>14.553913011473988</ele>
      </trkpt>
      <trkpt lat="32.441014" lon="34.899514">
        <ele>15.060014426363683</ele>
      </trkpt>
      <trkpt lat="32.440982" lon="34.899593">
        <ele>15.029588614447716</ele>
      </trkpt>
      <trkpt lat="32.440937" lon="34.899708">
        <ele>14.831330764286497</ele>
      </trkpt>
      <trkpt lat="32.440909" lon="34.899788">
        <ele>14.695874172263897</ele>
      </trkpt>
      <trkpt lat="32.440799" lon="34.900122">
        <ele>13.76321012710875</ele>
      </trkpt>
      <trkpt lat="32.440731" lon="34.900326">
        <ele>13.330479613640152</ele>
      </trkpt>
      <trkpt lat="32.440653" lon="34.900609">
        <ele>12.82643547747301</ele>
      </trkpt>
      <trkpt lat="32.440574" lon="34.900919">
        <ele>11.815885304371065</ele>
      </trkpt>
      <trkpt lat="32.440488" lon="34.901318">
        <ele>10.436572483967076</ele>
      </trkpt>
      <trkpt lat="32.440192" lon="34.903209">
        <ele>12.459312251715307</ele>
      </trkpt>
      <trkpt lat="32.44006" lon="34.904064">
        <ele>14.666630799340384</ele>
      </trkpt>
      <trkpt lat="32.439996" lon="34.904471">
        <ele>15</ele>
      </trkpt>
      <trkpt lat="32.439972" lon="34.904602">
        <ele>14.97023324707267</ele>
      </trkpt>
      <trkpt lat="32.439932" lon="34.904576">
        <ele>14.95332297701109</ele>
      </trkpt>
      <trkpt lat="32.439917" lon="34.904567">
        <ele>14.947091066252797</ele>
      </trkpt>
      <extensions>
        <RoutingType xmlns="">Hike</RoutingType>
      </extensions>
    </trkseg>
    <trkseg>
      <trkpt lat="32.439917" lon="34.904567">
        <ele>14.9</ele>
      </trkpt>
      <trkpt lat="32.439848" lon="34.904522">
        <ele>14.637264643814119</ele>
      </trkpt>
      <trkpt lat="32.439796" lon="34.904504">
        <ele>14.456549960059586</ele>
      </trkpt>
      <trkpt lat="32.439599" lon="34.904429">
        <ele>14.233700364361765</ele>
      </trkpt>
      <trkpt lat="32.439456" lon="34.904319">
        <ele>14.802434622457211</ele>
      </trkpt>
      <trkpt lat="32.439371" lon="34.904235">
        <ele>15.29239302606344</ele>
      </trkpt>
      <trkpt lat="32.439319" lon="34.904149">
        <ele>15.722611386949536</ele>
      </trkpt>
      <trkpt lat="32.43929" lon="34.904058">
        <ele>16.118173221594475</ele>
      </trkpt>
      <trkpt lat="32.439288" lon="34.903909">
        <ele>16.885453007503383</ele>
      </trkpt>
      <trkpt lat="32.439339" lon="34.90372">
        <ele>17.94303773016078</ele>
      </trkpt>
      <trkpt lat="32.439701" lon="34.903004">
        <ele>19.80956071732362</ele>
      </trkpt>
      <trkpt lat="32.439746" lon="34.902897">
        <ele>19.700876262211935</ele>
      </trkpt>
      <trkpt lat="32.439686" lon="34.902828">
        <ele>19.73186728218121</ele>
      </trkpt>
      <trkpt lat="32.439701" lon="34.902762">
        <ele>19.75324839526696</ele>
      </trkpt>
      <trkpt lat="32.439712" lon="34.902694">
        <ele>19.774906844529756</ele>
      </trkpt>
      <trkpt lat="32.439721" lon="34.902595">
        <ele>19.75761920911752</ele>
      </trkpt>
      <trkpt lat="32.439726" lon="34.902483">
        <ele>19.512031596716643</ele>
      </trkpt>
      <trkpt lat="32.439725" lon="34.902347">
        <ele>19.21422311470683</ele>
      </trkpt>
      <trkpt lat="32.439706" lon="34.902205">
        <ele>18.64149544449364</ele>
      </trkpt>
      <trkpt lat="32.439671" lon="34.902072">
        <ele>17.944220706464883</ele>
      </trkpt>
      <trkpt lat="32.439626" lon="34.901953">
        <ele>17.265517337748694</ele>
      </trkpt>
      <trkpt lat="32.439573" lon="34.901806">
        <ele>16.365448617402166</ele>
      </trkpt>
      <trkpt lat="32.439338" lon="34.901437">
        <ele>15.568717706298717</ele>
      </trkpt>
      <trkpt lat="32.439044" lon="34.900976">
        <ele>16.0464603793212</ele>
      </trkpt>
      <trkpt lat="32.43902" lon="34.900943">
        <ele>15.979881559489623</ele>
      </trkpt>
      <trkpt lat="32.438916" lon="34.900788">
        <ele>15.36045956330313</ele>
      </trkpt>
      <extensions>
        <RoutingType xmlns="">Hike</RoutingType>
      </extensions>
    </trkseg>
    <trkseg>
      <trkpt lat="32.438916" lon="34.900788">
        <ele>15</ele>
      </trkpt>
      <trkpt lat="32.438582" lon="34.900288">
        <ele>13.100527961462882</ele>
      </trkpt>
      <trkpt lat="32.438527" lon="34.900222">
        <ele>12.900595553167138</ele>
      </trkpt>
      <trkpt lat="32.43846" lon="34.90014">
        <ele>12.650677365218135</ele>
      </trkpt>
      <trkpt lat="32.438162" lon="34.899779">
        <ele>11.522152559819569</ele>
      </trkpt>
      <trkpt lat="32.438082" lon="34.899671">
        <ele>11.567103865217087</ele>
      </trkpt>
      <trkpt lat="32.438039" lon="34.899613">
        <ele>11.59125344805735</ele>
      </trkpt>
      <trkpt lat="32.437983" lon="34.899535">
        <ele>12.15889923350007</ele>
      </trkpt>
      <trkpt lat="32.437723" lon="34.899164">
        <ele>16.298280037833006</ele>
      </trkpt>
      <trkpt lat="32.437496" lon="34.898864">
        <ele>17.49696746814783</ele>
      </trkpt>
      <trkpt lat="32.437381" lon="34.898762">
        <ele>16.59181284026174</ele>
      </trkpt>
      <trkpt lat="32.437346" lon="34.898764">
        <ele>16.37101991432336</ele>
      </trkpt>
      <trkpt lat="32.437313" lon="34.898754">
        <ele>16.156392751938874</ele>
      </trkpt>
      <trkpt lat="32.437285" lon="34.898731">
        <ele>15.941712233642697</ele>
      </trkpt>
      <trkpt lat="32.437264" lon="34.898699">
        <ele>15.782622783613313</ele>
      </trkpt>
      <trkpt lat="32.437253" lon="34.89866">
        <ele>15.731169763304461</ele>
      </trkpt>
      <trkpt lat="32.437096" lon="34.898642">
        <ele>15.49731456436716</ele>
      </trkpt>
      <trkpt lat="32.437048" lon="34.898608">
        <ele>15.414402628931894</ele>
      </trkpt>
      <trkpt lat="32.436952" lon="34.898502">
        <ele>15.354962905538995</ele>
      </trkpt>
      <trkpt lat="32.436914" lon="34.898458">
        <ele>15.33526948898515</ele>
      </trkpt>
      <trkpt lat="32.436819" lon="34.898573">
        <ele>15.450696926492858</ele>
      </trkpt>
      <trkpt lat="32.436766" lon="34.898672">
        <ele>15.817440484186928</ele>
      </trkpt>
      <trkpt lat="32.436492" lon="34.899613">
        <ele>14.263137025242747</ele>
      </trkpt>
      <trkpt lat="32.436446" lon="34.899732">
        <ele>14.312245349372294</ele>
      </trkpt>
      <trkpt lat="32.436397" lon="34.899828">
        <ele>14.417532845387738</ele>
      </trkpt>
      <trkpt lat="32.436367" lon="34.899877">
        <ele>14.474343204286368</ele>
      </trkpt>
      <trkpt lat="32.436298" lon="34.899935">
        <ele>14.568414572441371</ele>
      </trkpt>
      <trkpt lat="32.436242" lon="34.899958">
        <ele>14.565681295519736</ele>
      </trkpt>
      <trkpt lat="32.436177" lon="34.899977">
        <ele>14.491237586198796</ele>
      </trkpt>
      <trkpt lat="32.435641" lon="34.900052">
        <ele>13.254788051201407</ele>
      </trkpt>
      <trkpt lat="32.435399" lon="34.90003">
        <ele>13</ele>
      </trkpt>
      <trkpt lat="32.434701" lon="34.900075">
        <ele>12.158559592295374</ele>
      </trkpt>
      <trkpt lat="32.433796" lon="34.900121">
        <ele>15.688933419767514</ele>
      </trkpt>
      <trkpt lat="32.433323" lon="34.900111">
        <ele>14.031932891770401</ele>
      </trkpt>
      <trkpt lat="32.432936" lon="34.900094">
        <ele>13.779983820824148</ele>
      </trkpt>
      <trkpt lat="32.432683" lon="34.900127">
        <ele>14.002998543109635</ele>
      </trkpt>
      <trkpt lat="32.432136" lon="34.90021">
        <ele>13.61265802358589</ele>
      </trkpt>
      <trkpt lat="32.431925" lon="34.900247">
        <ele>12.822067627466367</ele>
      </trkpt>
      <trkpt lat="32.431165" lon="34.900381">
        <ele>12.074107929007821</ele>
      </trkpt>
      <trkpt lat="32.430102" lon="34.900139">
        <ele>16.041774935545458</ele>
      </trkpt>
      <trkpt lat="32.429744" lon="34.900113">
        <ele>16.84282416152839</ele>
      </trkpt>
      <trkpt lat="32.429242" lon="34.899986">
        <ele>15.189002442861291</ele>
      </trkpt>
      <trkpt lat="32.428804" lon="34.899783">
        <ele>18.7371000546452</ele>
      </trkpt>
      <trkpt lat="32.428472" lon="34.89977">
        <ele>21.671135381672087</ele>
      </trkpt>
      <trkpt lat="32.42818" lon="34.899665">
        <ele>21.674258111400512</ele>
      </trkpt>
      <trkpt lat="32.427897" lon="34.899261">
        <ele>21.125230240245365</ele>
      </trkpt>
      <trkpt lat="32.427447" lon="34.898835">
        <ele>24.716377188284067</ele>
      </trkpt>
      <trkpt lat="32.427121" lon="34.898568">
        <ele>22.08289428364297</ele>
      </trkpt>
      <trkpt lat="32.426773" lon="34.898335">
        <ele>18.868618125245188</ele>
      </trkpt>
      <trkpt lat="32.423678" lon="34.897764">
        <ele>16.685373106318774</ele>
      </trkpt>
      <trkpt lat="32.422156" lon="34.89742">
        <ele>14.928236511470086</ele>
      </trkpt>
      <trkpt lat="32.421533" lon="34.897025">
        <ele>15.639570233212236</ele>
      </trkpt>
      <trkpt lat="32.421439" lon="34.896365">
        <ele>15.03576114986223</ele>
      </trkpt>
      <trkpt lat="32.421123" lon="34.895748">
        <ele>17.99874831924253</ele>
      </trkpt>
      <trkpt lat="32.421012" lon="34.895532">
        <ele>18.887549600166462</ele>
      </trkpt>
      <trkpt lat="32.420939" lon="34.895069">
        <ele>18.853726064902798</ele>
      </trkpt>
      <trkpt lat="32.421048" lon="34.893893">
        <ele>16.24236116927917</ele>
      </trkpt>
      <trkpt lat="32.420975" lon="34.893343">
        <ele>14.654425238183062</ele>
      </trkpt>
      <trkpt lat="32.420635" lon="34.892846">
        <ele>15.241280786471151</ele>
      </trkpt>
      <trkpt lat="32.419867" lon="34.891937">
        <ele>15.7</ele>
      </trkpt>
      <trkpt lat="32.419636" lon="34.891747">
        <ele>15.7</ele>
      </trkpt>
      <trkpt lat="32.419203" lon="34.891536">
        <ele>14.948601233847887</ele>
      </trkpt>
      <extensions>
        <RoutingType xmlns="">Hike</RoutingType>
      </extensions>
    </trkseg>
    <trkseg>
      <trkpt lat="32.419203" lon="34.891536">
        <ele>14.8</ele>
      </trkpt>
      <trkpt lat="32.418656" lon="34.891269">
        <ele>15.675793077851194</ele>
      </trkpt>
      <trkpt lat="32.417947" lon="34.891258">
        <ele>10.8</ele>
      </trkpt>
      <trkpt lat="32.417558" lon="34.891438">
        <ele>14.706623869734567</ele>
      </trkpt>
      <trkpt lat="32.417374" lon="34.891524">
        <ele>16.722442375529887</ele>
      </trkpt>
      <trkpt lat="32.41649" lon="34.891773">
        <ele>20.274832580280385</ele>
      </trkpt>
      <trkpt lat="32.416156" lon="34.891823">
        <ele>22.461299303236835</ele>
      </trkpt>
      <trkpt lat="32.415846" lon="34.89197">
        <ele>21.749054115397467</ele>
      </trkpt>
      <trkpt lat="32.415775" lon="34.892032">
        <ele>21.050612129230135</ele>
      </trkpt>
      <trkpt lat="32.415476" lon="34.892399">
        <ele>18.521769611921357</ele>
      </trkpt>
      <trkpt lat="32.415353" lon="34.89276">
        <ele>18.171104082352805</ele>
      </trkpt>
      <trkpt lat="32.415307" lon="34.893283">
        <ele>17.751674409634713</ele>
      </trkpt>
      <trkpt lat="32.415114" lon="34.894043">
        <ele>19.86505220805782</ele>
      </trkpt>
      <trkpt lat="32.415045" lon="34.89459">
        <ele>18.157895126749622</ele>
      </trkpt>
      <trkpt lat="32.41491" lon="34.895408">
        <ele>15.716810289225963</ele>
      </trkpt>
      <trkpt lat="32.414774" lon="34.896667">
        <ele>4.444102680136689</ele>
      </trkpt>
      <trkpt lat="32.41461" lon="34.897817">
        <ele>4.892128203839884</ele>
      </trkpt>
      <trkpt lat="32.414346" lon="34.899083">
        <ele>7.426463325801893</ele>
      </trkpt>
      <extensions>
        <RoutingType xmlns="">Hike</RoutingType>
      </extensions>
    </trkseg>
  </trk>
</gpx>
