<?xml version="1.0" encoding="UTF-8" standalone="yes"?>
<gpx xmlns="http://www.topografix.com/GPX/1/1" xmlns:xsi="http://www.w3.org/2001/XMLSchema-instance" version="1.1" creator="IsraelHikingMap" xsi:schemaLocation="http://www.topografix.com/GPX/1/1 http://www.topografix.com/GPX/1/1/gpx.xsd">
  <metadata>
    <bounds maxlat="32.262413" maxlon="34.840658" minlat="32.14134509943524" minlon="34.79099"></bounds>
  </metadata>
  <trk>
    <name>19 - פולג לחוף הצוק</name>
    <desc>🏞️ קושי: בינוני | מישור החוף
🥾 שמורת פולג, חוף געש, חוף הסירה,סידני עלי, חוף השרון, חוף הצוק
💦 טבילה: ים תיכון
⛺ לילה: חוף הצוק.
🛏️ מתקני לינה: חניית רכבים חוף הצוק — ללכת מעט צפון-מזרח לתוך השטח עם השבילים והעצים. שירותים, מקלחות, מי שתייה ושולחנות בטיילת החוף (כניסת מנדרין הצפונית).
🛒 קניות בקרבת המסלול:
• נתניה | קניון השרון, רחוב הרצל 60, ככ-1 ק&quot;מ מהשביל
• רמת פולג\נתניה — א׳-ה׳: 08:00-21:00 | ו׳: 08:00-14:00 | שבת: 20:00-24:00 | ☎ 09-8357303 | מגה בעיר - פולג
• מרכז קניות שפיים | 1 ק&quot;מ מזרחה לשביל. המרכז פתוח כל ימות השבוע, שעות משתנות בהתאם לחנויות
• הרצליה: | ☎ 09-7886957 | במרינה יש חנויות ומסעדות כולל  כשרות, 0730-2200 7 ימים בשבוע.</desc>
    <trkseg>
      <trkpt lat="32.262413" lon="34.840557">
        <ele>7.2</ele>
      </trkpt>
      <trkpt lat="32.262413" lon="34.840557">
        <ele>7.2</ele>
      </trkpt>
      <extensions>
        <RoutingType xmlns="">Hike</RoutingType>
      </extensions>
    </trkseg>
    <trkseg>
      <trkpt lat="32.262413" lon="34.840557">
        <ele>7.2</ele>
      </trkpt>
      <trkpt lat="32.262327" lon="34.840556">
        <ele>7.072490320606035</ele>
      </trkpt>
      <trkpt lat="32.262257" lon="34.840545">
        <ele>6.967796126000386</ele>
      </trkpt>
      <trkpt lat="32.26218" lon="34.840518">
        <ele>6.848723200110596</ele>
      </trkpt>
      <trkpt lat="32.262108" lon="34.840477">
        <ele>6.7476836478521305</ele>
      </trkpt>
      <trkpt lat="32.262054" lon="34.84042">
        <ele>6.667197821989387</ele>
      </trkpt>
      <trkpt lat="32.261939" lon="34.840387">
        <ele>6.535612790817771</ele>
      </trkpt>
      <trkpt lat="32.261844" lon="34.840391">
        <ele>6.453273782854585</ele>
      </trkpt>
      <trkpt lat="32.261752" lon="34.840416">
        <ele>6.383296842349041</ele>
      </trkpt>
      <trkpt lat="32.261305" lon="34.840338">
        <ele>6.72913007629395</ele>
      </trkpt>
      <trkpt lat="32.261079" lon="34.840246">
        <ele>7.301838957746002</ele>
      </trkpt>
      <trkpt lat="32.26101" lon="34.840209">
        <ele>7.694977552650633</ele>
      </trkpt>
      <trkpt lat="32.260978" lon="34.840187">
        <ele>7.887051235484035</ele>
      </trkpt>
      <trkpt lat="32.260949" lon="34.840155">
        <ele>8.092872341542035</ele>
      </trkpt>
      <trkpt lat="32.260921" lon="34.840109">
        <ele>8.341576608497535</ele>
      </trkpt>
      <trkpt lat="32.260878" lon="34.840143">
        <ele>8.57856479924838</ele>
      </trkpt>
      <trkpt lat="32.260743" lon="34.840098">
        <ele>9.0984405246085</ele>
      </trkpt>
      <trkpt lat="32.260592" lon="34.840087">
        <ele>9.691019111712864</ele>
      </trkpt>
      <trkpt lat="32.26021" lon="34.840023">
        <ele>11.11244279500888</ele>
      </trkpt>
      <trkpt lat="32.260108" lon="34.84003">
        <ele>11.37753199357073</ele>
      </trkpt>
      <trkpt lat="32.260099" lon="34.839777">
        <ele>13.760935259119988</ele>
      </trkpt>
      <trkpt lat="32.26008" lon="34.839691">
        <ele>14.4758843134927</ele>
      </trkpt>
      <trkpt lat="32.260061" lon="34.839679">
        <ele>14.427981417634584</ele>
      </trkpt>
      <trkpt lat="32.259943" lon="34.839608">
        <ele>14.133545239869692</ele>
      </trkpt>
      <trkpt lat="32.259859" lon="34.839567">
        <ele>13.931450703050476</ele>
      </trkpt>
      <trkpt lat="32.259668" lon="34.839526">
        <ele>12.765943002948568</ele>
      </trkpt>
      <trkpt lat="32.259534" lon="34.839691">
        <ele>11.66221567572538</ele>
      </trkpt>
      <trkpt lat="32.259372" lon="34.839937">
        <ele>11.01684387822662</ele>
      </trkpt>
      <trkpt lat="32.259269" lon="34.84007">
        <ele>11.356005232619829</ele>
      </trkpt>
      <trkpt lat="32.259215" lon="34.840098">
        <ele>11.69044388685249</ele>
      </trkpt>
      <trkpt lat="32.259054" lon="34.840059">
        <ele>12.908719166547973</ele>
      </trkpt>
      <trkpt lat="32.258995" lon="34.840153">
        <ele>13.715326145781756</ele>
      </trkpt>
      <trkpt lat="32.258831" lon="34.840274">
        <ele>15.578165371646104</ele>
      </trkpt>
      <trkpt lat="32.25877" lon="34.840451">
        <ele>16.393160010929257</ele>
      </trkpt>
      <trkpt lat="32.258707" lon="34.840617">
        <ele>16.902859567761435</ele>
      </trkpt>
      <trkpt lat="32.258661" lon="34.840611">
        <ele>16.971472742813166</ele>
      </trkpt>
      <trkpt lat="32.258545" lon="34.840658">
        <ele>17.153269250780227</ele>
      </trkpt>
      <trkpt lat="32.258376" lon="34.840625">
        <ele>17.32680537271301</ele>
      </trkpt>
      <trkpt lat="32.258326" lon="34.840602">
        <ele>17.34669065640508</ele>
      </trkpt>
      <trkpt lat="32.258216" lon="34.840565">
        <ele>17.389079453767117</ele>
      </trkpt>
      <trkpt lat="32.258155" lon="34.840518">
        <ele>17.159025263600984</ele>
      </trkpt>
      <trkpt lat="32.25805" lon="34.840503">
        <ele>16.571007404401715</ele>
      </trkpt>
      <trkpt lat="32.257993" lon="34.840523">
        <ele>16.24044545570986</ele>
      </trkpt>
      <trkpt lat="32.25791" lon="34.840621">
        <ele>15.56756143778008</ele>
      </trkpt>
      <trkpt lat="32.257853" lon="34.840636">
        <ele>15.221259587039748</ele>
      </trkpt>
      <trkpt lat="32.257551" lon="34.840618">
        <ele>13.700504415468203</ele>
      </trkpt>
      <trkpt lat="32.257318" lon="34.84063">
        <ele>12.708685660967602</ele>
      </trkpt>
      <trkpt lat="32.257136" lon="34.840605">
        <ele>11.946871674265628</ele>
      </trkpt>
      <trkpt lat="32.25707" lon="34.840581">
        <ele>11.793311154611402</ele>
      </trkpt>
      <extensions>
        <RoutingType xmlns="">Hike</RoutingType>
      </extensions>
    </trkseg>
    <trkseg>
      <trkpt lat="32.257070000000006" lon="34.84058">
        <ele>9</ele>
        <time>2021-10-20T07:25:37Z</time>
      </trkpt>
      <trkpt lat="32.25665" lon="34.840540000000004">
        <ele>9</ele>
        <time>2021-10-20T07:25:38Z</time>
      </trkpt>
      <trkpt lat="32.256530000000005" lon="34.84051">
        <ele>9</ele>
        <time>2021-10-20T07:25:39Z</time>
      </trkpt>
      <trkpt lat="32.2564" lon="34.840520000000005">
        <ele>8</ele>
        <time>2021-10-20T07:25:40Z</time>
      </trkpt>
      <trkpt lat="32.2563" lon="34.84051">
        <ele>8</ele>
        <time>2021-10-20T07:25:41Z</time>
      </trkpt>
      <trkpt lat="32.25625" lon="34.84046">
        <ele>8</ele>
        <time>2021-10-20T07:25:42Z</time>
      </trkpt>
      <trkpt lat="32.25623" lon="34.8404">
        <ele>8</ele>
        <time>2021-10-20T07:25:43Z</time>
      </trkpt>
      <trkpt lat="32.25631" lon="34.84031">
        <ele>8</ele>
        <time>2021-10-20T07:25:44Z</time>
      </trkpt>
      <trkpt lat="32.256370000000004" lon="34.840300000000006">
        <ele>8</ele>
        <time>2021-10-20T07:25:45Z</time>
      </trkpt>
      <trkpt lat="32.256420000000006" lon="34.84026">
        <ele>8</ele>
        <time>2021-10-20T07:25:46Z</time>
      </trkpt>
      <trkpt lat="32.25647" lon="34.84006">
        <ele>8</ele>
        <time>2021-10-20T07:25:47Z</time>
      </trkpt>
      <trkpt lat="32.25645" lon="34.839980000000004">
        <ele>8</ele>
        <time>2021-10-20T07:25:48Z</time>
      </trkpt>
      <trkpt lat="32.256260000000005" lon="34.84">
        <ele>7</ele>
        <time>2021-10-20T07:25:49Z</time>
      </trkpt>
      <trkpt lat="32.256150000000005" lon="34.839940000000006">
        <ele>7</ele>
        <time>2021-10-20T07:25:50Z</time>
      </trkpt>
      <trkpt lat="32.25573" lon="34.839420000000004">
        <ele>7</ele>
        <time>2021-10-20T07:25:51Z</time>
      </trkpt>
      <trkpt lat="32.2556" lon="34.83919">
        <ele>10</ele>
        <time>2021-10-20T07:25:52Z</time>
      </trkpt>
      <trkpt lat="32.25555" lon="34.83916">
        <ele>10</ele>
        <time>2021-10-20T07:25:53Z</time>
      </trkpt>
      <trkpt lat="32.25526" lon="34.839270000000006">
        <ele>10</ele>
        <time>2021-10-20T07:25:54Z</time>
      </trkpt>
      <trkpt lat="32.25495" lon="34.839200000000005">
        <ele>10</ele>
        <time>2021-10-20T07:25:55Z</time>
      </trkpt>
      <trkpt lat="32.2549" lon="34.839240000000004">
        <ele>10</ele>
        <time>2021-10-20T07:25:56Z</time>
      </trkpt>
      <trkpt lat="32.25489" lon="34.8393">
        <ele>8</ele>
        <time>2021-10-20T07:25:57Z</time>
      </trkpt>
      <trkpt lat="32.25484" lon="34.83932">
        <ele>8</ele>
        <time>2021-10-20T07:25:58Z</time>
      </trkpt>
      <trkpt lat="32.25461" lon="34.839310000000005">
        <ele>9</ele>
        <time>2021-10-20T07:25:59Z</time>
      </trkpt>
      <trkpt lat="32.25419" lon="34.83921">
        <ele>10</ele>
        <time>2021-10-20T07:26:00Z</time>
      </trkpt>
      <trkpt lat="32.25387" lon="34.839090000000006">
        <ele>12</ele>
        <time>2021-10-20T07:26:01Z</time>
      </trkpt>
      <trkpt lat="32.25383" lon="34.83905">
        <ele>12</ele>
        <time>2021-10-20T07:26:02Z</time>
      </trkpt>
      <trkpt lat="32.25381" lon="34.839130000000004">
        <ele>12</ele>
        <time>2021-10-20T07:26:03Z</time>
      </trkpt>
      <trkpt lat="32.25381" lon="34.839130000000004">
        <ele>12</ele>
        <time>2021-10-20T07:26:04Z</time>
      </trkpt>
      <trkpt lat="32.25383" lon="34.83905">
        <ele>12</ele>
        <time>2021-10-20T07:26:05Z</time>
      </trkpt>
      <trkpt lat="32.25377" lon="34.839020000000005">
        <ele>12</ele>
        <time>2021-10-20T07:26:06Z</time>
      </trkpt>
      <trkpt lat="32.25236" lon="34.838660000000004">
        <ele>13</ele>
        <time>2021-10-20T07:26:07Z</time>
      </trkpt>
      <trkpt lat="32.2515" lon="34.838890000000006">
        <ele>12</ele>
        <time>2021-10-20T07:26:08Z</time>
      </trkpt>
      <trkpt lat="32.251340000000006" lon="34.838910000000006">
        <ele>14</ele>
        <time>2021-10-20T07:26:09Z</time>
      </trkpt>
      <trkpt lat="32.251360000000005" lon="34.83876">
        <ele>14</ele>
        <time>2021-10-20T07:26:10Z</time>
      </trkpt>
      <trkpt lat="32.251340000000006" lon="34.83818">
        <ele>17</ele>
        <time>2021-10-20T07:26:11Z</time>
      </trkpt>
      <trkpt lat="32.251290000000004" lon="34.837900000000005">
        <ele>17</ele>
        <time>2021-10-20T07:26:12Z</time>
      </trkpt>
      <trkpt lat="32.251250000000006" lon="34.83791">
        <ele>17</ele>
        <time>2021-10-20T07:26:13Z</time>
      </trkpt>
      <trkpt lat="32.25086" lon="34.8378">
        <ele>17</ele>
        <time>2021-10-20T07:26:14Z</time>
      </trkpt>
      <trkpt lat="32.250310000000006" lon="34.837590000000006">
        <ele>18</ele>
        <time>2021-10-20T07:26:15Z</time>
      </trkpt>
      <trkpt lat="32.24974" lon="34.837430000000005">
        <ele>20</ele>
        <time>2021-10-20T07:26:16Z</time>
      </trkpt>
      <trkpt lat="32.249030000000005" lon="34.83735">
        <ele>20</ele>
        <time>2021-10-20T07:26:17Z</time>
      </trkpt>
      <trkpt lat="32.24862" lon="34.83735">
        <ele>22</ele>
        <time>2021-10-20T07:26:18Z</time>
      </trkpt>
      <trkpt lat="32.24844" lon="34.83731">
        <ele>22</ele>
        <time>2021-10-20T07:26:19Z</time>
      </trkpt>
      <trkpt lat="32.248200000000004" lon="34.83719">
        <ele>22</ele>
        <time>2021-10-20T07:26:20Z</time>
      </trkpt>
      <trkpt lat="32.24806" lon="34.83708">
        <ele>23</ele>
        <time>2021-10-20T07:26:21Z</time>
      </trkpt>
      <trkpt lat="32.248020000000004" lon="34.83697">
        <ele>23</ele>
        <time>2021-10-20T07:26:22Z</time>
      </trkpt>
      <trkpt lat="32.24805" lon="34.83691">
        <ele>23</ele>
        <time>2021-10-20T07:26:23Z</time>
      </trkpt>
      <trkpt lat="32.24805" lon="34.83686">
        <ele>23</ele>
        <time>2021-10-20T07:26:24Z</time>
      </trkpt>
      <trkpt lat="32.248020000000004" lon="34.83677">
        <ele>25</ele>
        <time>2021-10-20T07:26:25Z</time>
      </trkpt>
      <trkpt lat="32.24799" lon="34.836740000000006">
        <ele>25</ele>
        <time>2021-10-20T07:26:26Z</time>
      </trkpt>
      <trkpt lat="32.24805" lon="34.83663">
        <ele>25</ele>
        <time>2021-10-20T07:26:27Z</time>
      </trkpt>
      <trkpt lat="32.24805" lon="34.83663">
        <ele>25</ele>
        <time>2021-10-20T07:26:28Z</time>
      </trkpt>
      <trkpt lat="32.24826" lon="34.8363">
        <ele>25</ele>
        <time>2021-10-20T07:26:29Z</time>
      </trkpt>
      <trkpt lat="32.24839" lon="34.83572">
        <ele>25</ele>
        <time>2021-10-20T07:26:30Z</time>
      </trkpt>
      <trkpt lat="32.248270000000005" lon="34.8356">
        <ele>25</ele>
        <time>2021-10-20T07:26:31Z</time>
      </trkpt>
      <trkpt lat="32.24833" lon="34.83536">
        <ele>25</ele>
        <time>2021-10-20T07:26:32Z</time>
      </trkpt>
      <trkpt lat="32.248490000000004" lon="34.835330000000006">
        <ele>25</ele>
        <time>2021-10-20T07:26:33Z</time>
      </trkpt>
      <trkpt lat="32.248870000000004" lon="34.8354">
        <ele>25</ele>
        <time>2021-10-20T07:26:34Z</time>
      </trkpt>
      <trkpt lat="32.24895" lon="34.83476">
        <ele>24</ele>
        <time>2021-10-20T07:26:35Z</time>
      </trkpt>
      <trkpt lat="32.24851" lon="34.83467">
        <ele>24</ele>
        <time>2021-10-20T07:26:36Z</time>
      </trkpt>
      <trkpt lat="32.2485" lon="34.83471">
        <ele>24</ele>
        <time>2021-10-20T07:26:37Z</time>
      </trkpt>
      <trkpt lat="32.2488" lon="34.83476">
        <ele>24</ele>
        <time>2021-10-20T07:26:38Z</time>
      </trkpt>
      <trkpt lat="32.24886" lon="34.8346">
        <ele>24</ele>
        <time>2021-10-20T07:26:39Z</time>
      </trkpt>
      <extensions>
        <RoutingType xmlns="">Hike</RoutingType>
      </extensions>
    </trkseg>
    <trkseg>
      <trkpt lat="32.24886" lon="34.8346">
        <ele>24</ele>
        <time>2021-10-20T07:26:39Z</time>
      </trkpt>
      <trkpt lat="32.248920000000005" lon="34.83458">
        <ele>24</ele>
        <time>2021-10-20T07:26:40Z</time>
      </trkpt>
      <trkpt lat="32.249" lon="34.8346">
        <ele>21</ele>
        <time>2021-10-20T07:26:41Z</time>
      </trkpt>
      <trkpt lat="32.24929" lon="34.834770000000006">
        <ele>21</ele>
        <time>2021-10-20T07:26:42Z</time>
      </trkpt>
      <trkpt lat="32.249340000000004" lon="34.834790000000005">
        <ele>21</ele>
        <time>2021-10-20T07:26:43Z</time>
      </trkpt>
      <trkpt lat="32.24944" lon="34.834790000000005">
        <ele>21</ele>
        <time>2021-10-20T07:26:44Z</time>
      </trkpt>
      <trkpt lat="32.24945" lon="34.83458">
        <ele>21</ele>
        <time>2021-10-20T07:26:45Z</time>
      </trkpt>
      <trkpt lat="32.24954" lon="34.83444">
        <ele>21</ele>
        <time>2021-10-20T07:26:46Z</time>
      </trkpt>
      <trkpt lat="32.24962" lon="34.83422">
        <ele>20</ele>
        <time>2021-10-20T07:26:47Z</time>
      </trkpt>
      <trkpt lat="32.24973" lon="34.8337">
        <ele>20</ele>
        <time>2021-10-20T07:26:48Z</time>
      </trkpt>
      <trkpt lat="32.249750000000006" lon="34.832620000000006">
        <ele>24</ele>
        <time>2021-10-20T07:26:49Z</time>
      </trkpt>
      <trkpt lat="32.2501" lon="34.830830000000006">
        <ele>26</ele>
        <time>2021-10-20T07:26:50Z</time>
      </trkpt>
      <trkpt lat="32.25021" lon="34.830450000000006">
        <ele>26</ele>
        <time>2021-10-20T07:26:51Z</time>
      </trkpt>
      <trkpt lat="32.25021" lon="34.830450000000006">
        <ele>26</ele>
        <time>2021-10-20T07:26:52Z</time>
      </trkpt>
      <trkpt lat="32.250400000000006" lon="34.8295">
        <ele>30</ele>
        <time>2021-10-20T07:26:53Z</time>
      </trkpt>
      <trkpt lat="32.250440000000005" lon="34.829370000000004">
        <ele>30</ele>
        <time>2021-10-20T07:26:54Z</time>
      </trkpt>
      <trkpt lat="32.25029" lon="34.829280000000004">
        <ele>35</ele>
        <time>2021-10-20T07:26:55Z</time>
      </trkpt>
      <trkpt lat="32.25019" lon="34.82918">
        <ele>35</ele>
        <time>2021-10-20T07:26:56Z</time>
      </trkpt>
      <trkpt lat="32.250040000000006" lon="34.829080000000005">
        <ele>35</ele>
        <time>2021-10-20T07:26:57Z</time>
      </trkpt>
      <trkpt lat="32.24985" lon="34.82898">
        <ele>35</ele>
        <time>2021-10-20T07:26:58Z</time>
      </trkpt>
      <trkpt lat="32.248650000000005" lon="34.82867">
        <ele>26</ele>
        <time>2021-10-20T07:26:59Z</time>
      </trkpt>
      <trkpt lat="32.24837" lon="34.82856">
        <ele>26</ele>
        <time>2021-10-20T07:27:00Z</time>
      </trkpt>
      <trkpt lat="32.24841" lon="34.82842">
        <ele>33</ele>
        <time>2021-10-20T07:27:01Z</time>
      </trkpt>
      <trkpt lat="32.248540000000006" lon="34.82831">
        <ele>33</ele>
        <time>2021-10-20T07:27:02Z</time>
      </trkpt>
      <trkpt lat="32.24855" lon="34.82777">
        <ele>33</ele>
        <time>2021-10-20T07:27:03Z</time>
      </trkpt>
      <trkpt lat="32.248450000000005" lon="34.8277">
        <ele>33</ele>
        <time>2021-10-20T07:27:04Z</time>
      </trkpt>
      <trkpt lat="32.24841" lon="34.82764">
        <ele>33</ele>
        <time>2021-10-20T07:27:05Z</time>
      </trkpt>
      <trkpt lat="32.248380000000004" lon="34.82757">
        <ele>39</ele>
        <time>2021-10-20T07:27:06Z</time>
      </trkpt>
      <trkpt lat="32.24832" lon="34.82746">
        <ele>39</ele>
        <time>2021-10-20T07:27:07Z</time>
      </trkpt>
      <trkpt lat="32.24828" lon="34.827420000000004">
        <ele>39</ele>
        <time>2021-10-20T07:27:08Z</time>
      </trkpt>
      <trkpt lat="32.248160000000006" lon="34.827380000000005">
        <ele>39</ele>
        <time>2021-10-20T07:27:09Z</time>
      </trkpt>
      <trkpt lat="32.24806" lon="34.827380000000005">
        <ele>37.5</ele>
        <time>2021-10-20T07:27:10Z</time>
      </trkpt>
      <trkpt lat="32.24806" lon="34.827380000000005">
        <ele>37.5</ele>
        <time>2021-10-20T07:27:11Z</time>
      </trkpt>
      <trkpt lat="32.24776" lon="34.82734">
        <ele>36</ele>
        <time>2021-10-20T07:27:12Z</time>
      </trkpt>
      <trkpt lat="32.247710000000005" lon="34.8273">
        <ele>36</ele>
        <time>2021-10-20T07:27:13Z</time>
      </trkpt>
      <trkpt lat="32.247460000000004" lon="34.82699">
        <ele>36</ele>
        <time>2021-10-20T07:27:14Z</time>
      </trkpt>
      <trkpt lat="32.247370000000004" lon="34.826890000000006">
        <ele>36</ele>
        <time>2021-10-20T07:27:15Z</time>
      </trkpt>
      <trkpt lat="32.24714" lon="34.82668">
        <ele>37</ele>
        <time>2021-10-20T07:27:16Z</time>
      </trkpt>
      <trkpt lat="32.24689" lon="34.82649">
        <ele>37</ele>
        <time>2021-10-20T07:27:17Z</time>
      </trkpt>
      <trkpt lat="32.24672" lon="34.826440000000005">
        <ele>37</ele>
        <time>2021-10-20T07:27:18Z</time>
      </trkpt>
      <trkpt lat="32.246480000000005" lon="34.82643">
        <ele>37</ele>
        <time>2021-10-20T07:27:19Z</time>
      </trkpt>
      <trkpt lat="32.246300000000005" lon="34.826350000000005">
        <ele>44</ele>
        <time>2021-10-20T07:27:20Z</time>
      </trkpt>
      <trkpt lat="32.245670000000004" lon="34.82578">
        <ele>42</ele>
        <time>2021-10-20T07:27:21Z</time>
      </trkpt>
      <trkpt lat="32.24559" lon="34.82582">
        <ele>45</ele>
        <time>2021-10-20T07:27:22Z</time>
      </trkpt>
      <trkpt lat="32.245270000000005" lon="34.8258">
        <ele>45</ele>
        <time>2021-10-20T07:27:23Z</time>
      </trkpt>
      <trkpt lat="32.24497" lon="34.82564">
        <ele>45</ele>
        <time>2021-10-20T07:27:24Z</time>
      </trkpt>
      <trkpt lat="32.24488" lon="34.82565">
        <ele>45</ele>
        <time>2021-10-20T07:27:25Z</time>
      </trkpt>
      <trkpt lat="32.244150000000005" lon="34.82529">
        <ele>41</ele>
        <time>2021-10-20T07:27:26Z</time>
      </trkpt>
      <trkpt lat="32.24382" lon="34.825100000000006">
        <ele>38</ele>
        <time>2021-10-20T07:27:27Z</time>
      </trkpt>
      <trkpt lat="32.243460000000006" lon="34.82477">
        <ele>38</ele>
        <time>2021-10-20T07:27:28Z</time>
      </trkpt>
      <trkpt lat="32.24309" lon="34.824670000000005">
        <ele>38</ele>
        <time>2021-10-20T07:27:29Z</time>
      </trkpt>
      <trkpt lat="32.24291" lon="34.8247">
        <ele>38</ele>
        <time>2021-10-20T07:27:30Z</time>
      </trkpt>
      <trkpt lat="32.242520000000006" lon="34.82475">
        <ele>38</ele>
        <time>2021-10-20T07:27:31Z</time>
      </trkpt>
      <trkpt lat="32.2419" lon="34.824780000000004">
        <ele>42</ele>
        <time>2021-10-20T07:27:32Z</time>
      </trkpt>
      <trkpt lat="32.241580000000006" lon="34.824470000000005">
        <ele>42</ele>
        <time>2021-10-20T07:27:33Z</time>
      </trkpt>
      <trkpt lat="32.24101" lon="34.824000000000005">
        <ele>40</ele>
        <time>2021-10-20T07:27:34Z</time>
      </trkpt>
      <trkpt lat="32.2406" lon="34.823840000000004">
        <ele>47</ele>
        <time>2021-10-20T07:27:35Z</time>
      </trkpt>
      <trkpt lat="32.23987" lon="34.82367">
        <ele>47</ele>
        <time>2021-10-20T07:27:36Z</time>
      </trkpt>
      <trkpt lat="32.239720000000005" lon="34.823550000000004">
        <ele>45</ele>
        <time>2021-10-20T07:27:37Z</time>
      </trkpt>
      <trkpt lat="32.23962" lon="34.82349">
        <ele>45</ele>
        <time>2021-10-20T07:27:38Z</time>
      </trkpt>
      <trkpt lat="32.2395" lon="34.82345">
        <ele>39</ele>
        <time>2021-10-20T07:27:39Z</time>
      </trkpt>
      <trkpt lat="32.239160000000005" lon="34.82336">
        <ele>39</ele>
        <time>2021-10-20T07:27:40Z</time>
      </trkpt>
      <trkpt lat="32.23894" lon="34.823330000000006">
        <ele>37</ele>
        <time>2021-10-20T07:27:41Z</time>
      </trkpt>
      <extensions>
        <RoutingType xmlns="">Hike</RoutingType>
      </extensions>
    </trkseg>
    <trkseg>
      <trkpt lat="32.23894" lon="34.823330000000006">
        <ele>37</ele>
        <time>2021-10-20T07:27:41Z</time>
      </trkpt>
      <trkpt lat="32.23872" lon="34.82309">
        <ele>37</ele>
        <time>2021-10-20T07:27:42Z</time>
      </trkpt>
      <trkpt lat="32.23854" lon="34.82309">
        <ele>37</ele>
        <time>2021-10-20T07:27:43Z</time>
      </trkpt>
      <trkpt lat="32.23836" lon="34.82289">
        <ele>37</ele>
        <time>2021-10-20T07:27:44Z</time>
      </trkpt>
      <trkpt lat="32.23812" lon="34.82278">
        <ele>37</ele>
        <time>2021-10-20T07:27:45Z</time>
      </trkpt>
      <trkpt lat="32.23787" lon="34.82289">
        <ele>37</ele>
        <time>2021-10-20T07:27:46Z</time>
      </trkpt>
      <trkpt lat="32.23776" lon="34.82285">
        <ele>37</ele>
        <time>2021-10-20T07:27:47Z</time>
      </trkpt>
      <trkpt lat="32.237640000000006" lon="34.82285">
        <ele>37</ele>
        <time>2021-10-20T07:27:48Z</time>
      </trkpt>
      <trkpt lat="32.23733" lon="34.822630000000004">
        <ele>30</ele>
        <time>2021-10-20T07:27:49Z</time>
      </trkpt>
      <trkpt lat="32.237210000000005" lon="34.82264">
        <ele>37</ele>
        <time>2021-10-20T07:27:50Z</time>
      </trkpt>
      <trkpt lat="32.237170000000006" lon="34.82267">
        <ele>37</ele>
        <time>2021-10-20T07:27:51Z</time>
      </trkpt>
      <trkpt lat="32.23709" lon="34.822680000000005">
        <ele>37</ele>
        <time>2021-10-20T07:27:52Z</time>
      </trkpt>
      <trkpt lat="32.23698" lon="34.82265">
        <ele>37</ele>
        <time>2021-10-20T07:27:53Z</time>
      </trkpt>
      <trkpt lat="32.236830000000005" lon="34.82249">
        <ele>34</ele>
        <time>2021-10-20T07:27:54Z</time>
      </trkpt>
      <trkpt lat="32.23673" lon="34.82242">
        <ele>34</ele>
        <time>2021-10-20T07:27:55Z</time>
      </trkpt>
      <trkpt lat="32.236560000000004" lon="34.82237">
        <ele>34</ele>
        <time>2021-10-20T07:27:56Z</time>
      </trkpt>
      <trkpt lat="32.23651" lon="34.82233">
        <ele>34</ele>
        <time>2021-10-20T07:27:57Z</time>
      </trkpt>
      <trkpt lat="32.236450000000005" lon="34.82236">
        <ele>35</ele>
        <time>2021-10-20T07:27:58Z</time>
      </trkpt>
      <trkpt lat="32.23639" lon="34.82236">
        <ele>35</ele>
        <time>2021-10-20T07:27:59Z</time>
      </trkpt>
      <trkpt lat="32.23628" lon="34.82231">
        <ele>35</ele>
        <time>2021-10-20T07:28:00Z</time>
      </trkpt>
      <trkpt lat="32.23626" lon="34.82224">
        <ele>35</ele>
        <time>2021-10-20T07:28:01Z</time>
      </trkpt>
      <trkpt lat="32.236180000000004" lon="34.822140000000005">
        <ele>35</ele>
        <time>2021-10-20T07:28:02Z</time>
      </trkpt>
      <trkpt lat="32.23612" lon="34.822140000000005">
        <ele>35</ele>
        <time>2021-10-20T07:28:03Z</time>
      </trkpt>
      <trkpt lat="32.2359" lon="34.822030000000005">
        <ele>35</ele>
        <time>2021-10-20T07:28:04Z</time>
      </trkpt>
      <trkpt lat="32.23572" lon="34.822050000000004">
        <ele>35</ele>
        <time>2021-10-20T07:28:05Z</time>
      </trkpt>
      <trkpt lat="32.23566" lon="34.82202">
        <ele>35</ele>
        <time>2021-10-20T07:28:06Z</time>
      </trkpt>
      <trkpt lat="32.2355" lon="34.822120000000005">
        <ele>34</ele>
        <time>2021-10-20T07:28:07Z</time>
      </trkpt>
      <trkpt lat="32.235330000000005" lon="34.822140000000005">
        <ele>34</ele>
        <time>2021-10-20T07:28:08Z</time>
      </trkpt>
      <trkpt lat="32.235150000000004" lon="34.82211">
        <ele>34</ele>
        <time>2021-10-20T07:28:09Z</time>
      </trkpt>
      <trkpt lat="32.235060000000004" lon="34.822070000000004">
        <ele>34</ele>
        <time>2021-10-20T07:28:10Z</time>
      </trkpt>
      <trkpt lat="32.23499" lon="34.82202">
        <ele>34</ele>
        <time>2021-10-20T07:28:11Z</time>
      </trkpt>
      <trkpt lat="32.23489" lon="34.822030000000005">
        <ele>34</ele>
        <time>2021-10-20T07:28:12Z</time>
      </trkpt>
      <trkpt lat="32.23489" lon="34.822030000000005">
        <ele>34</ele>
        <time>2021-10-20T07:28:13Z</time>
      </trkpt>
      <trkpt lat="32.23472" lon="34.82199">
        <ele>36</ele>
        <time>2021-10-20T07:28:14Z</time>
      </trkpt>
      <trkpt lat="32.23438" lon="34.82199">
        <ele>36</ele>
        <time>2021-10-20T07:28:15Z</time>
      </trkpt>
      <trkpt lat="32.23427" lon="34.82189">
        <ele>36</ele>
        <time>2021-10-20T07:28:16Z</time>
      </trkpt>
      <trkpt lat="32.234170000000006" lon="34.821650000000005">
        <ele>30</ele>
        <time>2021-10-20T07:28:17Z</time>
      </trkpt>
      <trkpt lat="32.234" lon="34.82146">
        <ele>30</ele>
        <time>2021-10-20T07:28:18Z</time>
      </trkpt>
      <trkpt lat="32.233900000000006" lon="34.82139">
        <ele>35</ele>
        <time>2021-10-20T07:28:19Z</time>
      </trkpt>
      <trkpt lat="32.233740000000004" lon="34.821360000000006">
        <ele>35</ele>
        <time>2021-10-20T07:28:20Z</time>
      </trkpt>
      <trkpt lat="32.233650000000004" lon="34.821290000000005">
        <ele>35</ele>
        <time>2021-10-20T07:28:21Z</time>
      </trkpt>
      <trkpt lat="32.23351" lon="34.821290000000005">
        <ele>35</ele>
        <time>2021-10-20T07:28:22Z</time>
      </trkpt>
      <trkpt lat="32.233270000000005" lon="34.82124">
        <ele>35</ele>
        <time>2021-10-20T07:28:23Z</time>
      </trkpt>
      <trkpt lat="32.23293" lon="34.821090000000005">
        <ele>37</ele>
        <time>2021-10-20T07:28:24Z</time>
      </trkpt>
      <trkpt lat="32.232670000000006" lon="34.82104">
        <ele>37</ele>
        <time>2021-10-20T07:28:25Z</time>
      </trkpt>
      <trkpt lat="32.23239" lon="34.82095">
        <ele>27</ele>
        <time>2021-10-20T07:28:26Z</time>
      </trkpt>
      <trkpt lat="32.23191" lon="34.82074">
        <ele>33</ele>
        <time>2021-10-20T07:28:27Z</time>
      </trkpt>
      <trkpt lat="32.23185" lon="34.820600000000006">
        <ele>33</ele>
        <time>2021-10-20T07:28:28Z</time>
      </trkpt>
      <trkpt lat="32.231660000000005" lon="34.82047">
        <ele>33</ele>
        <time>2021-10-20T07:28:29Z</time>
      </trkpt>
      <trkpt lat="32.231590000000004" lon="34.820550000000004">
        <ele>33</ele>
        <time>2021-10-20T07:28:30Z</time>
      </trkpt>
      <trkpt lat="32.23145" lon="34.8207">
        <ele>38</ele>
        <time>2021-10-20T07:28:31Z</time>
      </trkpt>
      <trkpt lat="32.231230000000004" lon="34.82083">
        <ele>38</ele>
        <time>2021-10-20T07:28:32Z</time>
      </trkpt>
      <trkpt lat="32.230720000000005" lon="34.820550000000004">
        <ele>38</ele>
        <time>2021-10-20T07:28:33Z</time>
      </trkpt>
      <trkpt lat="32.230450000000005" lon="34.82056">
        <ele>38</ele>
        <time>2021-10-20T07:28:34Z</time>
      </trkpt>
      <trkpt lat="32.23028" lon="34.820530000000005">
        <ele>38</ele>
        <time>2021-10-20T07:28:35Z</time>
      </trkpt>
      <trkpt lat="32.22997" lon="34.82054">
        <ele>38</ele>
        <time>2021-10-20T07:28:36Z</time>
      </trkpt>
      <trkpt lat="32.229760000000006" lon="34.82029">
        <ele>39</ele>
        <time>2021-10-20T07:28:37Z</time>
      </trkpt>
      <trkpt lat="32.229510000000005" lon="34.820100000000004">
        <ele>33</ele>
        <time>2021-10-20T07:28:38Z</time>
      </trkpt>
      <trkpt lat="32.2291" lon="34.82003">
        <ele>33</ele>
        <time>2021-10-20T07:28:39Z</time>
      </trkpt>
      <trkpt lat="32.22892" lon="34.820100000000004">
        <ele>32</ele>
        <time>2021-10-20T07:28:40Z</time>
      </trkpt>
      <trkpt lat="32.22881" lon="34.82011">
        <ele>32</ele>
        <time>2021-10-20T07:28:41Z</time>
      </trkpt>
      <trkpt lat="32.22838" lon="34.82003">
        <ele>32</ele>
        <time>2021-10-20T07:28:42Z</time>
      </trkpt>
      <trkpt lat="32.2282" lon="34.819990000000004">
        <ele>32</ele>
        <time>2021-10-20T07:28:43Z</time>
      </trkpt>
      <extensions>
        <RoutingType xmlns="">Hike</RoutingType>
      </extensions>
    </trkseg>
    <trkseg>
      <trkpt lat="32.2282" lon="34.819990000000004">
        <ele>32</ele>
        <time>2021-10-20T07:28:43Z</time>
      </trkpt>
      <trkpt lat="32.22807" lon="34.81998">
        <ele>20</ele>
        <time>2021-10-20T07:28:44Z</time>
      </trkpt>
      <trkpt lat="32.22798" lon="34.82001">
        <ele>20</ele>
        <time>2021-10-20T07:28:45Z</time>
      </trkpt>
      <trkpt lat="32.227610000000006" lon="34.82027">
        <ele>26</ele>
        <time>2021-10-20T07:28:46Z</time>
      </trkpt>
      <trkpt lat="32.227360000000004" lon="34.8203">
        <ele>26</ele>
        <time>2021-10-20T07:28:47Z</time>
      </trkpt>
      <trkpt lat="32.227250000000005" lon="34.82034">
        <ele>28</ele>
        <time>2021-10-20T07:28:48Z</time>
      </trkpt>
      <trkpt lat="32.22722" lon="34.820420000000006">
        <ele>28</ele>
        <time>2021-10-20T07:28:49Z</time>
      </trkpt>
      <trkpt lat="32.22722" lon="34.820420000000006">
        <ele>28</ele>
        <time>2021-10-20T07:28:50Z</time>
      </trkpt>
      <trkpt lat="32.227250000000005" lon="34.82034">
        <ele>28</ele>
        <time>2021-10-20T07:28:51Z</time>
      </trkpt>
      <trkpt lat="32.22731" lon="34.819970000000005">
        <ele>20</ele>
        <time>2021-10-20T07:28:52Z</time>
      </trkpt>
      <trkpt lat="32.22733" lon="34.81967">
        <ele>20</ele>
        <time>2021-10-20T07:28:53Z</time>
      </trkpt>
      <trkpt lat="32.22746" lon="34.819140000000004">
        <ele>13</ele>
        <time>2021-10-20T07:28:54Z</time>
      </trkpt>
      <trkpt lat="32.22759" lon="34.81884">
        <ele>13</ele>
        <time>2021-10-20T07:28:55Z</time>
      </trkpt>
      <trkpt lat="32.227610000000006" lon="34.818780000000004">
        <ele>13</ele>
        <time>2021-10-20T07:28:56Z</time>
      </trkpt>
      <trkpt lat="32.22703" lon="34.81857">
        <ele>21</ele>
        <time>2021-10-20T07:28:57Z</time>
      </trkpt>
      <trkpt lat="32.22679" lon="34.81855">
        <ele>21</ele>
        <time>2021-10-20T07:28:58Z</time>
      </trkpt>
      <trkpt lat="32.226620000000004" lon="34.81851">
        <ele>21</ele>
        <time>2021-10-20T07:28:59Z</time>
      </trkpt>
      <trkpt lat="32.226510000000005" lon="34.81851">
        <ele>21</ele>
        <time>2021-10-20T07:29:00Z</time>
      </trkpt>
      <trkpt lat="32.22625" lon="34.818360000000006">
        <ele>11</ele>
        <time>2021-10-20T07:29:01Z</time>
      </trkpt>
      <trkpt lat="32.226200000000006" lon="34.81848">
        <ele>23</ele>
        <time>2021-10-20T07:29:02Z</time>
      </trkpt>
      <trkpt lat="32.22579" lon="34.818690000000004">
        <ele>23</ele>
        <time>2021-10-20T07:29:03Z</time>
      </trkpt>
      <trkpt lat="32.22572" lon="34.818780000000004">
        <ele>23</ele>
        <time>2021-10-20T07:29:04Z</time>
      </trkpt>
      <trkpt lat="32.22572" lon="34.818780000000004">
        <ele>23</ele>
        <time>2021-10-20T07:29:05Z</time>
      </trkpt>
      <trkpt lat="32.225750000000005" lon="34.81889">
        <ele>23</ele>
        <time>2021-10-20T07:29:06Z</time>
      </trkpt>
      <trkpt lat="32.2258" lon="34.8192">
        <ele>23</ele>
        <time>2021-10-20T07:29:07Z</time>
      </trkpt>
      <trkpt lat="32.22583" lon="34.81955">
        <ele>31</ele>
        <time>2021-10-20T07:29:08Z</time>
      </trkpt>
      <trkpt lat="32.22581" lon="34.819900000000004">
        <ele>31</ele>
        <time>2021-10-20T07:29:09Z</time>
      </trkpt>
      <trkpt lat="32.22567" lon="34.82002">
        <ele>31</ele>
        <time>2021-10-20T07:29:10Z</time>
      </trkpt>
      <trkpt lat="32.2256" lon="34.82007">
        <ele>38</ele>
        <time>2021-10-20T07:29:11Z</time>
      </trkpt>
      <trkpt lat="32.225550000000005" lon="34.82003">
        <ele>38</ele>
        <time>2021-10-20T07:29:12Z</time>
      </trkpt>
      <trkpt lat="32.22554" lon="34.820100000000004">
        <ele>38</ele>
        <time>2021-10-20T07:29:13Z</time>
      </trkpt>
      <trkpt lat="32.22549" lon="34.82014">
        <ele>38</ele>
        <time>2021-10-20T07:29:14Z</time>
      </trkpt>
      <trkpt lat="32.225440000000006" lon="34.82014">
        <ele>38</ele>
        <time>2021-10-20T07:29:15Z</time>
      </trkpt>
      <trkpt lat="32.225390000000004" lon="34.820100000000004">
        <ele>38</ele>
        <time>2021-10-20T07:29:16Z</time>
      </trkpt>
      <trkpt lat="32.22514" lon="34.819750000000006">
        <ele>38</ele>
        <time>2021-10-20T07:29:17Z</time>
      </trkpt>
      <trkpt lat="32.22505" lon="34.819660000000006">
        <ele>38</ele>
        <time>2021-10-20T07:29:18Z</time>
      </trkpt>
      <trkpt lat="32.225" lon="34.819630000000004">
        <ele>38</ele>
        <time>2021-10-20T07:29:19Z</time>
      </trkpt>
      <trkpt lat="32.22493" lon="34.819520000000004">
        <ele>38</ele>
        <time>2021-10-20T07:29:20Z</time>
      </trkpt>
      <trkpt lat="32.22462" lon="34.819190000000006">
        <ele>41</ele>
        <time>2021-10-20T07:29:21Z</time>
      </trkpt>
      <trkpt lat="32.22397" lon="34.81888">
        <ele>43</ele>
        <time>2021-10-20T07:29:22Z</time>
      </trkpt>
      <trkpt lat="32.22386" lon="34.81886">
        <ele>43</ele>
        <time>2021-10-20T07:29:23Z</time>
      </trkpt>
      <trkpt lat="32.22355" lon="34.81888">
        <ele>43</ele>
        <time>2021-10-20T07:29:24Z</time>
      </trkpt>
      <trkpt lat="32.223020000000005" lon="34.81902">
        <ele>43</ele>
        <time>2021-10-20T07:29:25Z</time>
      </trkpt>
      <trkpt lat="32.222930000000005" lon="34.819010000000006">
        <ele>43</ele>
        <time>2021-10-20T07:29:26Z</time>
      </trkpt>
      <trkpt lat="32.2228" lon="34.81904">
        <ele>43</ele>
        <time>2021-10-20T07:29:27Z</time>
      </trkpt>
      <trkpt lat="32.2228" lon="34.81904">
        <ele>43</ele>
        <time>2021-10-20T07:29:28Z</time>
      </trkpt>
      <trkpt lat="32.22265" lon="34.81909">
        <ele>43</ele>
        <time>2021-10-20T07:29:29Z</time>
      </trkpt>
      <trkpt lat="32.222480000000004" lon="34.81911">
        <ele>43</ele>
        <time>2021-10-20T07:29:30Z</time>
      </trkpt>
      <trkpt lat="32.22236" lon="34.81915">
        <ele>43</ele>
        <time>2021-10-20T07:29:31Z</time>
      </trkpt>
      <trkpt lat="32.222300000000004" lon="34.81915">
        <ele>40</ele>
        <time>2021-10-20T07:29:32Z</time>
      </trkpt>
      <trkpt lat="32.222210000000004" lon="34.819190000000006">
        <ele>40</ele>
        <time>2021-10-20T07:29:33Z</time>
      </trkpt>
      <trkpt lat="32.222030000000004" lon="34.819320000000005">
        <ele>41</ele>
        <time>2021-10-20T07:29:34Z</time>
      </trkpt>
      <trkpt lat="32.22195" lon="34.819410000000005">
        <ele>41</ele>
        <time>2021-10-20T07:29:35Z</time>
      </trkpt>
      <trkpt lat="32.221920000000004" lon="34.81954">
        <ele>41</ele>
        <time>2021-10-20T07:29:36Z</time>
      </trkpt>
      <trkpt lat="32.221830000000004" lon="34.81962">
        <ele>41</ele>
        <time>2021-10-20T07:29:37Z</time>
      </trkpt>
      <trkpt lat="32.22178" lon="34.81974">
        <ele>41</ele>
        <time>2021-10-20T07:29:38Z</time>
      </trkpt>
      <trkpt lat="32.22176" lon="34.819810000000004">
        <ele>41</ele>
        <time>2021-10-20T07:29:39Z</time>
      </trkpt>
      <trkpt lat="32.22173" lon="34.819860000000006">
        <ele>41</ele>
        <time>2021-10-20T07:29:40Z</time>
      </trkpt>
      <trkpt lat="32.22162" lon="34.819950000000006">
        <ele>41</ele>
        <time>2021-10-20T07:29:41Z</time>
      </trkpt>
      <trkpt lat="32.22144" lon="34.81998">
        <ele>41</ele>
        <time>2021-10-20T07:29:42Z</time>
      </trkpt>
      <trkpt lat="32.22137" lon="34.81996">
        <ele>41</ele>
        <time>2021-10-20T07:29:43Z</time>
      </trkpt>
      <trkpt lat="32.22129" lon="34.81985">
        <ele>41</ele>
        <time>2021-10-20T07:29:44Z</time>
      </trkpt>
      <trkpt lat="32.2212" lon="34.81978">
        <ele>41</ele>
        <time>2021-10-20T07:29:45Z</time>
      </trkpt>
      <extensions>
        <RoutingType xmlns="">Hike</RoutingType>
      </extensions>
    </trkseg>
    <trkseg>
      <trkpt lat="32.2212" lon="34.81978">
        <ele>41</ele>
        <time>2021-10-20T07:29:45Z</time>
      </trkpt>
      <trkpt lat="32.22101" lon="34.819700000000005">
        <ele>41</ele>
        <time>2021-10-20T07:29:46Z</time>
      </trkpt>
      <trkpt lat="32.220890000000004" lon="34.81962">
        <ele>41</ele>
        <time>2021-10-20T07:29:47Z</time>
      </trkpt>
      <trkpt lat="32.22083" lon="34.8196">
        <ele>41</ele>
        <time>2021-10-20T07:29:48Z</time>
      </trkpt>
      <trkpt lat="32.22072" lon="34.81962">
        <ele>41</ele>
        <time>2021-10-20T07:29:49Z</time>
      </trkpt>
      <trkpt lat="32.22066" lon="34.8196">
        <ele>41</ele>
        <time>2021-10-20T07:29:50Z</time>
      </trkpt>
      <trkpt lat="32.220530000000004" lon="34.81944">
        <ele>42</ele>
        <time>2021-10-20T07:29:51Z</time>
      </trkpt>
      <trkpt lat="32.22018" lon="34.81935">
        <ele>42</ele>
        <time>2021-10-20T07:29:52Z</time>
      </trkpt>
      <trkpt lat="32.220130000000005" lon="34.819300000000005">
        <ele>41</ele>
        <time>2021-10-20T07:29:53Z</time>
      </trkpt>
      <trkpt lat="32.22012" lon="34.819230000000005">
        <ele>41</ele>
        <time>2021-10-20T07:29:54Z</time>
      </trkpt>
      <trkpt lat="32.220150000000004" lon="34.81917">
        <ele>41</ele>
        <time>2021-10-20T07:29:55Z</time>
      </trkpt>
      <trkpt lat="32.22025" lon="34.81908">
        <ele>41</ele>
        <time>2021-10-20T07:29:56Z</time>
      </trkpt>
      <trkpt lat="32.22027" lon="34.81902">
        <ele>41</ele>
        <time>2021-10-20T07:29:57Z</time>
      </trkpt>
      <trkpt lat="32.22027" lon="34.81895">
        <ele>41</ele>
        <time>2021-10-20T07:29:58Z</time>
      </trkpt>
      <trkpt lat="32.22025" lon="34.81889">
        <ele>41</ele>
        <time>2021-10-20T07:29:59Z</time>
      </trkpt>
      <trkpt lat="32.22016" lon="34.81882">
        <ele>41</ele>
        <time>2021-10-20T07:30:00Z</time>
      </trkpt>
      <trkpt lat="32.2201" lon="34.81882">
        <ele>41</ele>
        <time>2021-10-20T07:30:01Z</time>
      </trkpt>
      <trkpt lat="32.22005" lon="34.818850000000005">
        <ele>41</ele>
        <time>2021-10-20T07:30:02Z</time>
      </trkpt>
      <trkpt lat="32.21989" lon="34.818960000000004">
        <ele>41</ele>
        <time>2021-10-20T07:30:03Z</time>
      </trkpt>
      <trkpt lat="32.21972" lon="34.81904">
        <ele>41</ele>
        <time>2021-10-20T07:30:04Z</time>
      </trkpt>
      <trkpt lat="32.21963" lon="34.819120000000005">
        <ele>41</ele>
        <time>2021-10-20T07:30:05Z</time>
      </trkpt>
      <trkpt lat="32.219300000000004" lon="34.818900000000006">
        <ele>41</ele>
        <time>2021-10-20T07:30:06Z</time>
      </trkpt>
      <trkpt lat="32.21911" lon="34.81886">
        <ele>41</ele>
        <time>2021-10-20T07:30:07Z</time>
      </trkpt>
      <trkpt lat="32.21893" lon="34.818780000000004">
        <ele>42</ele>
        <time>2021-10-20T07:30:08Z</time>
      </trkpt>
      <trkpt lat="32.218630000000005" lon="34.818780000000004">
        <ele>42</ele>
        <time>2021-10-20T07:30:09Z</time>
      </trkpt>
      <trkpt lat="32.2184" lon="34.818690000000004">
        <ele>42</ele>
        <time>2021-10-20T07:30:10Z</time>
      </trkpt>
      <trkpt lat="32.218120000000006" lon="34.81853">
        <ele>42</ele>
        <time>2021-10-20T07:30:11Z</time>
      </trkpt>
      <trkpt lat="32.21797" lon="34.81839">
        <ele>41</ele>
        <time>2021-10-20T07:30:12Z</time>
      </trkpt>
      <trkpt lat="32.2177" lon="34.81824">
        <ele>41</ele>
        <time>2021-10-20T07:30:13Z</time>
      </trkpt>
      <trkpt lat="32.21754" lon="34.81806">
        <ele>41</ele>
        <time>2021-10-20T07:30:14Z</time>
      </trkpt>
      <trkpt lat="32.21748" lon="34.81826">
        <ele>41</ele>
        <time>2021-10-20T07:30:15Z</time>
      </trkpt>
      <trkpt lat="32.21748" lon="34.81826">
        <ele>41</ele>
        <time>2021-10-20T07:30:16Z</time>
      </trkpt>
      <trkpt lat="32.217380000000006" lon="34.818400000000004">
        <ele>41</ele>
        <time>2021-10-20T07:30:17Z</time>
      </trkpt>
      <trkpt lat="32.21728" lon="34.818450000000006">
        <ele>38</ele>
        <time>2021-10-20T07:30:18Z</time>
      </trkpt>
      <trkpt lat="32.217020000000005" lon="34.81843">
        <ele>38</ele>
        <time>2021-10-20T07:30:19Z</time>
      </trkpt>
      <trkpt lat="32.216930000000005" lon="34.81844">
        <ele>38</ele>
        <time>2021-10-20T07:30:20Z</time>
      </trkpt>
      <trkpt lat="32.2169" lon="34.81846">
        <ele>38</ele>
        <time>2021-10-20T07:30:21Z</time>
      </trkpt>
      <trkpt lat="32.21681" lon="34.818650000000005">
        <ele>42</ele>
        <time>2021-10-20T07:30:22Z</time>
      </trkpt>
      <trkpt lat="32.216680000000004" lon="34.8188">
        <ele>42</ele>
        <time>2021-10-20T07:30:23Z</time>
      </trkpt>
      <trkpt lat="32.21647" lon="34.818900000000006">
        <ele>44</ele>
        <time>2021-10-20T07:30:24Z</time>
      </trkpt>
      <trkpt lat="32.21613" lon="34.818960000000004">
        <ele>44</ele>
        <time>2021-10-20T07:30:25Z</time>
      </trkpt>
      <trkpt lat="32.215990000000005" lon="34.81895">
        <ele>44</ele>
        <time>2021-10-20T07:30:26Z</time>
      </trkpt>
      <trkpt lat="32.21519" lon="34.818650000000005">
        <ele>46</ele>
        <time>2021-10-20T07:30:27Z</time>
      </trkpt>
      <trkpt lat="32.215160000000004" lon="34.8186">
        <ele>46</ele>
        <time>2021-10-20T07:30:28Z</time>
      </trkpt>
      <trkpt lat="32.215120000000006" lon="34.81857">
        <ele>46</ele>
        <time>2021-10-20T07:30:29Z</time>
      </trkpt>
      <trkpt lat="32.21504" lon="34.818580000000004">
        <ele>46</ele>
        <time>2021-10-20T07:30:30Z</time>
      </trkpt>
      <trkpt lat="32.212770000000006" lon="34.817620000000005">
        <ele>38</ele>
        <time>2021-10-20T07:30:31Z</time>
      </trkpt>
      <trkpt lat="32.211020000000005" lon="34.81685">
        <ele>34</ele>
        <time>2021-10-20T07:30:32Z</time>
      </trkpt>
      <trkpt lat="32.2091" lon="34.81597">
        <ele>38</ele>
        <time>2021-10-20T07:30:33Z</time>
      </trkpt>
      <trkpt lat="32.2091" lon="34.81597">
        <ele>38</ele>
        <time>2021-10-20T07:30:34Z</time>
      </trkpt>
      <trkpt lat="32.20897" lon="34.81591">
        <ele>40</ele>
        <time>2021-10-20T07:30:35Z</time>
      </trkpt>
      <trkpt lat="32.208690000000004" lon="34.81599">
        <ele>41</ele>
        <time>2021-10-20T07:30:36Z</time>
      </trkpt>
      <trkpt lat="32.20852" lon="34.816190000000006">
        <ele>41</ele>
        <time>2021-10-20T07:30:37Z</time>
      </trkpt>
      <trkpt lat="32.20837" lon="34.816370000000006">
        <ele>41</ele>
        <time>2021-10-20T07:30:38Z</time>
      </trkpt>
      <trkpt lat="32.20792" lon="34.81768">
        <ele>41</ele>
        <time>2021-10-20T07:30:39Z</time>
      </trkpt>
      <trkpt lat="32.20778" lon="34.817890000000006">
        <ele>41</ele>
        <time>2021-10-20T07:30:40Z</time>
      </trkpt>
      <trkpt lat="32.20772" lon="34.818110000000004">
        <ele>41</ele>
        <time>2021-10-20T07:30:41Z</time>
      </trkpt>
      <trkpt lat="32.20763" lon="34.8185">
        <ele>41</ele>
        <time>2021-10-20T07:30:42Z</time>
      </trkpt>
      <trkpt lat="32.20763" lon="34.8185">
        <ele>41</ele>
        <time>2021-10-20T07:30:43Z</time>
      </trkpt>
      <trkpt lat="32.207570000000004" lon="34.81868">
        <ele>41</ele>
        <time>2021-10-20T07:30:44Z</time>
      </trkpt>
      <trkpt lat="32.206830000000004" lon="34.81821">
        <ele>43</ele>
        <time>2021-10-20T07:30:45Z</time>
      </trkpt>
      <trkpt lat="32.20577" lon="34.81745">
        <ele>45</ele>
        <time>2021-10-20T07:30:46Z</time>
      </trkpt>
      <trkpt lat="32.20423" lon="34.81629">
        <ele>40</ele>
        <time>2021-10-20T07:30:47Z</time>
      </trkpt>
      <extensions>
        <RoutingType xmlns="">Hike</RoutingType>
      </extensions>
    </trkseg>
    <trkseg>
      <trkpt lat="32.20423" lon="34.81629">
        <ele>40</ele>
        <time>2021-10-20T07:30:47Z</time>
      </trkpt>
      <trkpt lat="32.20411" lon="34.816280000000006">
        <ele>40</ele>
        <time>2021-10-20T07:30:48Z</time>
      </trkpt>
      <trkpt lat="32.20394" lon="34.81645">
        <ele>38</ele>
        <time>2021-10-20T07:30:49Z</time>
      </trkpt>
      <trkpt lat="32.20356" lon="34.816370000000006">
        <ele>38</ele>
        <time>2021-10-20T07:30:50Z</time>
      </trkpt>
      <trkpt lat="32.20311" lon="34.81615">
        <ele>35</ele>
        <time>2021-10-20T07:30:51Z</time>
      </trkpt>
      <trkpt lat="32.202940000000005" lon="34.81589">
        <ele>36</ele>
        <time>2021-10-20T07:30:52Z</time>
      </trkpt>
      <trkpt lat="32.20277" lon="34.81579">
        <ele>36</ele>
        <time>2021-10-20T07:30:53Z</time>
      </trkpt>
      <trkpt lat="32.202470000000005" lon="34.8155">
        <ele>36</ele>
        <time>2021-10-20T07:30:54Z</time>
      </trkpt>
      <trkpt lat="32.20246" lon="34.815380000000005">
        <ele>36</ele>
        <time>2021-10-20T07:30:55Z</time>
      </trkpt>
      <trkpt lat="32.20233" lon="34.815180000000005">
        <ele>36</ele>
        <time>2021-10-20T07:30:56Z</time>
      </trkpt>
      <trkpt lat="32.20186" lon="34.8149">
        <ele>32</ele>
        <time>2021-10-20T07:30:57Z</time>
      </trkpt>
      <trkpt lat="32.20183" lon="34.81483">
        <ele>32</ele>
        <time>2021-10-20T07:30:58Z</time>
      </trkpt>
      <trkpt lat="32.20183" lon="34.81483">
        <ele>32</ele>
        <time>2021-10-20T07:30:59Z</time>
      </trkpt>
      <trkpt lat="32.201800000000006" lon="34.814730000000004">
        <ele>32</ele>
        <time>2021-10-20T07:31:00Z</time>
      </trkpt>
      <trkpt lat="32.201820000000005" lon="34.814440000000005">
        <ele>32</ele>
        <time>2021-10-20T07:31:01Z</time>
      </trkpt>
      <trkpt lat="32.20167" lon="34.8142">
        <ele>31</ele>
        <time>2021-10-20T07:31:02Z</time>
      </trkpt>
      <trkpt lat="32.201370000000004" lon="34.81389">
        <ele>28</ele>
        <time>2021-10-20T07:31:03Z</time>
      </trkpt>
      <trkpt lat="32.20123" lon="34.81383">
        <ele>28</ele>
        <time>2021-10-20T07:31:04Z</time>
      </trkpt>
      <trkpt lat="32.200450000000004" lon="34.813410000000005">
        <ele>26</ele>
        <time>2021-10-20T07:31:05Z</time>
      </trkpt>
      <trkpt lat="32.20009" lon="34.81317">
        <ele>26</ele>
        <time>2021-10-20T07:31:06Z</time>
      </trkpt>
      <trkpt lat="32.19923" lon="34.812670000000004">
        <ele>25</ele>
        <time>2021-10-20T07:31:07Z</time>
      </trkpt>
      <trkpt lat="32.19879" lon="34.81271">
        <ele>23</ele>
        <time>2021-10-20T07:31:08Z</time>
      </trkpt>
      <trkpt lat="32.19852" lon="34.81279">
        <ele>23</ele>
        <time>2021-10-20T07:31:09Z</time>
      </trkpt>
      <trkpt lat="32.19822" lon="34.81295">
        <ele>23</ele>
        <time>2021-10-20T07:31:10Z</time>
      </trkpt>
      <trkpt lat="32.198080000000004" lon="34.81315">
        <ele>23</ele>
        <time>2021-10-20T07:31:11Z</time>
      </trkpt>
      <trkpt lat="32.197770000000006" lon="34.813480000000006">
        <ele>23</ele>
        <time>2021-10-20T07:31:12Z</time>
      </trkpt>
      <trkpt lat="32.19758" lon="34.813520000000004">
        <ele>24</ele>
        <time>2021-10-20T07:31:13Z</time>
      </trkpt>
      <trkpt lat="32.197430000000004" lon="34.81335">
        <ele>23</ele>
        <time>2021-10-20T07:31:14Z</time>
      </trkpt>
      <trkpt lat="32.197340000000004" lon="34.81316">
        <ele>23</ele>
        <time>2021-10-20T07:31:15Z</time>
      </trkpt>
      <trkpt lat="32.1972" lon="34.813010000000006">
        <ele>26</ele>
        <time>2021-10-20T07:31:16Z</time>
      </trkpt>
      <trkpt lat="32.197050000000004" lon="34.81288">
        <ele>26</ele>
        <time>2021-10-20T07:31:17Z</time>
      </trkpt>
      <trkpt lat="32.196850000000005" lon="34.812760000000004">
        <ele>26</ele>
        <time>2021-10-20T07:31:18Z</time>
      </trkpt>
      <trkpt lat="32.196650000000005" lon="34.81266">
        <ele>26</ele>
        <time>2021-10-20T07:31:19Z</time>
      </trkpt>
      <trkpt lat="32.19643" lon="34.812670000000004">
        <ele>28</ele>
        <time>2021-10-20T07:31:20Z</time>
      </trkpt>
      <trkpt lat="32.19605" lon="34.81284">
        <ele>28</ele>
        <time>2021-10-20T07:31:21Z</time>
      </trkpt>
      <trkpt lat="32.195840000000004" lon="34.812780000000004">
        <ele>28</ele>
        <time>2021-10-20T07:31:22Z</time>
      </trkpt>
      <trkpt lat="32.19565" lon="34.812650000000005">
        <ele>23</ele>
        <time>2021-10-20T07:31:23Z</time>
      </trkpt>
      <trkpt lat="32.19545" lon="34.81257">
        <ele>23</ele>
        <time>2021-10-20T07:31:24Z</time>
      </trkpt>
      <trkpt lat="32.1953" lon="34.812400000000004">
        <ele>23</ele>
        <time>2021-10-20T07:31:25Z</time>
      </trkpt>
      <trkpt lat="32.19496" lon="34.81212">
        <ele>23</ele>
        <time>2021-10-20T07:31:26Z</time>
      </trkpt>
      <trkpt lat="32.1944" lon="34.811800000000005">
        <ele>21</ele>
        <time>2021-10-20T07:31:27Z</time>
      </trkpt>
      <trkpt lat="32.19422" lon="34.81168">
        <ele>21</ele>
        <time>2021-10-20T07:31:28Z</time>
      </trkpt>
      <trkpt lat="32.194050000000004" lon="34.81152">
        <ele>21</ele>
        <time>2021-10-20T07:31:29Z</time>
      </trkpt>
      <trkpt lat="32.1939" lon="34.811400000000006">
        <ele>23</ele>
        <time>2021-10-20T07:31:30Z</time>
      </trkpt>
      <trkpt lat="32.193490000000004" lon="34.81119">
        <ele>23</ele>
        <time>2021-10-20T07:31:31Z</time>
      </trkpt>
      <trkpt lat="32.192460000000004" lon="34.81051">
        <ele>22</ele>
        <time>2021-10-20T07:31:32Z</time>
      </trkpt>
      <trkpt lat="32.19225" lon="34.810410000000005">
        <ele>21</ele>
        <time>2021-10-20T07:31:33Z</time>
      </trkpt>
      <trkpt lat="32.19207" lon="34.81029">
        <ele>21</ele>
        <time>2021-10-20T07:31:34Z</time>
      </trkpt>
      <trkpt lat="32.19174" lon="34.810230000000004">
        <ele>21</ele>
        <time>2021-10-20T07:31:35Z</time>
      </trkpt>
      <trkpt lat="32.19158" lon="34.810030000000005">
        <ele>24</ele>
        <time>2021-10-20T07:31:36Z</time>
      </trkpt>
      <trkpt lat="32.19135" lon="34.80989">
        <ele>25</ele>
        <time>2021-10-20T07:31:37Z</time>
      </trkpt>
      <trkpt lat="32.191210000000005" lon="34.80977">
        <ele>25</ele>
        <time>2021-10-20T07:31:38Z</time>
      </trkpt>
      <trkpt lat="32.19102" lon="34.809740000000005">
        <ele>25</ele>
        <time>2021-10-20T07:31:39Z</time>
      </trkpt>
      <trkpt lat="32.19086" lon="34.80962">
        <ele>25</ele>
        <time>2021-10-20T07:31:40Z</time>
      </trkpt>
      <trkpt lat="32.190720000000006" lon="34.809470000000005">
        <ele>25</ele>
        <time>2021-10-20T07:31:41Z</time>
      </trkpt>
      <trkpt lat="32.19066" lon="34.80926">
        <ele>25</ele>
        <time>2021-10-20T07:31:42Z</time>
      </trkpt>
      <trkpt lat="32.1906" lon="34.809160000000006">
        <ele>25</ele>
        <time>2021-10-20T07:31:43Z</time>
      </trkpt>
      <trkpt lat="32.19017" lon="34.808870000000006">
        <ele>25</ele>
        <time>2021-10-20T07:31:44Z</time>
      </trkpt>
      <trkpt lat="32.190160000000006" lon="34.80876">
        <ele>25</ele>
        <time>2021-10-20T07:31:45Z</time>
      </trkpt>
      <trkpt lat="32.190200000000004" lon="34.808600000000006">
        <ele>25</ele>
        <time>2021-10-20T07:31:46Z</time>
      </trkpt>
      <trkpt lat="32.190540000000006" lon="34.808060000000005">
        <ele>27</ele>
        <time>2021-10-20T07:31:47Z</time>
      </trkpt>
      <trkpt lat="32.1906" lon="34.80781">
        <ele>27</ele>
        <time>2021-10-20T07:31:48Z</time>
      </trkpt>
      <trkpt lat="32.19062" lon="34.80762">
        <ele>32</ele>
        <time>2021-10-20T07:31:49Z</time>
      </trkpt>
      <extensions>
        <RoutingType xmlns="">Hike</RoutingType>
      </extensions>
    </trkseg>
    <trkseg>
      <trkpt lat="32.19062" lon="34.80762">
        <ele>32</ele>
        <time>2021-10-20T07:31:49Z</time>
      </trkpt>
      <trkpt lat="32.190630000000006" lon="34.80734">
        <ele>32</ele>
        <time>2021-10-20T07:31:50Z</time>
      </trkpt>
      <trkpt lat="32.19061" lon="34.80722">
        <ele>32</ele>
        <time>2021-10-20T07:31:51Z</time>
      </trkpt>
      <trkpt lat="32.19061" lon="34.80722">
        <ele>32</ele>
        <time>2021-10-20T07:31:52Z</time>
      </trkpt>
      <trkpt lat="32.1906" lon="34.80716">
        <ele>32</ele>
        <time>2021-10-20T07:31:53Z</time>
      </trkpt>
      <trkpt lat="32.19051" lon="34.80693">
        <ele>32</ele>
        <time>2021-10-20T07:31:54Z</time>
      </trkpt>
      <trkpt lat="32.190310000000004" lon="34.8068">
        <ele>32</ele>
        <time>2021-10-20T07:31:55Z</time>
      </trkpt>
      <trkpt lat="32.18997" lon="34.80662">
        <ele>32</ele>
        <time>2021-10-20T07:31:56Z</time>
      </trkpt>
      <trkpt lat="32.189370000000004" lon="34.80646">
        <ele>27</ele>
        <time>2021-10-20T07:31:57Z</time>
      </trkpt>
      <trkpt lat="32.189170000000004" lon="34.806360000000005">
        <ele>27</ele>
        <time>2021-10-20T07:31:58Z</time>
      </trkpt>
      <trkpt lat="32.18901" lon="34.806270000000005">
        <ele>27</ele>
        <time>2021-10-20T07:31:59Z</time>
      </trkpt>
      <trkpt lat="32.188680000000005" lon="34.80601">
        <ele>29</ele>
        <time>2021-10-20T07:32:00Z</time>
      </trkpt>
      <trkpt lat="32.188500000000005" lon="34.805960000000006">
        <ele>29</ele>
        <time>2021-10-20T07:32:01Z</time>
      </trkpt>
      <trkpt lat="32.188300000000005" lon="34.805980000000005">
        <ele>29</ele>
        <time>2021-10-20T07:32:02Z</time>
      </trkpt>
      <trkpt lat="32.187360000000005" lon="34.80626">
        <ele>26</ele>
        <time>2021-10-20T07:32:03Z</time>
      </trkpt>
      <trkpt lat="32.187360000000005" lon="34.80626">
        <ele>26</ele>
        <time>2021-10-20T07:32:04Z</time>
      </trkpt>
      <trkpt lat="32.187090000000005" lon="34.806340000000006">
        <ele>24</ele>
        <time>2021-10-20T07:32:05Z</time>
      </trkpt>
      <trkpt lat="32.187110000000004" lon="34.80622">
        <ele>24</ele>
        <time>2021-10-20T07:32:06Z</time>
      </trkpt>
      <trkpt lat="32.187160000000006" lon="34.8061">
        <ele>24</ele>
        <time>2021-10-20T07:32:07Z</time>
      </trkpt>
      <trkpt lat="32.187180000000005" lon="34.80543">
        <ele>28</ele>
        <time>2021-10-20T07:32:08Z</time>
      </trkpt>
      <trkpt lat="32.187160000000006" lon="34.805">
        <ele>24</ele>
        <time>2021-10-20T07:32:09Z</time>
      </trkpt>
      <trkpt lat="32.18726" lon="34.80481">
        <ele>24</ele>
        <time>2021-10-20T07:32:10Z</time>
      </trkpt>
      <trkpt lat="32.18739" lon="34.80465">
        <ele>19</ele>
        <time>2021-10-20T07:32:11Z</time>
      </trkpt>
      <trkpt lat="32.18746" lon="34.804460000000006">
        <ele>19</ele>
        <time>2021-10-20T07:32:12Z</time>
      </trkpt>
      <trkpt lat="32.18744" lon="34.804210000000005">
        <ele>9</ele>
        <time>2021-10-20T07:32:13Z</time>
      </trkpt>
      <trkpt lat="32.18652" lon="34.804030000000004">
        <ele>12</ele>
        <time>2021-10-20T07:32:14Z</time>
      </trkpt>
      <trkpt lat="32.185120000000005" lon="34.80368">
        <ele>23</ele>
        <time>2021-10-20T07:32:15Z</time>
      </trkpt>
      <trkpt lat="32.18394" lon="34.803290000000004">
        <ele>14</ele>
        <time>2021-10-20T07:32:16Z</time>
      </trkpt>
      <trkpt lat="32.18283" lon="34.80297">
        <ele>18</ele>
        <time>2021-10-20T07:32:17Z</time>
      </trkpt>
      <trkpt lat="32.181540000000005" lon="34.80268">
        <ele>19</ele>
        <time>2021-10-20T07:32:18Z</time>
      </trkpt>
      <trkpt lat="32.18085" lon="34.802400000000006">
        <ele>9</ele>
        <time>2021-10-20T07:32:19Z</time>
      </trkpt>
      <trkpt lat="32.180580000000006" lon="34.80237">
        <ele>7.5</ele>
        <time>2021-10-20T07:32:20Z</time>
      </trkpt>
      <trkpt lat="32.180580000000006" lon="34.80237">
        <ele>7.5</ele>
        <time>2021-10-20T07:32:21Z</time>
      </trkpt>
      <trkpt lat="32.180240000000005" lon="34.80234">
        <ele>6</ele>
        <time>2021-10-20T07:32:22Z</time>
      </trkpt>
      <trkpt lat="32.17925" lon="34.802">
        <ele>16</ele>
        <time>2021-10-20T07:32:23Z</time>
      </trkpt>
      <trkpt lat="32.17738" lon="34.80151">
        <ele>13</ele>
        <time>2021-10-20T07:32:24Z</time>
      </trkpt>
      <trkpt lat="32.17429" lon="34.800670000000004">
        <ele>8</ele>
        <time>2021-10-20T07:32:25Z</time>
      </trkpt>
      <trkpt lat="32.173950000000005" lon="34.80051">
        <ele>11</ele>
        <time>2021-10-20T07:32:26Z</time>
      </trkpt>
      <trkpt lat="32.171800000000005" lon="34.79965">
        <ele>16</ele>
        <time>2021-10-20T07:32:27Z</time>
      </trkpt>
      <trkpt lat="32.17007" lon="34.799330000000005">
        <ele>6</ele>
        <time>2021-10-20T07:32:28Z</time>
      </trkpt>
      <trkpt lat="32.16959" lon="34.799290000000006">
        <ele>7</ele>
        <time>2021-10-20T07:32:29Z</time>
      </trkpt>
      <trkpt lat="32.169320000000006" lon="34.79921">
        <ele>7</ele>
        <time>2021-10-20T07:32:30Z</time>
      </trkpt>
      <trkpt lat="32.169200000000004" lon="34.799150000000004">
        <ele>7</ele>
        <time>2021-10-20T07:32:31Z</time>
      </trkpt>
      <trkpt lat="32.16884" lon="34.79892">
        <ele>9</ele>
        <time>2021-10-20T07:32:32Z</time>
      </trkpt>
      <trkpt lat="32.16834" lon="34.798700000000004">
        <ele>9</ele>
        <time>2021-10-20T07:32:33Z</time>
      </trkpt>
      <trkpt lat="32.167170000000006" lon="34.798700000000004">
        <ele>15</ele>
        <time>2021-10-20T07:32:34Z</time>
      </trkpt>
      <trkpt lat="32.16655" lon="34.79851">
        <ele>11.5</ele>
        <time>2021-10-20T07:32:35Z</time>
      </trkpt>
      <trkpt lat="32.16655" lon="34.79851">
        <ele>11.5</ele>
        <time>2021-10-20T07:32:36Z</time>
      </trkpt>
      <trkpt lat="32.166410000000006" lon="34.798460000000006">
        <ele>8</ele>
        <time>2021-10-20T07:32:37Z</time>
      </trkpt>
      <trkpt lat="32.16601" lon="34.798230000000004">
        <ele>8</ele>
        <time>2021-10-20T07:32:38Z</time>
      </trkpt>
      <trkpt lat="32.165580000000006" lon="34.7982">
        <ele>5</ele>
        <time>2021-10-20T07:32:39Z</time>
      </trkpt>
      <trkpt lat="32.16514" lon="34.798280000000005">
        <ele>5</ele>
        <time>2021-10-20T07:32:40Z</time>
      </trkpt>
      <trkpt lat="32.16461" lon="34.798480000000005">
        <ele>7</ele>
        <time>2021-10-20T07:32:41Z</time>
      </trkpt>
      <trkpt lat="32.164590000000004" lon="34.797810000000005">
        <ele>7</ele>
        <time>2021-10-20T07:32:42Z</time>
      </trkpt>
      <trkpt lat="32.16451" lon="34.797560000000004">
        <ele>3</ele>
        <time>2021-10-20T07:32:43Z</time>
      </trkpt>
      <trkpt lat="32.164460000000005" lon="34.797230000000006">
        <ele>3</ele>
        <time>2021-10-20T07:32:44Z</time>
      </trkpt>
      <trkpt lat="32.16447" lon="34.797000000000004">
        <ele>3</ele>
        <time>2021-10-20T07:32:45Z</time>
      </trkpt>
      <trkpt lat="32.16474" lon="34.7954">
        <ele>1</ele>
        <time>2021-10-20T07:32:46Z</time>
      </trkpt>
      <trkpt lat="32.16474" lon="34.7954">
        <ele>1</ele>
        <time>2021-10-20T07:32:47Z</time>
      </trkpt>
      <trkpt lat="32.164750000000005" lon="34.79536">
        <ele>4</ele>
        <time>2021-10-20T07:32:48Z</time>
      </trkpt>
      <trkpt lat="32.16474" lon="34.79534">
        <ele>4</ele>
        <time>2021-10-20T07:32:49Z</time>
      </trkpt>
      <trkpt lat="32.164570000000005" lon="34.795300000000005">
        <ele>4</ele>
        <time>2021-10-20T07:32:50Z</time>
      </trkpt>
      <trkpt lat="32.16451" lon="34.79522">
        <ele>4</ele>
        <time>2021-10-20T07:32:51Z</time>
      </trkpt>
      <extensions>
        <RoutingType xmlns="">Hike</RoutingType>
      </extensions>
    </trkseg>
    <trkseg>
      <trkpt lat="32.16451" lon="34.79522">
        <ele>4</ele>
        <time>2021-10-20T07:32:51Z</time>
      </trkpt>
      <trkpt lat="32.16424" lon="34.79514">
        <ele>6</ele>
        <time>2021-10-20T07:32:52Z</time>
      </trkpt>
      <trkpt lat="32.16265" lon="34.79632">
        <ele>-2</ele>
        <time>2021-10-20T07:32:53Z</time>
      </trkpt>
      <trkpt lat="32.162310000000005" lon="34.79621">
        <ele>5</ele>
        <time>2021-10-20T07:32:54Z</time>
      </trkpt>
      <trkpt lat="32.16167" lon="34.79491">
        <ele>4</ele>
        <time>2021-10-20T07:32:55Z</time>
      </trkpt>
      <trkpt lat="32.161120000000004" lon="34.79477">
        <ele>3</ele>
        <time>2021-10-20T07:32:56Z</time>
      </trkpt>
      <trkpt lat="32.16113" lon="34.794740000000004">
        <ele>3</ele>
        <time>2021-10-20T07:32:57Z</time>
      </trkpt>
      <trkpt lat="32.161680000000004" lon="34.79489">
        <ele>4</ele>
        <time>2021-10-20T07:32:58Z</time>
      </trkpt>
      <trkpt lat="32.16178" lon="34.79509">
        <ele>4.5</ele>
        <time>2021-10-20T07:32:59Z</time>
      </trkpt>
      <trkpt lat="32.16178" lon="34.79509">
        <ele>4.5</ele>
        <time>2021-10-20T07:33:00Z</time>
      </trkpt>
      <trkpt lat="32.161680000000004" lon="34.79489">
        <ele>4</ele>
        <time>2021-10-20T07:33:01Z</time>
      </trkpt>
      <trkpt lat="32.16113" lon="34.794740000000004">
        <ele>3</ele>
        <time>2021-10-20T07:33:02Z</time>
      </trkpt>
      <trkpt lat="32.161120000000004" lon="34.79477">
        <ele>3</ele>
        <time>2021-10-20T07:33:03Z</time>
      </trkpt>
      <trkpt lat="32.16028" lon="34.794470000000004">
        <ele>2</ele>
        <time>2021-10-20T07:33:04Z</time>
      </trkpt>
      <trkpt lat="32.16021" lon="34.794470000000004">
        <ele>2</ele>
        <time>2021-10-20T07:33:05Z</time>
      </trkpt>
      <trkpt lat="32.16017" lon="34.7945">
        <ele>2</ele>
        <time>2021-10-20T07:33:06Z</time>
      </trkpt>
      <trkpt lat="32.160030000000006" lon="34.79506">
        <ele>2</ele>
        <time>2021-10-20T07:33:07Z</time>
      </trkpt>
      <trkpt lat="32.160090000000004" lon="34.79507">
        <ele>2</ele>
        <time>2021-10-20T07:33:08Z</time>
      </trkpt>
      <trkpt lat="32.1601" lon="34.79511">
        <ele>2</ele>
        <time>2021-10-20T07:33:09Z</time>
      </trkpt>
      <trkpt lat="32.16015" lon="34.795120000000004">
        <ele>2</ele>
        <time>2021-10-20T07:33:10Z</time>
      </trkpt>
      <trkpt lat="32.16004" lon="34.79558">
        <ele>5</ele>
        <time>2021-10-20T07:33:11Z</time>
      </trkpt>
      <trkpt lat="32.1599" lon="34.79553">
        <ele>8</ele>
        <time>2021-10-20T07:33:12Z</time>
      </trkpt>
      <trkpt lat="32.1599" lon="34.79553">
        <ele>8</ele>
        <time>2021-10-20T07:33:13Z</time>
      </trkpt>
      <trkpt lat="32.159040000000005" lon="34.795230000000004">
        <ele>11</ele>
        <time>2021-10-20T07:33:14Z</time>
      </trkpt>
      <trkpt lat="32.15863" lon="34.79509">
        <ele>8</ele>
        <time>2021-10-20T07:33:15Z</time>
      </trkpt>
      <trkpt lat="32.158530000000006" lon="34.79549">
        <ele>12</ele>
        <time>2021-10-20T07:33:16Z</time>
      </trkpt>
      <trkpt lat="32.15841" lon="34.79547">
        <ele>12</ele>
        <time>2021-10-20T07:33:17Z</time>
      </trkpt>
      <trkpt lat="32.15776" lon="34.79567">
        <ele>8</ele>
        <time>2021-10-20T07:33:18Z</time>
      </trkpt>
      <trkpt lat="32.15739" lon="34.795320000000004">
        <ele>8</ele>
        <time>2021-10-20T07:33:19Z</time>
      </trkpt>
      <trkpt lat="32.157090000000004" lon="34.79562">
        <ele>13</ele>
        <time>2021-10-20T07:33:20Z</time>
      </trkpt>
      <trkpt lat="32.15552" lon="34.795">
        <ele>9.5</ele>
        <time>2021-10-20T07:33:21Z</time>
      </trkpt>
      <trkpt lat="32.15552" lon="34.795">
        <ele>9.5</ele>
        <time>2021-10-20T07:33:22Z</time>
      </trkpt>
      <trkpt lat="32.153780000000005" lon="34.79431">
        <ele>9.5</ele>
        <time>2021-10-20T07:33:23Z</time>
      </trkpt>
      <trkpt lat="32.153780000000005" lon="34.79431">
        <ele>9.5</ele>
        <time>2021-10-20T07:33:24Z</time>
      </trkpt>
      <trkpt lat="32.1514" lon="34.793530000000004">
        <ele>8</ele>
        <time>2021-10-20T07:33:25Z</time>
      </trkpt>
      <trkpt lat="32.1514" lon="34.793530000000004">
        <ele>8</ele>
        <time>2021-10-20T07:33:26Z</time>
      </trkpt>
      <trkpt lat="32.15053" lon="34.79325">
        <ele>8</ele>
        <time>2021-10-20T07:33:27Z</time>
      </trkpt>
      <trkpt lat="32.15053" lon="34.79325">
        <ele>8</ele>
        <time>2021-10-20T07:33:28Z</time>
      </trkpt>
      <trkpt lat="32.14886" lon="34.7927">
        <ele>8</ele>
        <time>2021-10-20T07:33:29Z</time>
      </trkpt>
      <trkpt lat="32.14886" lon="34.7927">
        <ele>8</ele>
        <time>2021-10-20T07:33:30Z</time>
      </trkpt>
      <trkpt lat="32.147650000000006" lon="34.79225">
        <ele>8</ele>
        <time>2021-10-20T07:33:31Z</time>
      </trkpt>
      <trkpt lat="32.147650000000006" lon="34.79225">
        <ele>8</ele>
        <time>2021-10-20T07:33:32Z</time>
      </trkpt>
      <trkpt lat="32.14638" lon="34.79177">
        <ele>8</ele>
        <time>2021-10-20T07:33:33Z</time>
      </trkpt>
      <trkpt lat="32.14638" lon="34.79177">
        <ele>8</ele>
        <time>2021-10-20T07:33:34Z</time>
      </trkpt>
      <trkpt lat="32.14443" lon="34.791030000000006">
        <ele>8</ele>
        <time>2021-10-20T07:33:35Z</time>
      </trkpt>
      <trkpt lat="32.14443" lon="34.791030000000006">
        <ele>8</ele>
        <time>2021-10-20T07:33:36Z</time>
      </trkpt>
      <trkpt lat="32.144310000000004" lon="34.79099">
        <ele>8</ele>
        <time>2021-10-20T07:33:37Z</time>
      </trkpt>
      <trkpt lat="32.14424095717936" lon="34.791271090507514">
        <ele>8</ele>
        <time>2021-10-20T07:33:38Z</time>
      </trkpt>
      <trkpt lat="32.14390029802091" lon="34.79109942913056">
        <ele>12</ele>
        <time>2021-10-20T07:33:39Z</time>
      </trkpt>
      <trkpt lat="32.14390029802091" lon="34.79109942913056">
        <ele>12</ele>
        <time>2021-10-20T07:33:40Z</time>
      </trkpt>
      <trkpt lat="32.14365502263874" lon="34.79218840599061">
        <ele>14.5</ele>
        <time>2021-10-20T07:33:41Z</time>
      </trkpt>
      <trkpt lat="32.14365502263874" lon="34.79218840599061">
        <ele>14.5</ele>
        <time>2021-10-20T07:33:42Z</time>
      </trkpt>
      <trkpt lat="32.14340066228628" lon="34.79216158390046">
        <ele>17</ele>
        <time>2021-10-20T07:33:43Z</time>
      </trkpt>
      <trkpt lat="32.14340066228628" lon="34.79216158390046">
        <ele>17</ele>
        <time>2021-10-20T07:33:44Z</time>
      </trkpt>
      <trkpt lat="32.14336432503514" lon="34.792258143424995">
        <ele>15</ele>
        <time>2021-10-20T07:33:45Z</time>
      </trkpt>
      <trkpt lat="32.14336432503514" lon="34.792258143424995">
        <ele>15</ele>
        <time>2021-10-20T07:33:46Z</time>
      </trkpt>
      <trkpt lat="32.14292373471296" lon="34.79221522808076">
        <ele>15</ele>
        <time>2021-10-20T07:33:47Z</time>
      </trkpt>
      <trkpt lat="32.14292373471296" lon="34.79221522808076">
        <ele>15</ele>
        <time>2021-10-20T07:33:48Z</time>
      </trkpt>
      <trkpt lat="32.14278746923384" lon="34.79407668113709">
        <ele>15</ele>
        <time>2021-10-20T07:33:49Z</time>
      </trkpt>
      <trkpt lat="32.14278746923384" lon="34.79407668113709">
        <ele>15</ele>
        <time>2021-10-20T07:33:50Z</time>
      </trkpt>
      <trkpt lat="32.14171767459041" lon="34.79337266001253">
        <ele>12</ele>
        <time>2021-10-20T07:33:51Z</time>
      </trkpt>
      <trkpt lat="32.14171767459041" lon="34.79337266001253">
        <ele>12</ele>
        <time>2021-10-20T07:33:52Z</time>
      </trkpt>
      <trkpt lat="32.14134509943524" lon="34.79374439521643">
        <ele>10</ele>
        <time>2021-10-20T07:33:53Z</time>
      </trkpt>
      <extensions>
        <RoutingType xmlns="">Hike</RoutingType>
      </extensions>
    </trkseg>
  </trk>
</gpx>
