<?xml version="1.0" encoding="UTF-8" standalone="yes"?>
<gpx xmlns="http://www.topografix.com/GPX/1/1" xmlns:xsi="http://www.w3.org/2001/XMLSchema-instance" version="1.1" creator="IsraelHikingMap" xsi:schemaLocation="http://www.topografix.com/GPX/1/1 http://www.topografix.com/GPX/1/1/gpx.xsd">
  <metadata>
    <bounds maxlat="32.12717" maxlon="34.94997" minlat="32.03466" minlon="34.899100000000004"></bounds>
  </metadata>
  <trk>
    <name>21 - אבו רבאח לגבעת כוח</name>
    <desc>🏞️ קושי: בינוני | שפלה
🥾 נחל הירקון, כפר הבטיסטים, גן לאומי תל אפק, יער קולה, גבעת כוח.
⛺ לילה: גבעת כוח – להמשיך על השביל עוד 1 ק&quot;מ דרומה ויש פינה בטבע להקים בה אוהל
🛏️ מתקני לינה: שטחים פתוחים ליד בית העלמין גבעת כ"ח — במתחם שירותים וברזייה. אפשר להמשיך עוד ק"מ דרומה לפינה בטבע עם שולחן להקמת אוהל.
🛒 קניות בקרבת המסלול:
• כפר סירקין — א׳-ה׳: 06:00-14:00; 16:00-19:00; בשלישי סגור אחה&quot;צ | ו׳: 06:00-14:00 | שבת: סגור | יש שער חשמלי בכניסה לכפר סירקין. חכו עד שמישהו יוצא או נכנס ברכב ותיכנסו.
• אלעד | עיר חרדית. מספר סופרמרקטים בטווח ק&quot;מ מהשביל</desc>
    <trkseg>
      <trkpt lat="32.124" lon="34.8994">
        <ele>18.44477845780014</ele>
        <time>2026-07-13T11:59:56Z</time>
      </trkpt>
      <trkpt lat="32.124" lon="34.8994">
        <ele>18.44477845780014</ele>
        <time>2026-07-13T11:59:56Z</time>
      </trkpt>
      <extensions>
        <RoutingType xmlns="">Hike</RoutingType>
      </extensions>
    </trkseg>
    <trkseg>
      <trkpt lat="32.124" lon="34.8994">
        <ele>18.44477845780014</ele>
        <time>2026-07-13T11:59:56Z</time>
      </trkpt>
      <trkpt lat="32.124" lon="34.8994">
        <ele>17</ele>
        <time>2026-07-13T11:59:57Z</time>
      </trkpt>
      <trkpt lat="32.124" lon="34.899460000000005">
        <ele>17</ele>
        <time>2026-07-13T11:59:58Z</time>
      </trkpt>
      <trkpt lat="32.12397" lon="34.899530000000006">
        <ele>17</ele>
        <time>2026-07-13T11:59:59Z</time>
      </trkpt>
      <trkpt lat="32.12391" lon="34.899550000000005">
        <ele>17</ele>
        <time>2026-07-13T12:00:00Z</time>
      </trkpt>
      <trkpt lat="32.12371" lon="34.89956">
        <ele>17</ele>
        <time>2026-07-13T12:00:01Z</time>
      </trkpt>
      <trkpt lat="32.12359" lon="34.8996">
        <ele>17</ele>
        <time>2026-07-13T12:00:02Z</time>
      </trkpt>
      <trkpt lat="32.12352" lon="34.8996">
        <ele>17</ele>
        <time>2026-07-13T12:00:03Z</time>
      </trkpt>
      <trkpt lat="32.12352" lon="34.8996">
        <ele>18.370813228450295</ele>
        <time>2026-07-13T12:00:04Z</time>
      </trkpt>
      <trkpt lat="32.12344" lon="34.899530000000006">
        <ele>17</ele>
        <time>2026-07-13T12:00:05Z</time>
      </trkpt>
      <trkpt lat="32.123340000000006" lon="34.899390000000004">
        <ele>17</ele>
        <time>2026-07-13T12:00:06Z</time>
      </trkpt>
      <trkpt lat="32.12323" lon="34.899280000000005">
        <ele>17</ele>
        <time>2026-07-13T12:00:07Z</time>
      </trkpt>
      <trkpt lat="32.12297" lon="34.899150000000006">
        <ele>17.5</ele>
        <time>2026-07-13T12:00:08Z</time>
      </trkpt>
      <trkpt lat="32.12297" lon="34.899150000000006">
        <ele>17.5</ele>
        <time>2026-07-13T12:00:09Z</time>
      </trkpt>
      <trkpt lat="32.122870000000006" lon="34.899100000000004">
        <ele>18</ele>
        <time>2026-07-13T12:00:10Z</time>
      </trkpt>
      <trkpt lat="32.12279" lon="34.899100000000004">
        <ele>18</ele>
        <time>2026-07-13T12:00:11Z</time>
      </trkpt>
      <trkpt lat="32.12279" lon="34.899100000000004">
        <ele>17.607508887637394</ele>
        <time>2026-07-13T12:00:12Z</time>
      </trkpt>
      <trkpt lat="32.12274" lon="34.89912">
        <ele>18</ele>
        <time>2026-07-13T12:00:13Z</time>
      </trkpt>
      <trkpt lat="32.122690000000006" lon="34.899170000000005">
        <ele>18</ele>
        <time>2026-07-13T12:00:14Z</time>
      </trkpt>
      <trkpt lat="32.12243" lon="34.899730000000005">
        <ele>18</ele>
        <time>2026-07-13T12:00:15Z</time>
      </trkpt>
      <trkpt lat="32.122400000000006" lon="34.90003">
        <ele>18</ele>
        <time>2026-07-13T12:00:16Z</time>
      </trkpt>
      <trkpt lat="32.122420000000005" lon="34.900580000000005">
        <ele>21</ele>
        <time>2026-07-13T12:00:17Z</time>
      </trkpt>
      <trkpt lat="32.122460000000004" lon="34.90073">
        <ele>21</ele>
        <time>2026-07-13T12:00:18Z</time>
      </trkpt>
      <trkpt lat="32.122550000000004" lon="34.90084">
        <ele>21</ele>
        <time>2026-07-13T12:00:19Z</time>
      </trkpt>
      <trkpt lat="32.122550000000004" lon="34.90084">
        <ele>18.221184499096125</ele>
        <time>2026-07-13T12:00:20Z</time>
      </trkpt>
      <trkpt lat="32.12261" lon="34.90088">
        <ele>21</ele>
        <time>2026-07-13T12:00:21Z</time>
      </trkpt>
      <trkpt lat="32.12274" lon="34.900920000000006">
        <ele>22</ele>
        <time>2026-07-13T12:00:22Z</time>
      </trkpt>
      <trkpt lat="32.12283" lon="34.90097">
        <ele>22</ele>
        <time>2026-07-13T12:00:23Z</time>
      </trkpt>
      <trkpt lat="32.122910000000005" lon="34.90099">
        <ele>22</ele>
        <time>2026-07-13T12:00:24Z</time>
      </trkpt>
      <trkpt lat="32.122910000000005" lon="34.90099">
        <ele>22</ele>
        <time>2026-07-13T12:00:25Z</time>
      </trkpt>
      <trkpt lat="32.123160000000006" lon="34.901030000000006">
        <ele>22</ele>
        <time>2026-07-13T12:00:26Z</time>
      </trkpt>
      <trkpt lat="32.12332" lon="34.90109">
        <ele>19</ele>
        <time>2026-07-13T12:00:27Z</time>
      </trkpt>
      <trkpt lat="32.12332" lon="34.90109">
        <ele>19.88355146371376</ele>
        <time>2026-07-13T12:00:28Z</time>
      </trkpt>
      <trkpt lat="32.12341" lon="34.90115">
        <ele>19</ele>
        <time>2026-07-13T12:00:29Z</time>
      </trkpt>
      <trkpt lat="32.12356250169161" lon="34.90091793042082">
        <ele>18</ele>
        <time>2026-07-13T12:00:30Z</time>
      </trkpt>
      <trkpt lat="32.12420499693326" lon="34.90244280339995">
        <ele>18</ele>
        <time>2026-07-13T12:00:31Z</time>
      </trkpt>
      <trkpt lat="32.124210000000005" lon="34.902440000000006">
        <ele>18</ele>
        <time>2026-07-13T12:00:32Z</time>
      </trkpt>
      <trkpt lat="32.1242" lon="34.90256">
        <ele>18</ele>
        <time>2026-07-13T12:00:33Z</time>
      </trkpt>
      <trkpt lat="32.12422" lon="34.902750000000005">
        <ele>20</ele>
        <time>2026-07-13T12:00:34Z</time>
      </trkpt>
      <trkpt lat="32.12449" lon="34.902680000000004">
        <ele>20</ele>
        <time>2026-07-13T12:00:35Z</time>
      </trkpt>
      <trkpt lat="32.12449" lon="34.902680000000004">
        <ele>18.373997804883402</ele>
        <time>2026-07-13T12:00:36Z</time>
      </trkpt>
      <trkpt lat="32.1246" lon="34.9027">
        <ele>20</ele>
        <time>2026-07-13T12:00:37Z</time>
      </trkpt>
      <trkpt lat="32.12472" lon="34.90278">
        <ele>20</ele>
        <time>2026-07-13T12:00:38Z</time>
      </trkpt>
      <trkpt lat="32.12491" lon="34.90298">
        <ele>18</ele>
        <time>2026-07-13T12:00:39Z</time>
      </trkpt>
      <trkpt lat="32.124950000000005" lon="34.90305">
        <ele>18</ele>
        <time>2026-07-13T12:00:40Z</time>
      </trkpt>
      <trkpt lat="32.124950000000005" lon="34.90305">
        <ele>18</ele>
        <time>2026-07-13T12:00:41Z</time>
      </trkpt>
      <trkpt lat="32.124970000000005" lon="34.903090000000006">
        <ele>18</ele>
        <time>2026-07-13T12:00:42Z</time>
      </trkpt>
      <trkpt lat="32.12496" lon="34.90326">
        <ele>18</ele>
        <time>2026-07-13T12:00:43Z</time>
      </trkpt>
      <trkpt lat="32.12496" lon="34.90326">
        <ele>17.535470279881217</ele>
        <time>2026-07-13T12:00:44Z</time>
      </trkpt>
      <trkpt lat="32.12493" lon="34.903380000000006">
        <ele>18</ele>
        <time>2026-07-13T12:00:45Z</time>
      </trkpt>
      <trkpt lat="32.12472" lon="34.903740000000006">
        <ele>21</ele>
        <time>2026-07-13T12:00:46Z</time>
      </trkpt>
      <trkpt lat="32.124680000000005" lon="34.90408">
        <ele>21</ele>
        <time>2026-07-13T12:00:47Z</time>
      </trkpt>
      <trkpt lat="32.124810000000004" lon="34.904560000000004">
        <ele>22</ele>
        <time>2026-07-13T12:00:48Z</time>
      </trkpt>
      <trkpt lat="32.124840000000006" lon="34.90464">
        <ele>22</ele>
        <time>2026-07-13T12:00:49Z</time>
      </trkpt>
      <trkpt lat="32.12498" lon="34.90486">
        <ele>20</ele>
        <time>2026-07-13T12:00:50Z</time>
      </trkpt>
      <trkpt lat="32.125" lon="34.90491">
        <ele>20</ele>
        <time>2026-07-13T12:00:51Z</time>
      </trkpt>
      <trkpt lat="32.125" lon="34.90491">
        <ele>19.360078363320046</ele>
        <time>2026-07-13T12:00:52Z</time>
      </trkpt>
      <trkpt lat="32.12498" lon="34.905">
        <ele>20</ele>
        <time>2026-07-13T12:00:53Z</time>
      </trkpt>
      <trkpt lat="32.12489" lon="34.90509">
        <ele>20</ele>
        <time>2026-07-13T12:00:54Z</time>
      </trkpt>
      <extensions>
        <RoutingType xmlns="">Hike</RoutingType>
      </extensions>
    </trkseg>
    <trkseg>
      <trkpt lat="32.12489" lon="34.90509">
        <ele>20</ele>
        <time>2026-07-13T12:00:54Z</time>
      </trkpt>
      <trkpt lat="32.12483" lon="34.905190000000005">
        <ele>19</ele>
        <time>2026-07-13T12:00:55Z</time>
      </trkpt>
      <trkpt lat="32.1246" lon="34.905750000000005">
        <ele>19</ele>
        <time>2026-07-13T12:00:56Z</time>
      </trkpt>
      <trkpt lat="32.124500000000005" lon="34.90589">
        <ele>19</ele>
        <time>2026-07-13T12:00:57Z</time>
      </trkpt>
      <trkpt lat="32.124340000000004" lon="34.906090000000006">
        <ele>18</ele>
        <time>2026-07-13T12:00:58Z</time>
      </trkpt>
      <trkpt lat="32.12407" lon="34.90634">
        <ele>18</ele>
        <time>2026-07-13T12:00:59Z</time>
      </trkpt>
      <trkpt lat="32.12407" lon="34.90634">
        <ele>18.202087163167565</ele>
        <time>2026-07-13T12:01:00Z</time>
      </trkpt>
      <trkpt lat="32.12402" lon="34.90637">
        <ele>18</ele>
        <time>2026-07-13T12:01:01Z</time>
      </trkpt>
      <trkpt lat="32.12402" lon="34.90637">
        <ele>18</ele>
        <time>2026-07-13T12:01:02Z</time>
      </trkpt>
      <trkpt lat="32.123920000000005" lon="34.906420000000004">
        <ele>18</ele>
        <time>2026-07-13T12:01:03Z</time>
      </trkpt>
      <trkpt lat="32.12366" lon="34.9065">
        <ele>18</ele>
        <time>2026-07-13T12:01:04Z</time>
      </trkpt>
      <trkpt lat="32.12355" lon="34.906560000000006">
        <ele>18</ele>
        <time>2026-07-13T12:01:05Z</time>
      </trkpt>
      <trkpt lat="32.12312" lon="34.906870000000005">
        <ele>20</ele>
        <time>2026-07-13T12:01:06Z</time>
      </trkpt>
      <trkpt lat="32.1231" lon="34.90693">
        <ele>20</ele>
        <time>2026-07-13T12:01:07Z</time>
      </trkpt>
      <trkpt lat="32.1231" lon="34.90693">
        <ele>19.953187353817967</ele>
        <time>2026-07-13T12:01:08Z</time>
      </trkpt>
      <trkpt lat="32.123110000000004" lon="34.906980000000004">
        <ele>20</ele>
        <time>2026-07-13T12:01:09Z</time>
      </trkpt>
      <trkpt lat="32.123110000000004" lon="34.906980000000004">
        <ele>20</ele>
        <time>2026-07-13T12:01:10Z</time>
      </trkpt>
      <trkpt lat="32.12328" lon="34.907160000000005">
        <ele>18</ele>
        <time>2026-07-13T12:01:11Z</time>
      </trkpt>
      <trkpt lat="32.123360000000005" lon="34.9072">
        <ele>18</ele>
        <time>2026-07-13T12:01:12Z</time>
      </trkpt>
      <trkpt lat="32.12351" lon="34.907210000000006">
        <ele>18</ele>
        <time>2026-07-13T12:01:13Z</time>
      </trkpt>
      <trkpt lat="32.12359" lon="34.907180000000004">
        <ele>18</ele>
        <time>2026-07-13T12:01:14Z</time>
      </trkpt>
      <trkpt lat="32.123780000000004" lon="34.907090000000004">
        <ele>18</ele>
        <time>2026-07-13T12:01:15Z</time>
      </trkpt>
      <trkpt lat="32.123780000000004" lon="34.907090000000004">
        <ele>17.768899555550888</ele>
        <time>2026-07-13T12:01:16Z</time>
      </trkpt>
      <trkpt lat="32.123900000000006" lon="34.90706">
        <ele>18</ele>
        <time>2026-07-13T12:01:17Z</time>
      </trkpt>
      <trkpt lat="32.124030000000005" lon="34.907070000000004">
        <ele>18</ele>
        <time>2026-07-13T12:01:18Z</time>
      </trkpt>
      <trkpt lat="32.12415" lon="34.90715">
        <ele>18</ele>
        <time>2026-07-13T12:01:19Z</time>
      </trkpt>
      <trkpt lat="32.1242" lon="34.907210000000006">
        <ele>18</ele>
        <time>2026-07-13T12:01:20Z</time>
      </trkpt>
      <trkpt lat="32.12431" lon="34.9074">
        <ele>18</ele>
        <time>2026-07-13T12:01:21Z</time>
      </trkpt>
      <trkpt lat="32.12436" lon="34.90753">
        <ele>18</ele>
        <time>2026-07-13T12:01:22Z</time>
      </trkpt>
      <trkpt lat="32.12436" lon="34.90769">
        <ele>17</ele>
        <time>2026-07-13T12:01:23Z</time>
      </trkpt>
      <trkpt lat="32.12436" lon="34.90769">
        <ele>18.39698242655791</ele>
        <time>2026-07-13T12:01:24Z</time>
      </trkpt>
      <trkpt lat="32.12433" lon="34.907770000000006">
        <ele>17</ele>
        <time>2026-07-13T12:01:25Z</time>
      </trkpt>
      <trkpt lat="32.12429" lon="34.90782">
        <ele>17</ele>
        <time>2026-07-13T12:01:26Z</time>
      </trkpt>
      <trkpt lat="32.1242" lon="34.907880000000006">
        <ele>17</ele>
        <time>2026-07-13T12:01:27Z</time>
      </trkpt>
      <trkpt lat="32.12406" lon="34.90793">
        <ele>17</ele>
        <time>2026-07-13T12:01:28Z</time>
      </trkpt>
      <trkpt lat="32.124" lon="34.907970000000006">
        <ele>18</ele>
        <time>2026-07-13T12:01:29Z</time>
      </trkpt>
      <trkpt lat="32.12397" lon="34.908030000000004">
        <ele>18</ele>
        <time>2026-07-13T12:01:30Z</time>
      </trkpt>
      <trkpt lat="32.12395" lon="34.90809">
        <ele>18</ele>
        <time>2026-07-13T12:01:31Z</time>
      </trkpt>
      <trkpt lat="32.12395" lon="34.90809">
        <ele>20.46241094812285</ele>
        <time>2026-07-13T12:01:32Z</time>
      </trkpt>
      <trkpt lat="32.123960000000004" lon="34.908190000000005">
        <ele>18</ele>
        <time>2026-07-13T12:01:33Z</time>
      </trkpt>
      <trkpt lat="32.124010000000006" lon="34.908350000000006">
        <ele>18</ele>
        <time>2026-07-13T12:01:34Z</time>
      </trkpt>
      <trkpt lat="32.12409" lon="34.90843">
        <ele>17</ele>
        <time>2026-07-13T12:01:35Z</time>
      </trkpt>
      <trkpt lat="32.124210000000005" lon="34.90845">
        <ele>17</ele>
        <time>2026-07-13T12:01:36Z</time>
      </trkpt>
      <trkpt lat="32.124300000000005" lon="34.90842">
        <ele>17</ele>
        <time>2026-07-13T12:01:37Z</time>
      </trkpt>
      <trkpt lat="32.124370000000006" lon="34.908350000000006">
        <ele>17</ele>
        <time>2026-07-13T12:01:38Z</time>
      </trkpt>
      <trkpt lat="32.124370000000006" lon="34.908350000000006">
        <ele>17</ele>
        <time>2026-07-13T12:01:39Z</time>
      </trkpt>
      <trkpt lat="32.124370000000006" lon="34.908350000000006">
        <ele>18.903888321678068</ele>
        <time>2026-07-13T12:01:40Z</time>
      </trkpt>
      <trkpt lat="32.12453" lon="34.90818">
        <ele>17</ele>
        <time>2026-07-13T12:01:41Z</time>
      </trkpt>
      <trkpt lat="32.12458" lon="34.90814">
        <ele>17</ele>
        <time>2026-07-13T12:01:42Z</time>
      </trkpt>
      <trkpt lat="32.124950000000005" lon="34.908060000000006">
        <ele>20</ele>
        <time>2026-07-13T12:01:43Z</time>
      </trkpt>
      <trkpt lat="32.125240000000005" lon="34.90789">
        <ele>20</ele>
        <time>2026-07-13T12:01:44Z</time>
      </trkpt>
      <trkpt lat="32.125240000000005" lon="34.90789">
        <ele>20</ele>
        <time>2026-07-13T12:01:45Z</time>
      </trkpt>
      <trkpt lat="32.12539" lon="34.907810000000005">
        <ele>20</ele>
        <time>2026-07-13T12:01:46Z</time>
      </trkpt>
      <trkpt lat="32.125690000000006" lon="34.907680000000006">
        <ele>20</ele>
        <time>2026-07-13T12:01:47Z</time>
      </trkpt>
      <trkpt lat="32.125690000000006" lon="34.907680000000006">
        <ele>21.018940285081044</ele>
        <time>2026-07-13T12:01:48Z</time>
      </trkpt>
      <trkpt lat="32.12597" lon="34.907520000000005">
        <ele>20</ele>
        <time>2026-07-13T12:01:49Z</time>
      </trkpt>
      <trkpt lat="32.1261" lon="34.90748">
        <ele>20</ele>
        <time>2026-07-13T12:01:50Z</time>
      </trkpt>
      <trkpt lat="32.12621" lon="34.90749">
        <ele>20</ele>
        <time>2026-07-13T12:01:51Z</time>
      </trkpt>
      <trkpt lat="32.126310000000004" lon="34.907540000000004">
        <ele>20</ele>
        <time>2026-07-13T12:01:52Z</time>
      </trkpt>
      <extensions>
        <RoutingType xmlns="">Hike</RoutingType>
      </extensions>
    </trkseg>
    <trkseg>
      <trkpt lat="32.126310000000004" lon="34.907540000000004">
        <ele>20</ele>
        <time>2026-07-13T12:01:52Z</time>
      </trkpt>
      <trkpt lat="32.12643" lon="34.90766">
        <ele>20</ele>
        <time>2026-07-13T12:01:53Z</time>
      </trkpt>
      <trkpt lat="32.126560000000005" lon="34.90794">
        <ele>23</ele>
        <time>2026-07-13T12:01:54Z</time>
      </trkpt>
      <trkpt lat="32.126650000000005" lon="34.908080000000005">
        <ele>23</ele>
        <time>2026-07-13T12:01:55Z</time>
      </trkpt>
      <trkpt lat="32.126650000000005" lon="34.908080000000005">
        <ele>21.92160140621319</ele>
        <time>2026-07-13T12:01:56Z</time>
      </trkpt>
      <trkpt lat="32.126650000000005" lon="34.908080000000005">
        <ele>23</ele>
        <time>2026-07-13T12:01:57Z</time>
      </trkpt>
      <trkpt lat="32.12702" lon="34.90867">
        <ele>23</ele>
        <time>2026-07-13T12:01:58Z</time>
      </trkpt>
      <trkpt lat="32.12706" lon="34.9088">
        <ele>23</ele>
        <time>2026-07-13T12:01:59Z</time>
      </trkpt>
      <trkpt lat="32.12707" lon="34.908930000000005">
        <ele>23</ele>
        <time>2026-07-13T12:02:00Z</time>
      </trkpt>
      <trkpt lat="32.12704" lon="34.90908">
        <ele>23</ele>
        <time>2026-07-13T12:02:01Z</time>
      </trkpt>
      <trkpt lat="32.12695" lon="34.90927">
        <ele>21</ele>
        <time>2026-07-13T12:02:02Z</time>
      </trkpt>
      <trkpt lat="32.126850000000005" lon="34.909400000000005">
        <ele>21</ele>
        <time>2026-07-13T12:02:03Z</time>
      </trkpt>
      <trkpt lat="32.126850000000005" lon="34.909400000000005">
        <ele>20.00547555554658</ele>
        <time>2026-07-13T12:02:04Z</time>
      </trkpt>
      <trkpt lat="32.126780000000004" lon="34.90945">
        <ele>21</ele>
        <time>2026-07-13T12:02:05Z</time>
      </trkpt>
      <trkpt lat="32.12652" lon="34.909560000000006">
        <ele>24</ele>
        <time>2026-07-13T12:02:06Z</time>
      </trkpt>
      <trkpt lat="32.12619" lon="34.909600000000005">
        <ele>24</ele>
        <time>2026-07-13T12:02:07Z</time>
      </trkpt>
      <trkpt lat="32.12614" lon="34.90964">
        <ele>24</ele>
        <time>2026-07-13T12:02:08Z</time>
      </trkpt>
      <trkpt lat="32.126070000000006" lon="34.90974">
        <ele>24</ele>
        <time>2026-07-13T12:02:09Z</time>
      </trkpt>
      <trkpt lat="32.12604" lon="34.90982">
        <ele>24</ele>
        <time>2026-07-13T12:02:10Z</time>
      </trkpt>
      <trkpt lat="32.12606" lon="34.90988">
        <ele>24</ele>
        <time>2026-07-13T12:02:11Z</time>
      </trkpt>
      <trkpt lat="32.12606" lon="34.90988">
        <ele>21.69321460127085</ele>
        <time>2026-07-13T12:02:12Z</time>
      </trkpt>
      <trkpt lat="32.12608" lon="34.90991">
        <ele>24</ele>
        <time>2026-07-13T12:02:13Z</time>
      </trkpt>
      <trkpt lat="32.12639" lon="34.910140000000006">
        <ele>22</ele>
        <time>2026-07-13T12:02:14Z</time>
      </trkpt>
      <trkpt lat="32.12639" lon="34.910140000000006">
        <ele>22</ele>
        <time>2026-07-13T12:02:15Z</time>
      </trkpt>
      <trkpt lat="32.126450000000006" lon="34.9102">
        <ele>22</ele>
        <time>2026-07-13T12:02:16Z</time>
      </trkpt>
      <trkpt lat="32.126780000000004" lon="34.91067">
        <ele>24</ele>
        <time>2026-07-13T12:02:17Z</time>
      </trkpt>
      <trkpt lat="32.12702" lon="34.91105">
        <ele>23</ele>
        <time>2026-07-13T12:02:18Z</time>
      </trkpt>
      <trkpt lat="32.12717" lon="34.91143">
        <ele>23</ele>
        <time>2026-07-13T12:02:19Z</time>
      </trkpt>
      <trkpt lat="32.12717" lon="34.91143">
        <ele>24.46939675359124</ele>
        <time>2026-07-13T12:02:20Z</time>
      </trkpt>
      <trkpt lat="32.12716" lon="34.91174">
        <ele>21</ele>
        <time>2026-07-13T12:02:21Z</time>
      </trkpt>
      <trkpt lat="32.127010000000006" lon="34.911930000000005">
        <ele>21</ele>
        <time>2026-07-13T12:02:22Z</time>
      </trkpt>
      <trkpt lat="32.12684" lon="34.91201">
        <ele>21</ele>
        <time>2026-07-13T12:02:23Z</time>
      </trkpt>
      <trkpt lat="32.12668" lon="34.91207">
        <ele>21</ele>
        <time>2026-07-13T12:02:24Z</time>
      </trkpt>
      <trkpt lat="32.12643" lon="34.91203">
        <ele>19</ele>
        <time>2026-07-13T12:02:25Z</time>
      </trkpt>
      <trkpt lat="32.12585" lon="34.911770000000004">
        <ele>19</ele>
        <time>2026-07-13T12:02:26Z</time>
      </trkpt>
      <trkpt lat="32.12576" lon="34.91194">
        <ele>19</ele>
        <time>2026-07-13T12:02:27Z</time>
      </trkpt>
      <trkpt lat="32.12576" lon="34.91194">
        <ele>19.98784562246874</ele>
        <time>2026-07-13T12:02:28Z</time>
      </trkpt>
      <trkpt lat="32.125840000000004" lon="34.91205">
        <ele>19</ele>
        <time>2026-07-13T12:02:29Z</time>
      </trkpt>
      <trkpt lat="32.125800000000005" lon="34.912150000000004">
        <ele>19</ele>
        <time>2026-07-13T12:02:30Z</time>
      </trkpt>
      <trkpt lat="32.125800000000005" lon="34.912150000000004">
        <ele>19</ele>
        <time>2026-07-13T12:02:31Z</time>
      </trkpt>
      <trkpt lat="32.125730000000004" lon="34.91245">
        <ele>19</ele>
        <time>2026-07-13T12:02:32Z</time>
      </trkpt>
      <trkpt lat="32.12561" lon="34.912850000000006">
        <ele>21</ele>
        <time>2026-07-13T12:02:33Z</time>
      </trkpt>
      <trkpt lat="32.125420000000005" lon="34.91297">
        <ele>21</ele>
        <time>2026-07-13T12:02:34Z</time>
      </trkpt>
      <trkpt lat="32.12536" lon="34.91306">
        <ele>21</ele>
        <time>2026-07-13T12:02:35Z</time>
      </trkpt>
      <trkpt lat="32.12536" lon="34.91306">
        <ele>23.030927306636016</ele>
        <time>2026-07-13T12:02:36Z</time>
      </trkpt>
      <trkpt lat="32.12518" lon="34.91321">
        <ele>21</ele>
        <time>2026-07-13T12:02:37Z</time>
      </trkpt>
      <trkpt lat="32.12532" lon="34.91362">
        <ele>21</ele>
        <time>2026-07-13T12:02:38Z</time>
      </trkpt>
      <trkpt lat="32.12525" lon="34.91389">
        <ele>21</ele>
        <time>2026-07-13T12:02:39Z</time>
      </trkpt>
      <trkpt lat="32.12507" lon="34.91423">
        <ele>21</ele>
        <time>2026-07-13T12:02:40Z</time>
      </trkpt>
      <trkpt lat="32.12494" lon="34.914410000000004">
        <ele>17</ele>
        <time>2026-07-13T12:02:41Z</time>
      </trkpt>
      <trkpt lat="32.12483" lon="34.914370000000005">
        <ele>18</ele>
        <time>2026-07-13T12:02:42Z</time>
      </trkpt>
      <trkpt lat="32.12474" lon="34.914410000000004">
        <ele>18</ele>
        <time>2026-07-13T12:02:43Z</time>
      </trkpt>
      <trkpt lat="32.12474" lon="34.914410000000004">
        <ele>18.511625650911284</ele>
        <time>2026-07-13T12:02:44Z</time>
      </trkpt>
      <trkpt lat="32.12474" lon="34.914410000000004">
        <ele>18</ele>
        <time>2026-07-13T12:02:45Z</time>
      </trkpt>
      <trkpt lat="32.12483" lon="34.914370000000005">
        <ele>18</ele>
        <time>2026-07-13T12:02:46Z</time>
      </trkpt>
      <trkpt lat="32.124810000000004" lon="34.913940000000004">
        <ele>18</ele>
        <time>2026-07-13T12:02:47Z</time>
      </trkpt>
      <trkpt lat="32.12494" lon="34.913560000000004">
        <ele>21</ele>
        <time>2026-07-13T12:02:48Z</time>
      </trkpt>
      <trkpt lat="32.12478" lon="34.91335">
        <ele>18</ele>
        <time>2026-07-13T12:02:49Z</time>
      </trkpt>
      <trkpt lat="32.12447" lon="34.913270000000004">
        <ele>18</ele>
        <time>2026-07-13T12:02:50Z</time>
      </trkpt>
      <extensions>
        <RoutingType xmlns="">Hike</RoutingType>
      </extensions>
    </trkseg>
    <trkseg>
      <trkpt lat="32.12447" lon="34.913270000000004">
        <ele>18</ele>
        <time>2026-07-13T12:02:50Z</time>
      </trkpt>
      <trkpt lat="32.12424" lon="34.913180000000004">
        <ele>18</ele>
        <time>2026-07-13T12:02:51Z</time>
      </trkpt>
      <trkpt lat="32.12424" lon="34.913180000000004">
        <ele>19.881381973591562</ele>
        <time>2026-07-13T12:02:52Z</time>
      </trkpt>
      <trkpt lat="32.12417" lon="34.91333">
        <ele>18</ele>
        <time>2026-07-13T12:02:53Z</time>
      </trkpt>
      <trkpt lat="32.12407" lon="34.91339">
        <ele>18</ele>
        <time>2026-07-13T12:02:54Z</time>
      </trkpt>
      <trkpt lat="32.12391" lon="34.91357">
        <ele>17</ele>
        <time>2026-07-13T12:02:55Z</time>
      </trkpt>
      <trkpt lat="32.12382" lon="34.91364">
        <ele>17</ele>
        <time>2026-07-13T12:02:56Z</time>
      </trkpt>
      <trkpt lat="32.12342" lon="34.913830000000004">
        <ele>17</ele>
        <time>2026-07-13T12:02:57Z</time>
      </trkpt>
      <trkpt lat="32.123070000000006" lon="34.91393">
        <ele>21</ele>
        <time>2026-07-13T12:02:58Z</time>
      </trkpt>
      <trkpt lat="32.122910000000005" lon="34.91402">
        <ele>21</ele>
        <time>2026-07-13T12:02:59Z</time>
      </trkpt>
      <trkpt lat="32.122910000000005" lon="34.91402">
        <ele>20.04601244442165</ele>
        <time>2026-07-13T12:03:00Z</time>
      </trkpt>
      <trkpt lat="32.12277" lon="34.914060000000006">
        <ele>21</ele>
        <time>2026-07-13T12:03:01Z</time>
      </trkpt>
      <trkpt lat="32.12277" lon="34.914060000000006">
        <ele>21</ele>
        <time>2026-07-13T12:03:02Z</time>
      </trkpt>
      <trkpt lat="32.12281" lon="34.91386">
        <ele>21</ele>
        <time>2026-07-13T12:03:03Z</time>
      </trkpt>
      <trkpt lat="32.12256" lon="34.91369">
        <ele>21</ele>
        <time>2026-07-13T12:03:04Z</time>
      </trkpt>
      <trkpt lat="32.122420000000005" lon="34.91335">
        <ele>19</ele>
        <time>2026-07-13T12:03:05Z</time>
      </trkpt>
      <trkpt lat="32.12232" lon="34.912980000000005">
        <ele>19</ele>
        <time>2026-07-13T12:03:06Z</time>
      </trkpt>
      <trkpt lat="32.12228" lon="34.912910000000004">
        <ele>19</ele>
        <time>2026-07-13T12:03:07Z</time>
      </trkpt>
      <trkpt lat="32.12228" lon="34.912910000000004">
        <ele>20.272066306465092</ele>
        <time>2026-07-13T12:03:08Z</time>
      </trkpt>
      <trkpt lat="32.12219" lon="34.91284">
        <ele>19</ele>
        <time>2026-07-13T12:03:09Z</time>
      </trkpt>
      <trkpt lat="32.12198" lon="34.912800000000004">
        <ele>19</ele>
        <time>2026-07-13T12:03:10Z</time>
      </trkpt>
      <trkpt lat="32.12173" lon="34.91281">
        <ele>19</ele>
        <time>2026-07-13T12:03:11Z</time>
      </trkpt>
      <trkpt lat="32.12162" lon="34.912800000000004">
        <ele>19</ele>
        <time>2026-07-13T12:03:12Z</time>
      </trkpt>
      <trkpt lat="32.121590000000005" lon="34.912780000000005">
        <ele>19</ele>
        <time>2026-07-13T12:03:13Z</time>
      </trkpt>
      <trkpt lat="32.12156" lon="34.91275">
        <ele>19</ele>
        <time>2026-07-13T12:03:14Z</time>
      </trkpt>
      <trkpt lat="32.12151" lon="34.91259">
        <ele>22</ele>
        <time>2026-07-13T12:03:15Z</time>
      </trkpt>
      <trkpt lat="32.12151" lon="34.91259">
        <ele>20.508653227504183</ele>
        <time>2026-07-13T12:03:16Z</time>
      </trkpt>
      <trkpt lat="32.12126" lon="34.91243">
        <ele>21</ele>
        <time>2026-07-13T12:03:17Z</time>
      </trkpt>
      <trkpt lat="32.121320000000004" lon="34.91225">
        <ele>21</ele>
        <time>2026-07-13T12:03:18Z</time>
      </trkpt>
      <trkpt lat="32.12144" lon="34.91179">
        <ele>21</ele>
        <time>2026-07-13T12:03:19Z</time>
      </trkpt>
      <trkpt lat="32.121460000000006" lon="34.911660000000005">
        <ele>21</ele>
        <time>2026-07-13T12:03:20Z</time>
      </trkpt>
      <trkpt lat="32.12144" lon="34.911530000000006">
        <ele>21</ele>
        <time>2026-07-13T12:03:21Z</time>
      </trkpt>
      <trkpt lat="32.1214" lon="34.911410000000004">
        <ele>21</ele>
        <time>2026-07-13T12:03:22Z</time>
      </trkpt>
      <trkpt lat="32.12133" lon="34.91131">
        <ele>21</ele>
        <time>2026-07-13T12:03:23Z</time>
      </trkpt>
      <trkpt lat="32.12133" lon="34.91131">
        <ele>19</ele>
        <time>2026-07-13T12:03:24Z</time>
      </trkpt>
      <trkpt lat="32.121230000000004" lon="34.91125">
        <ele>21</ele>
        <time>2026-07-13T12:03:25Z</time>
      </trkpt>
      <trkpt lat="32.1212" lon="34.911260000000006">
        <ele>21</ele>
        <time>2026-07-13T12:03:26Z</time>
      </trkpt>
      <trkpt lat="32.1212" lon="34.911260000000006">
        <ele>21</ele>
        <time>2026-07-13T12:03:27Z</time>
      </trkpt>
      <trkpt lat="32.12109" lon="34.911260000000006">
        <ele>21</ele>
        <time>2026-07-13T12:03:28Z</time>
      </trkpt>
      <trkpt lat="32.12104" lon="34.91132">
        <ele>21</ele>
        <time>2026-07-13T12:03:29Z</time>
      </trkpt>
      <trkpt lat="32.121050000000004" lon="34.91163">
        <ele>21</ele>
        <time>2026-07-13T12:03:30Z</time>
      </trkpt>
      <trkpt lat="32.121050000000004" lon="34.91189">
        <ele>21</ele>
        <time>2026-07-13T12:03:31Z</time>
      </trkpt>
      <trkpt lat="32.121050000000004" lon="34.91189">
        <ele>19.05124548103685</ele>
        <time>2026-07-13T12:03:32Z</time>
      </trkpt>
      <trkpt lat="32.120960000000004" lon="34.91235">
        <ele>21</ele>
        <time>2026-07-13T12:03:33Z</time>
      </trkpt>
      <trkpt lat="32.12073" lon="34.91234">
        <ele>21</ele>
        <time>2026-07-13T12:03:34Z</time>
      </trkpt>
      <trkpt lat="32.12044" lon="34.912380000000006">
        <ele>21</ele>
        <time>2026-07-13T12:03:35Z</time>
      </trkpt>
      <trkpt lat="32.12041" lon="34.91248">
        <ele>21</ele>
        <time>2026-07-13T12:03:36Z</time>
      </trkpt>
      <trkpt lat="32.12041" lon="34.91248">
        <ele>21</ele>
        <time>2026-07-13T12:03:37Z</time>
      </trkpt>
      <trkpt lat="32.12044" lon="34.912380000000006">
        <ele>21</ele>
        <time>2026-07-13T12:03:38Z</time>
      </trkpt>
      <trkpt lat="32.12035" lon="34.912290000000006">
        <ele>21</ele>
        <time>2026-07-13T12:03:39Z</time>
      </trkpt>
      <trkpt lat="32.12035" lon="34.912290000000006">
        <ele>20.579354325662834</ele>
        <time>2026-07-13T12:03:40Z</time>
      </trkpt>
      <trkpt lat="32.119800000000005" lon="34.912240000000004">
        <ele>20</ele>
        <time>2026-07-13T12:03:41Z</time>
      </trkpt>
      <trkpt lat="32.119710000000005" lon="34.9123">
        <ele>20</ele>
        <time>2026-07-13T12:03:42Z</time>
      </trkpt>
      <trkpt lat="32.11965" lon="34.91241">
        <ele>20</ele>
        <time>2026-07-13T12:03:43Z</time>
      </trkpt>
      <trkpt lat="32.11943" lon="34.913230000000006">
        <ele>19</ele>
        <time>2026-07-13T12:03:44Z</time>
      </trkpt>
      <trkpt lat="32.11934" lon="34.91342">
        <ele>20</ele>
        <time>2026-07-13T12:03:45Z</time>
      </trkpt>
      <trkpt lat="32.11927" lon="34.91348">
        <ele>20</ele>
        <time>2026-07-13T12:03:46Z</time>
      </trkpt>
      <trkpt lat="32.11919" lon="34.91351">
        <ele>20</ele>
        <time>2026-07-13T12:03:47Z</time>
      </trkpt>
      <trkpt lat="32.11919" lon="34.91351">
        <ele>23.016724812057863</ele>
        <time>2026-07-13T12:03:48Z</time>
      </trkpt>
      <extensions>
        <RoutingType xmlns="">Hike</RoutingType>
      </extensions>
    </trkseg>
    <trkseg>
      <trkpt lat="32.11919" lon="34.91351">
        <ele>23.016724812057863</ele>
        <time>2026-07-13T12:03:48Z</time>
      </trkpt>
      <trkpt lat="32.11911" lon="34.913520000000005">
        <ele>20</ele>
        <time>2026-07-13T12:03:49Z</time>
      </trkpt>
      <trkpt lat="32.118970000000004" lon="34.91349">
        <ele>24</ele>
        <time>2026-07-13T12:03:50Z</time>
      </trkpt>
      <trkpt lat="32.11885" lon="34.91342">
        <ele>24</ele>
        <time>2026-07-13T12:03:51Z</time>
      </trkpt>
      <trkpt lat="32.118790000000004" lon="34.91342">
        <ele>24</ele>
        <time>2026-07-13T12:03:52Z</time>
      </trkpt>
      <trkpt lat="32.11874" lon="34.91349">
        <ele>24</ele>
        <time>2026-07-13T12:03:53Z</time>
      </trkpt>
      <trkpt lat="32.118750000000006" lon="34.9136">
        <ele>24</ele>
        <time>2026-07-13T12:03:54Z</time>
      </trkpt>
      <trkpt lat="32.11847" lon="34.91375">
        <ele>24</ele>
        <time>2026-07-13T12:03:55Z</time>
      </trkpt>
      <trkpt lat="32.11847" lon="34.91375">
        <ele>21.857431401553566</ele>
        <time>2026-07-13T12:03:56Z</time>
      </trkpt>
      <trkpt lat="32.11853" lon="34.91384">
        <ele>24</ele>
        <time>2026-07-13T12:03:57Z</time>
      </trkpt>
      <trkpt lat="32.11883" lon="34.91422">
        <ele>24</ele>
        <time>2026-07-13T12:03:58Z</time>
      </trkpt>
      <trkpt lat="32.118860000000005" lon="34.91434">
        <ele>24</ele>
        <time>2026-07-13T12:03:59Z</time>
      </trkpt>
      <trkpt lat="32.118840000000006" lon="34.91447">
        <ele>24</ele>
        <time>2026-07-13T12:04:00Z</time>
      </trkpt>
      <trkpt lat="32.118770000000005" lon="34.914570000000005">
        <ele>24</ele>
        <time>2026-07-13T12:04:01Z</time>
      </trkpt>
      <trkpt lat="32.11871" lon="34.91461">
        <ele>24</ele>
        <time>2026-07-13T12:04:02Z</time>
      </trkpt>
      <trkpt lat="32.118610000000004" lon="34.91462">
        <ele>24</ele>
        <time>2026-07-13T12:04:03Z</time>
      </trkpt>
      <trkpt lat="32.118610000000004" lon="34.91462">
        <ele>23.553575224051546</ele>
        <time>2026-07-13T12:04:04Z</time>
      </trkpt>
      <trkpt lat="32.11836" lon="34.914590000000004">
        <ele>24</ele>
        <time>2026-07-13T12:04:05Z</time>
      </trkpt>
      <trkpt lat="32.11798" lon="34.914190000000005">
        <ele>24</ele>
        <time>2026-07-13T12:04:06Z</time>
      </trkpt>
      <trkpt lat="32.11788" lon="34.91413">
        <ele>24</ele>
        <time>2026-07-13T12:04:07Z</time>
      </trkpt>
      <trkpt lat="32.11778" lon="34.91411">
        <ele>24</ele>
        <time>2026-07-13T12:04:08Z</time>
      </trkpt>
      <trkpt lat="32.11771" lon="34.914120000000004">
        <ele>24</ele>
        <time>2026-07-13T12:04:09Z</time>
      </trkpt>
      <trkpt lat="32.117650000000005" lon="34.914170000000006">
        <ele>24</ele>
        <time>2026-07-13T12:04:10Z</time>
      </trkpt>
      <trkpt lat="32.1176" lon="34.91424">
        <ele>27</ele>
        <time>2026-07-13T12:04:11Z</time>
      </trkpt>
      <trkpt lat="32.1176" lon="34.91424">
        <ele>23.496745526651182</ele>
        <time>2026-07-13T12:04:12Z</time>
      </trkpt>
      <trkpt lat="32.11751" lon="34.91447">
        <ele>27</ele>
        <time>2026-07-13T12:04:13Z</time>
      </trkpt>
      <trkpt lat="32.117430000000006" lon="34.91456">
        <ele>27</ele>
        <time>2026-07-13T12:04:14Z</time>
      </trkpt>
      <trkpt lat="32.11737" lon="34.91454">
        <ele>24</ele>
        <time>2026-07-13T12:04:15Z</time>
      </trkpt>
      <trkpt lat="32.11731" lon="34.914480000000005">
        <ele>24</ele>
        <time>2026-07-13T12:04:16Z</time>
      </trkpt>
      <trkpt lat="32.117200000000004" lon="34.91427">
        <ele>24</ele>
        <time>2026-07-13T12:04:17Z</time>
      </trkpt>
      <trkpt lat="32.117200000000004" lon="34.91427">
        <ele>24</ele>
        <time>2026-07-13T12:04:18Z</time>
      </trkpt>
      <trkpt lat="32.1171" lon="34.91414">
        <ele>24</ele>
        <time>2026-07-13T12:04:19Z</time>
      </trkpt>
      <trkpt lat="32.1171" lon="34.91414">
        <ele>21.60702577768825</ele>
        <time>2026-07-13T12:04:20Z</time>
      </trkpt>
      <trkpt lat="32.11706" lon="34.91407">
        <ele>24</ele>
        <time>2026-07-13T12:04:21Z</time>
      </trkpt>
      <trkpt lat="32.11703" lon="34.913900000000005">
        <ele>24</ele>
        <time>2026-07-13T12:04:22Z</time>
      </trkpt>
      <trkpt lat="32.117050000000006" lon="34.913650000000004">
        <ele>24</ele>
        <time>2026-07-13T12:04:23Z</time>
      </trkpt>
      <trkpt lat="32.11695" lon="34.913230000000006">
        <ele>21</ele>
        <time>2026-07-13T12:04:24Z</time>
      </trkpt>
      <trkpt lat="32.11692" lon="34.913160000000005">
        <ele>21</ele>
        <time>2026-07-13T12:04:25Z</time>
      </trkpt>
      <trkpt lat="32.116780000000006" lon="34.912910000000004">
        <ele>21</ele>
        <time>2026-07-13T12:04:26Z</time>
      </trkpt>
      <trkpt lat="32.116710000000005" lon="34.91281">
        <ele>21</ele>
        <time>2026-07-13T12:04:27Z</time>
      </trkpt>
      <trkpt lat="32.116710000000005" lon="34.91281">
        <ele>21.63451822572067</ele>
        <time>2026-07-13T12:04:28Z</time>
      </trkpt>
      <trkpt lat="32.11668" lon="34.912800000000004">
        <ele>21</ele>
        <time>2026-07-13T12:04:29Z</time>
      </trkpt>
      <trkpt lat="32.11657" lon="34.91282">
        <ele>21</ele>
        <time>2026-07-13T12:04:30Z</time>
      </trkpt>
      <trkpt lat="32.116440000000004" lon="34.9129">
        <ele>22</ele>
        <time>2026-07-13T12:04:31Z</time>
      </trkpt>
      <trkpt lat="32.116310000000006" lon="34.91304">
        <ele>22</ele>
        <time>2026-07-13T12:04:32Z</time>
      </trkpt>
      <trkpt lat="32.1162" lon="34.91321">
        <ele>22</ele>
        <time>2026-07-13T12:04:33Z</time>
      </trkpt>
      <trkpt lat="32.1161" lon="34.913270000000004">
        <ele>22</ele>
        <time>2026-07-13T12:04:34Z</time>
      </trkpt>
      <trkpt lat="32.11589" lon="34.913250000000005">
        <ele>22</ele>
        <time>2026-07-13T12:04:35Z</time>
      </trkpt>
      <trkpt lat="32.11589" lon="34.913250000000005">
        <ele>22.675955412053085</ele>
        <time>2026-07-13T12:04:36Z</time>
      </trkpt>
      <trkpt lat="32.11571" lon="34.91329">
        <ele>26</ele>
        <time>2026-07-13T12:04:37Z</time>
      </trkpt>
      <trkpt lat="32.11553" lon="34.91328">
        <ele>26</ele>
        <time>2026-07-13T12:04:38Z</time>
      </trkpt>
      <trkpt lat="32.115460000000006" lon="34.91319">
        <ele>26</ele>
        <time>2026-07-13T12:04:39Z</time>
      </trkpt>
      <trkpt lat="32.11543" lon="34.913070000000005">
        <ele>26</ele>
        <time>2026-07-13T12:04:40Z</time>
      </trkpt>
      <trkpt lat="32.11529" lon="34.911970000000004">
        <ele>24</ele>
        <time>2026-07-13T12:04:41Z</time>
      </trkpt>
      <trkpt lat="32.11527" lon="34.91158">
        <ele>22</ele>
        <time>2026-07-13T12:04:42Z</time>
      </trkpt>
      <trkpt lat="32.11525" lon="34.91152">
        <ele>22</ele>
        <time>2026-07-13T12:04:43Z</time>
      </trkpt>
      <trkpt lat="32.11525" lon="34.91152">
        <ele>23.101752327487183</ele>
        <time>2026-07-13T12:04:44Z</time>
      </trkpt>
      <trkpt lat="32.11525" lon="34.91152">
        <ele>22</ele>
        <time>2026-07-13T12:04:45Z</time>
      </trkpt>
      <trkpt lat="32.11522" lon="34.91142">
        <ele>22</ele>
        <time>2026-07-13T12:04:46Z</time>
      </trkpt>
      <extensions>
        <RoutingType xmlns="">Hike</RoutingType>
      </extensions>
    </trkseg>
    <trkseg>
      <trkpt lat="32.11522" lon="34.91142">
        <ele>22</ele>
        <time>2026-07-13T12:04:46Z</time>
      </trkpt>
      <trkpt lat="32.11479" lon="34.91149">
        <ele>22</ele>
        <time>2026-07-13T12:04:47Z</time>
      </trkpt>
      <trkpt lat="32.11357" lon="34.91165">
        <ele>22</ele>
        <time>2026-07-13T12:04:48Z</time>
      </trkpt>
      <trkpt lat="32.112950000000005" lon="34.911640000000006">
        <ele>24</ele>
        <time>2026-07-13T12:04:49Z</time>
      </trkpt>
      <trkpt lat="32.112460000000006" lon="34.911570000000005">
        <ele>24</ele>
        <time>2026-07-13T12:04:50Z</time>
      </trkpt>
      <trkpt lat="32.11218" lon="34.911570000000005">
        <ele>21</ele>
        <time>2026-07-13T12:04:51Z</time>
      </trkpt>
      <trkpt lat="32.112170000000006" lon="34.911570000000005">
        <ele>21</ele>
        <time>2026-07-13T12:04:52Z</time>
      </trkpt>
      <trkpt lat="32.112190000000005" lon="34.91163">
        <ele>21</ele>
        <time>2026-07-13T12:04:53Z</time>
      </trkpt>
      <trkpt lat="32.11216" lon="34.9119">
        <ele>24</ele>
        <time>2026-07-13T12:04:54Z</time>
      </trkpt>
      <trkpt lat="32.11193" lon="34.912420000000004">
        <ele>24</ele>
        <time>2026-07-13T12:04:55Z</time>
      </trkpt>
      <trkpt lat="32.11191" lon="34.912780000000005">
        <ele>26</ele>
        <time>2026-07-13T12:04:56Z</time>
      </trkpt>
      <trkpt lat="32.11224" lon="34.913140000000006">
        <ele>26</ele>
        <time>2026-07-13T12:04:57Z</time>
      </trkpt>
      <trkpt lat="32.11222" lon="34.91321">
        <ele>27</ele>
        <time>2026-07-13T12:04:58Z</time>
      </trkpt>
      <trkpt lat="32.11222" lon="34.91321">
        <ele>27</ele>
        <time>2026-07-13T12:04:59Z</time>
      </trkpt>
      <trkpt lat="32.11209" lon="34.913650000000004">
        <ele>28</ele>
        <time>2026-07-13T12:05:00Z</time>
      </trkpt>
      <trkpt lat="32.11189" lon="34.913720000000005">
        <ele>28</ele>
        <time>2026-07-13T12:05:01Z</time>
      </trkpt>
      <trkpt lat="32.112190000000005" lon="34.914030000000004">
        <ele>28</ele>
        <time>2026-07-13T12:05:02Z</time>
      </trkpt>
      <trkpt lat="32.11247" lon="34.9142">
        <ele>22</ele>
        <time>2026-07-13T12:05:03Z</time>
      </trkpt>
      <trkpt lat="32.112570000000005" lon="34.914390000000004">
        <ele>28</ele>
        <time>2026-07-13T12:05:04Z</time>
      </trkpt>
      <trkpt lat="32.112640000000006" lon="34.914570000000005">
        <ele>28</ele>
        <time>2026-07-13T12:05:05Z</time>
      </trkpt>
      <trkpt lat="32.112640000000006" lon="34.914570000000005">
        <ele>28</ele>
        <time>2026-07-13T12:05:06Z</time>
      </trkpt>
      <trkpt lat="32.11267" lon="34.91465">
        <ele>28</ele>
        <time>2026-07-13T12:05:07Z</time>
      </trkpt>
      <trkpt lat="32.113020000000006" lon="34.91489">
        <ele>28</ele>
        <time>2026-07-13T12:05:08Z</time>
      </trkpt>
      <trkpt lat="32.112970000000004" lon="34.915090000000006">
        <ele>32</ele>
        <time>2026-07-13T12:05:09Z</time>
      </trkpt>
      <trkpt lat="32.11336" lon="34.915220000000005">
        <ele>31</ele>
        <time>2026-07-13T12:05:10Z</time>
      </trkpt>
      <trkpt lat="32.11332" lon="34.91539">
        <ele>31</ele>
        <time>2026-07-13T12:05:11Z</time>
      </trkpt>
      <trkpt lat="32.113330000000005" lon="34.91555">
        <ele>31</ele>
        <time>2026-07-13T12:05:12Z</time>
      </trkpt>
      <trkpt lat="32.113170000000004" lon="34.9162">
        <ele>32</ele>
        <time>2026-07-13T12:05:13Z</time>
      </trkpt>
      <trkpt lat="32.11307" lon="34.91725">
        <ele>31</ele>
        <time>2026-07-13T12:05:14Z</time>
      </trkpt>
      <trkpt lat="32.11283" lon="34.917570000000005">
        <ele>23</ele>
        <time>2026-07-13T12:05:15Z</time>
      </trkpt>
      <trkpt lat="32.112570000000005" lon="34.91765">
        <ele>23</ele>
        <time>2026-07-13T12:05:16Z</time>
      </trkpt>
      <trkpt lat="32.112320000000004" lon="34.91761">
        <ele>25</ele>
        <time>2026-07-13T12:05:17Z</time>
      </trkpt>
      <trkpt lat="32.111940000000004" lon="34.91745">
        <ele>34</ele>
        <time>2026-07-13T12:05:18Z</time>
      </trkpt>
      <trkpt lat="32.111700000000006" lon="34.917530000000006">
        <ele>34</ele>
        <time>2026-07-13T12:05:19Z</time>
      </trkpt>
      <trkpt lat="32.111630000000005" lon="34.917750000000005">
        <ele>25</ele>
        <time>2026-07-13T12:05:20Z</time>
      </trkpt>
      <trkpt lat="32.111430000000006" lon="34.91821">
        <ele>27</ele>
        <time>2026-07-13T12:05:21Z</time>
      </trkpt>
      <trkpt lat="32.11133" lon="34.91855">
        <ele>20</ele>
        <time>2026-07-13T12:05:22Z</time>
      </trkpt>
      <trkpt lat="32.111270000000005" lon="34.918670000000006">
        <ele>20</ele>
        <time>2026-07-13T12:05:23Z</time>
      </trkpt>
      <trkpt lat="32.111180000000004" lon="34.91874">
        <ele>20</ele>
        <time>2026-07-13T12:05:24Z</time>
      </trkpt>
      <trkpt lat="32.11088" lon="34.918820000000004">
        <ele>20</ele>
        <time>2026-07-13T12:05:25Z</time>
      </trkpt>
      <trkpt lat="32.11084" lon="34.91875">
        <ele>20</ele>
        <time>2026-07-13T12:05:26Z</time>
      </trkpt>
      <trkpt lat="32.11081" lon="34.918780000000005">
        <ele>22.502019469393417</ele>
        <time>2026-07-13T12:05:27Z</time>
      </trkpt>
      <trkpt lat="32.11083" lon="34.919320000000006">
        <ele>19</ele>
        <time>2026-07-13T12:05:28Z</time>
      </trkpt>
      <trkpt lat="32.110800000000005" lon="34.919630000000005">
        <ele>19</ele>
        <time>2026-07-13T12:05:29Z</time>
      </trkpt>
      <trkpt lat="32.11081" lon="34.92025">
        <ele>22</ele>
        <time>2026-07-13T12:05:30Z</time>
      </trkpt>
      <trkpt lat="32.11076" lon="34.92085">
        <ele>22</ele>
        <time>2026-07-13T12:05:31Z</time>
      </trkpt>
      <trkpt lat="32.1107" lon="34.92103">
        <ele>17</ele>
        <time>2026-07-13T12:05:32Z</time>
      </trkpt>
      <trkpt lat="32.110620000000004" lon="34.921170000000004">
        <ele>17</ele>
        <time>2026-07-13T12:05:33Z</time>
      </trkpt>
      <trkpt lat="32.110490000000006" lon="34.92163">
        <ele>17</ele>
        <time>2026-07-13T12:05:34Z</time>
      </trkpt>
      <trkpt lat="32.110490000000006" lon="34.92163">
        <ele>20.381740101766376</ele>
        <time>2026-07-13T12:05:35Z</time>
      </trkpt>
      <trkpt lat="32.110310000000005" lon="34.92219">
        <ele>18</ele>
        <time>2026-07-13T12:05:36Z</time>
      </trkpt>
      <trkpt lat="32.1103" lon="34.922320000000006">
        <ele>18</ele>
        <time>2026-07-13T12:05:37Z</time>
      </trkpt>
      <trkpt lat="32.110330000000005" lon="34.922540000000005">
        <ele>18</ele>
        <time>2026-07-13T12:05:38Z</time>
      </trkpt>
      <trkpt lat="32.110330000000005" lon="34.922670000000004">
        <ele>21</ele>
        <time>2026-07-13T12:05:39Z</time>
      </trkpt>
      <trkpt lat="32.1103" lon="34.92284">
        <ele>21</ele>
        <time>2026-07-13T12:05:40Z</time>
      </trkpt>
      <trkpt lat="32.110240000000005" lon="34.923080000000006">
        <ele>21</ele>
        <time>2026-07-13T12:05:41Z</time>
      </trkpt>
      <trkpt lat="32.11016" lon="34.923280000000005">
        <ele>21</ele>
        <time>2026-07-13T12:05:42Z</time>
      </trkpt>
      <trkpt lat="32.11016" lon="34.923280000000005">
        <ele>20.541258090292104</ele>
        <time>2026-07-13T12:05:43Z</time>
      </trkpt>
      <trkpt lat="32.11007" lon="34.923460000000006">
        <ele>24</ele>
        <time>2026-07-13T12:05:44Z</time>
      </trkpt>
      <extensions>
        <RoutingType xmlns="">Hike</RoutingType>
      </extensions>
    </trkseg>
    <trkseg>
      <trkpt lat="32.11007" lon="34.923460000000006">
        <ele>24</ele>
        <time>2026-07-13T12:05:44Z</time>
      </trkpt>
      <trkpt lat="32.109860000000005" lon="34.923770000000005">
        <ele>22</ele>
        <time>2026-07-13T12:05:45Z</time>
      </trkpt>
      <trkpt lat="32.10962" lon="34.92396">
        <ele>22</ele>
        <time>2026-07-13T12:05:46Z</time>
      </trkpt>
      <trkpt lat="32.10951" lon="34.924080000000004">
        <ele>22.5</ele>
        <time>2026-07-13T12:05:47Z</time>
      </trkpt>
      <trkpt lat="32.10951" lon="34.924080000000004">
        <ele>22.5</ele>
        <time>2026-07-13T12:05:48Z</time>
      </trkpt>
      <trkpt lat="32.10935" lon="34.924240000000005">
        <ele>23</ele>
        <time>2026-07-13T12:05:49Z</time>
      </trkpt>
      <trkpt lat="32.109320000000004" lon="34.9245">
        <ele>23</ele>
        <time>2026-07-13T12:05:50Z</time>
      </trkpt>
      <trkpt lat="32.10933" lon="34.9245">
        <ele>24</ele>
        <time>2026-07-13T12:05:51Z</time>
      </trkpt>
      <trkpt lat="32.10933" lon="34.924290000000006">
        <ele>23</ele>
        <time>2026-07-13T12:05:52Z</time>
      </trkpt>
      <trkpt lat="32.10858" lon="34.924440000000004">
        <ele>23</ele>
        <time>2026-07-13T12:05:53Z</time>
      </trkpt>
      <trkpt lat="32.107870000000005" lon="34.924620000000004">
        <ele>23</ele>
        <time>2026-07-13T12:05:54Z</time>
      </trkpt>
      <trkpt lat="32.10746" lon="34.924620000000004">
        <ele>23</ele>
        <time>2026-07-13T12:05:55Z</time>
      </trkpt>
      <trkpt lat="32.10728" lon="34.9247">
        <ele>22</ele>
        <time>2026-07-13T12:05:56Z</time>
      </trkpt>
      <trkpt lat="32.10728" lon="34.9247">
        <ele>22</ele>
        <time>2026-07-13T12:05:57Z</time>
      </trkpt>
      <trkpt lat="32.106950000000005" lon="34.92483">
        <ele>21</ele>
        <time>2026-07-13T12:05:58Z</time>
      </trkpt>
      <trkpt lat="32.10678" lon="34.92483">
        <ele>21</ele>
        <time>2026-07-13T12:05:59Z</time>
      </trkpt>
      <trkpt lat="32.10643" lon="34.92492">
        <ele>21</ele>
        <time>2026-07-13T12:06:00Z</time>
      </trkpt>
      <trkpt lat="32.1062" lon="34.92526">
        <ele>22</ele>
        <time>2026-07-13T12:06:01Z</time>
      </trkpt>
      <trkpt lat="32.10611" lon="34.92544">
        <ele>22</ele>
        <time>2026-07-13T12:06:02Z</time>
      </trkpt>
      <trkpt lat="32.10598" lon="34.92595">
        <ele>23</ele>
        <time>2026-07-13T12:06:03Z</time>
      </trkpt>
      <trkpt lat="32.10604" lon="34.92633">
        <ele>23</ele>
        <time>2026-07-13T12:06:04Z</time>
      </trkpt>
      <trkpt lat="32.10610102048474" lon="34.92632409795351">
        <ele>23</ele>
        <time>2026-07-13T12:06:05Z</time>
      </trkpt>
      <trkpt lat="32.10661011006023" lon="34.927787738616786">
        <ele>23.5</ele>
        <time>2026-07-13T12:06:06Z</time>
      </trkpt>
      <trkpt lat="32.10661011006023" lon="34.927787738616786">
        <ele>23.5</ele>
        <time>2026-07-13T12:06:07Z</time>
      </trkpt>
      <trkpt lat="32.10722079903853" lon="34.92819147238387">
        <ele>26</ele>
        <time>2026-07-13T12:06:08Z</time>
      </trkpt>
      <trkpt lat="32.10722079903853" lon="34.92819147238387">
        <ele>26</ele>
        <time>2026-07-13T12:06:09Z</time>
      </trkpt>
      <trkpt lat="32.10678110338549" lon="34.92914313055101">
        <ele>24.5</ele>
        <time>2026-07-13T12:06:10Z</time>
      </trkpt>
      <trkpt lat="32.10678110338549" lon="34.92914313055101">
        <ele>24.5</ele>
        <time>2026-07-13T12:06:11Z</time>
      </trkpt>
      <trkpt lat="32.107538355692924" lon="34.930296655602575">
        <ele>30</ele>
        <time>2026-07-13T12:06:12Z</time>
      </trkpt>
      <trkpt lat="32.107538355692924" lon="34.930296655602575">
        <ele>30</ele>
        <time>2026-07-13T12:06:13Z</time>
      </trkpt>
      <trkpt lat="32.10731850889637" lon="34.930815741876074">
        <ele>28.5</ele>
        <time>2026-07-13T12:06:14Z</time>
      </trkpt>
      <trkpt lat="32.10731850889637" lon="34.930815741876074">
        <ele>28.5</ele>
        <time>2026-07-13T12:06:15Z</time>
      </trkpt>
      <trkpt lat="32.10700095147668" lon="34.932228810065254">
        <ele>33</ele>
        <time>2026-07-13T12:06:16Z</time>
      </trkpt>
      <trkpt lat="32.10700095147668" lon="34.932228810065254">
        <ele>33</ele>
        <time>2026-07-13T12:06:17Z</time>
      </trkpt>
      <trkpt lat="32.10599941699769" lon="34.93300743947458">
        <ele>31</ele>
        <time>2026-07-13T12:06:18Z</time>
      </trkpt>
      <trkpt lat="32.10599941699769" lon="34.93300743947458">
        <ele>31</ele>
        <time>2026-07-13T12:06:19Z</time>
      </trkpt>
      <trkpt lat="32.10612155593681" lon="34.93404561202152">
        <ele>30</ele>
        <time>2026-07-13T12:06:20Z</time>
      </trkpt>
      <trkpt lat="32.10612155593681" lon="34.93404561202152">
        <ele>30</ele>
        <time>2026-07-13T12:06:21Z</time>
      </trkpt>
      <trkpt lat="32.10397188674146" lon="34.93358420199954">
        <ele>31.5</ele>
        <time>2026-07-13T12:06:22Z</time>
      </trkpt>
      <trkpt lat="32.10397188674146" lon="34.93358420199954">
        <ele>31.5</ele>
        <time>2026-07-13T12:06:23Z</time>
      </trkpt>
      <trkpt lat="32.10328789047654" lon="34.9339879357683">
        <ele>30</ele>
        <time>2026-07-13T12:06:24Z</time>
      </trkpt>
      <trkpt lat="32.10328789047654" lon="34.9339879357683">
        <ele>30</ele>
        <time>2026-07-13T12:06:25Z</time>
      </trkpt>
      <trkpt lat="32.102017598107" lon="34.93283441071674">
        <ele>29.5</ele>
        <time>2026-07-13T12:06:26Z</time>
      </trkpt>
      <trkpt lat="32.102017598107" lon="34.93283441071674">
        <ele>29.5</ele>
        <time>2026-07-13T12:06:27Z</time>
      </trkpt>
      <trkpt lat="32.10174888014946" lon="34.93003711246675">
        <ele>24.5</ele>
        <time>2026-07-13T12:06:28Z</time>
      </trkpt>
      <trkpt lat="32.10174888014946" lon="34.93003711246675">
        <ele>24.5</ele>
        <time>2026-07-13T12:06:29Z</time>
      </trkpt>
      <trkpt lat="32.10113815457828" lon="34.92885474928855">
        <ele>25</ele>
        <time>2026-07-13T12:06:30Z</time>
      </trkpt>
      <trkpt lat="32.10121" lon="34.92871">
        <ele>25</ele>
        <time>2026-07-13T12:06:31Z</time>
      </trkpt>
      <trkpt lat="32.10105" lon="34.92864">
        <ele>25</ele>
        <time>2026-07-13T12:06:32Z</time>
      </trkpt>
      <trkpt lat="32.095510000000004" lon="34.927290000000006">
        <ele>31.5</ele>
        <time>2026-07-13T12:06:33Z</time>
      </trkpt>
      <trkpt lat="32.095510000000004" lon="34.927290000000006">
        <ele>31.5</ele>
        <time>2026-07-13T12:06:34Z</time>
      </trkpt>
      <trkpt lat="32.091710000000006" lon="34.926370000000006">
        <ele>32</ele>
        <time>2026-07-13T12:06:35Z</time>
      </trkpt>
      <trkpt lat="32.08903" lon="34.92588">
        <ele>34</ele>
        <time>2026-07-13T12:06:36Z</time>
      </trkpt>
      <trkpt lat="32.08897" lon="34.925850000000004">
        <ele>34</ele>
        <time>2026-07-13T12:06:37Z</time>
      </trkpt>
      <trkpt lat="32.088680000000004" lon="34.925850000000004">
        <ele>34</ele>
        <time>2026-07-13T12:06:38Z</time>
      </trkpt>
      <trkpt lat="32.08851" lon="34.92597">
        <ele>33</ele>
        <time>2026-07-13T12:06:39Z</time>
      </trkpt>
      <trkpt lat="32.08851" lon="34.92597">
        <ele>33</ele>
        <time>2026-07-13T12:06:40Z</time>
      </trkpt>
      <trkpt lat="32.088350000000005" lon="34.926080000000006">
        <ele>32</ele>
        <time>2026-07-13T12:06:41Z</time>
      </trkpt>
      <trkpt lat="32.08804" lon="34.926370000000006">
        <ele>31</ele>
        <time>2026-07-13T12:06:42Z</time>
      </trkpt>
      <extensions>
        <RoutingType xmlns="">Hike</RoutingType>
      </extensions>
    </trkseg>
    <trkseg>
      <trkpt lat="32.08804" lon="34.926370000000006">
        <ele>31</ele>
        <time>2026-07-13T12:06:42Z</time>
      </trkpt>
      <trkpt lat="32.08748" lon="34.92703">
        <ele>31</ele>
        <time>2026-07-13T12:06:43Z</time>
      </trkpt>
      <trkpt lat="32.08681" lon="34.92774">
        <ele>32</ele>
        <time>2026-07-13T12:06:44Z</time>
      </trkpt>
      <trkpt lat="32.086510000000004" lon="34.92817">
        <ele>34</ele>
        <time>2026-07-13T12:06:45Z</time>
      </trkpt>
      <trkpt lat="32.086310000000005" lon="34.92841">
        <ele>36</ele>
        <time>2026-07-13T12:06:46Z</time>
      </trkpt>
      <trkpt lat="32.0859" lon="34.92882">
        <ele>36</ele>
        <time>2026-07-13T12:06:47Z</time>
      </trkpt>
      <trkpt lat="32.08569" lon="34.929050000000004">
        <ele>34</ele>
        <time>2026-07-13T12:06:48Z</time>
      </trkpt>
      <trkpt lat="32.085620000000006" lon="34.929210000000005">
        <ele>34</ele>
        <time>2026-07-13T12:06:49Z</time>
      </trkpt>
      <trkpt lat="32.08529" lon="34.929120000000005">
        <ele>34</ele>
        <time>2026-07-13T12:06:50Z</time>
      </trkpt>
      <trkpt lat="32.085060000000006" lon="34.92898">
        <ele>34</ele>
        <time>2026-07-13T12:06:51Z</time>
      </trkpt>
      <trkpt lat="32.084880000000005" lon="34.92884">
        <ele>35</ele>
        <time>2026-07-13T12:06:52Z</time>
      </trkpt>
      <trkpt lat="32.084700000000005" lon="34.928740000000005">
        <ele>35</ele>
        <time>2026-07-13T12:06:53Z</time>
      </trkpt>
      <trkpt lat="32.084360000000004" lon="34.92869">
        <ele>35</ele>
        <time>2026-07-13T12:06:54Z</time>
      </trkpt>
      <trkpt lat="32.08418" lon="34.92871">
        <ele>35</ele>
        <time>2026-07-13T12:06:55Z</time>
      </trkpt>
      <trkpt lat="32.083940000000005" lon="34.9288">
        <ele>35</ele>
        <time>2026-07-13T12:06:56Z</time>
      </trkpt>
      <trkpt lat="32.08375" lon="34.928990000000006">
        <ele>35</ele>
        <time>2026-07-13T12:06:57Z</time>
      </trkpt>
      <trkpt lat="32.08359" lon="34.929100000000005">
        <ele>35</ele>
        <time>2026-07-13T12:06:58Z</time>
      </trkpt>
      <trkpt lat="32.08348" lon="34.92929">
        <ele>37</ele>
        <time>2026-07-13T12:06:59Z</time>
      </trkpt>
      <trkpt lat="32.08332" lon="34.929730000000006">
        <ele>37</ele>
        <time>2026-07-13T12:07:00Z</time>
      </trkpt>
      <trkpt lat="32.083040000000004" lon="34.930820000000004">
        <ele>37</ele>
        <time>2026-07-13T12:07:01Z</time>
      </trkpt>
      <trkpt lat="32.08302259377106" lon="34.930813155621564">
        <ele>37</ele>
        <time>2026-07-13T12:07:02Z</time>
      </trkpt>
      <trkpt lat="32.082509479408145" lon="34.93069780311694">
        <ele>37.5</ele>
        <time>2026-07-13T12:07:03Z</time>
      </trkpt>
      <trkpt lat="32.082509479408145" lon="34.93069780311694">
        <ele>37.5</ele>
        <time>2026-07-13T12:07:04Z</time>
      </trkpt>
      <trkpt lat="32.08136107015632" lon="34.93115921313725">
        <ele>42</ele>
        <time>2026-07-13T12:07:05Z</time>
      </trkpt>
      <trkpt lat="32.08136107015632" lon="34.93115921313725">
        <ele>42</ele>
        <time>2026-07-13T12:07:06Z</time>
      </trkpt>
      <trkpt lat="32.07982169044216" lon="34.930813155621564">
        <ele>42</ele>
        <time>2026-07-13T12:07:07Z</time>
      </trkpt>
      <trkpt lat="32.07982169044216" lon="34.930813155621564">
        <ele>42</ele>
        <time>2026-07-13T12:07:08Z</time>
      </trkpt>
      <trkpt lat="32.07842889598058" lon="34.930351745601314">
        <ele>45.5</ele>
        <time>2026-07-13T12:07:09Z</time>
      </trkpt>
      <trkpt lat="32.07842889598058" lon="34.930351745601314">
        <ele>45.5</ele>
        <time>2026-07-13T12:07:10Z</time>
      </trkpt>
      <trkpt lat="32.07392199520571" lon="34.93041363795194">
        <ele>46</ele>
        <time>2026-07-13T12:07:11Z</time>
      </trkpt>
      <trkpt lat="32.07392199520571" lon="34.93041363795194">
        <ele>46</ele>
        <time>2026-07-13T12:07:12Z</time>
      </trkpt>
      <trkpt lat="32.07379981321755" lon="34.931567163003535">
        <ele>46</ele>
        <time>2026-07-13T12:07:13Z</time>
      </trkpt>
      <trkpt lat="32.07379981321755" lon="34.931567163003535">
        <ele>46</ele>
        <time>2026-07-13T12:07:14Z</time>
      </trkpt>
      <trkpt lat="32.06854860461378" lon="34.93286653730459">
        <ele>47</ele>
        <time>2026-07-13T12:07:15Z</time>
      </trkpt>
      <trkpt lat="32.06854860461378" lon="34.93286653730459">
        <ele>47</ele>
        <time>2026-07-13T12:07:16Z</time>
      </trkpt>
      <trkpt lat="32.06744920510846" lon="34.93298207207286">
        <ele>46.5</ele>
        <time>2026-07-13T12:07:17Z</time>
      </trkpt>
      <trkpt lat="32.06744920510846" lon="34.93298207207286">
        <ele>46.5</ele>
        <time>2026-07-13T12:07:18Z</time>
      </trkpt>
      <trkpt lat="32.06744920510846" lon="34.92989639256038">
        <ele>46</ele>
        <time>2026-07-13T12:07:19Z</time>
      </trkpt>
      <trkpt lat="32.06744920510846" lon="34.92989639256038">
        <ele>46</ele>
        <time>2026-07-13T12:07:20Z</time>
      </trkpt>
      <trkpt lat="32.067058194494265" lon="34.92998290693842">
        <ele>46</ele>
        <time>2026-07-13T12:07:21Z</time>
      </trkpt>
      <trkpt lat="32.067058194494265" lon="34.92998290693842">
        <ele>46</ele>
        <time>2026-07-13T12:07:22Z</time>
      </trkpt>
      <trkpt lat="32.066276168249814" lon="34.93090572697895">
        <ele>47.5</ele>
        <time>2026-07-13T12:07:23Z</time>
      </trkpt>
      <trkpt lat="32.066276168249814" lon="34.93090572697895">
        <ele>47.5</ele>
        <time>2026-07-13T12:07:24Z</time>
      </trkpt>
      <trkpt lat="32.06314799640383" lon="34.931222946369786">
        <ele>48</ele>
        <time>2026-07-13T12:07:25Z</time>
      </trkpt>
      <trkpt lat="32.06314799640383" lon="34.931222946369786">
        <ele>48</ele>
        <time>2026-07-13T12:07:26Z</time>
      </trkpt>
      <trkpt lat="32.06197490437903" lon="34.929175439402485">
        <ele>45</ele>
        <time>2026-07-13T12:07:27Z</time>
      </trkpt>
      <trkpt lat="32.06197490437903" lon="34.929175439402485">
        <ele>45</ele>
        <time>2026-07-13T12:07:28Z</time>
      </trkpt>
      <trkpt lat="32.05904210846887" lon="34.92960801132702">
        <ele>47</ele>
        <time>2026-07-13T12:07:29Z</time>
      </trkpt>
      <trkpt lat="32.05904210846887" lon="34.92960801132702">
        <ele>47</ele>
        <time>2026-07-13T12:07:30Z</time>
      </trkpt>
      <trkpt lat="32.058651061914105" lon="34.932405309577064">
        <ele>48.5</ele>
        <time>2026-07-13T12:07:31Z</time>
      </trkpt>
      <trkpt lat="32.058651061914105" lon="34.932405309577064">
        <ele>48.5</ele>
        <time>2026-07-13T12:07:32Z</time>
      </trkpt>
      <trkpt lat="32.05904210846887" lon="34.93393373026913">
        <ele>52.64</ele>
        <time>2026-07-13T12:07:33Z</time>
      </trkpt>
      <trkpt lat="32.05904210846887" lon="34.93393373026913">
        <ele>52.64</ele>
        <time>2026-07-13T12:07:34Z</time>
      </trkpt>
      <trkpt lat="32.05889546620652" lon="34.93543331283635">
        <ele>54.21</ele>
        <time>2026-07-13T12:07:35Z</time>
      </trkpt>
      <trkpt lat="32.05889546620652" lon="34.93543331283635">
        <ele>54.21</ele>
        <time>2026-07-13T12:07:36Z</time>
      </trkpt>
      <trkpt lat="32.058406656967975" lon="34.936125427867665">
        <ele>53</ele>
        <time>2026-07-13T12:07:37Z</time>
      </trkpt>
      <trkpt lat="32.05841" lon="34.93625">
        <ele>53</ele>
        <time>2026-07-13T12:07:38Z</time>
      </trkpt>
      <trkpt lat="32.05798" lon="34.93625">
        <ele>57</ele>
        <time>2026-07-13T12:07:39Z</time>
      </trkpt>
      <trkpt lat="32.05691" lon="34.936150000000005">
        <ele>58</ele>
        <time>2026-07-13T12:07:40Z</time>
      </trkpt>
      <extensions>
        <RoutingType xmlns="">Hike</RoutingType>
      </extensions>
    </trkseg>
    <trkseg>
      <trkpt lat="32.05691" lon="34.936150000000005">
        <ele>58</ele>
        <time>2026-07-13T12:07:40Z</time>
      </trkpt>
      <trkpt lat="32.055730000000004" lon="34.936150000000005">
        <ele>55</ele>
        <time>2026-07-13T12:07:41Z</time>
      </trkpt>
      <trkpt lat="32.055400000000006" lon="34.936">
        <ele>55</ele>
        <time>2026-07-13T12:07:42Z</time>
      </trkpt>
      <trkpt lat="32.05525" lon="34.935970000000005">
        <ele>55</ele>
        <time>2026-07-13T12:07:43Z</time>
      </trkpt>
      <trkpt lat="32.05503" lon="34.93598">
        <ele>55</ele>
        <time>2026-07-13T12:07:44Z</time>
      </trkpt>
      <trkpt lat="32.05485" lon="34.93601">
        <ele>56</ele>
        <time>2026-07-13T12:07:45Z</time>
      </trkpt>
      <trkpt lat="32.05467" lon="34.936020000000006">
        <ele>56</ele>
        <time>2026-07-13T12:07:46Z</time>
      </trkpt>
      <trkpt lat="32.053470000000004" lon="34.93627">
        <ele>54</ele>
        <time>2026-07-13T12:07:47Z</time>
      </trkpt>
      <trkpt lat="32.05248" lon="34.93645">
        <ele>55</ele>
        <time>2026-07-13T12:07:48Z</time>
      </trkpt>
      <trkpt lat="32.05234" lon="34.93645">
        <ele>55</ele>
        <time>2026-07-13T12:07:49Z</time>
      </trkpt>
      <trkpt lat="32.05205" lon="34.9365">
        <ele>55</ele>
        <time>2026-07-13T12:07:50Z</time>
      </trkpt>
      <trkpt lat="32.05151" lon="34.936620000000005">
        <ele>58</ele>
        <time>2026-07-13T12:07:51Z</time>
      </trkpt>
      <trkpt lat="32.051370000000006" lon="34.936620000000005">
        <ele>58</ele>
        <time>2026-07-13T12:07:52Z</time>
      </trkpt>
      <trkpt lat="32.050540000000005" lon="34.93679">
        <ele>58</ele>
        <time>2026-07-13T12:07:53Z</time>
      </trkpt>
      <trkpt lat="32.05021" lon="34.936840000000004">
        <ele>58</ele>
        <time>2026-07-13T12:07:54Z</time>
      </trkpt>
      <trkpt lat="32.049240000000005" lon="34.93714">
        <ele>58</ele>
        <time>2026-07-13T12:07:55Z</time>
      </trkpt>
      <trkpt lat="32.04854" lon="34.93719">
        <ele>58</ele>
        <time>2026-07-13T12:07:56Z</time>
      </trkpt>
      <trkpt lat="32.04854" lon="34.93719">
        <ele>58</ele>
        <time>2026-07-13T12:07:57Z</time>
      </trkpt>
      <trkpt lat="32.048390000000005" lon="34.937200000000004">
        <ele>58</ele>
        <time>2026-07-13T12:07:58Z</time>
      </trkpt>
      <trkpt lat="32.048320000000004" lon="34.937250000000006">
        <ele>58</ele>
        <time>2026-07-13T12:07:59Z</time>
      </trkpt>
      <trkpt lat="32.04835" lon="34.93858">
        <ele>58</ele>
        <time>2026-07-13T12:08:00Z</time>
      </trkpt>
      <trkpt lat="32.04854" lon="34.93948">
        <ele>61</ele>
        <time>2026-07-13T12:08:01Z</time>
      </trkpt>
      <trkpt lat="32.048640000000006" lon="34.939780000000006">
        <ele>61</ele>
        <time>2026-07-13T12:08:02Z</time>
      </trkpt>
      <trkpt lat="32.048660000000005" lon="34.939960000000006">
        <ele>61</ele>
        <time>2026-07-13T12:08:03Z</time>
      </trkpt>
      <trkpt lat="32.048680000000004" lon="34.94077">
        <ele>65</ele>
        <time>2026-07-13T12:08:04Z</time>
      </trkpt>
      <trkpt lat="32.04874" lon="34.941460000000006">
        <ele>68</ele>
        <time>2026-07-13T12:08:05Z</time>
      </trkpt>
      <trkpt lat="32.04871" lon="34.94155">
        <ele>68</ele>
        <time>2026-07-13T12:08:06Z</time>
      </trkpt>
      <trkpt lat="32.04865" lon="34.94169">
        <ele>68</ele>
        <time>2026-07-13T12:08:07Z</time>
      </trkpt>
      <trkpt lat="32.04862" lon="34.94192">
        <ele>70</ele>
        <time>2026-07-13T12:08:08Z</time>
      </trkpt>
      <trkpt lat="32.04862" lon="34.94192">
        <ele>70</ele>
        <time>2026-07-13T12:08:09Z</time>
      </trkpt>
      <trkpt lat="32.048570000000005" lon="34.942060000000005">
        <ele>70</ele>
        <time>2026-07-13T12:08:10Z</time>
      </trkpt>
      <trkpt lat="32.048320000000004" lon="34.94218">
        <ele>70</ele>
        <time>2026-07-13T12:08:11Z</time>
      </trkpt>
      <trkpt lat="32.048280000000005" lon="34.94238">
        <ele>76</ele>
        <time>2026-07-13T12:08:12Z</time>
      </trkpt>
      <trkpt lat="32.0482" lon="34.9425">
        <ele>76</ele>
        <time>2026-07-13T12:08:13Z</time>
      </trkpt>
      <trkpt lat="32.047920000000005" lon="34.942710000000005">
        <ele>82</ele>
        <time>2026-07-13T12:08:14Z</time>
      </trkpt>
      <trkpt lat="32.04786" lon="34.94288">
        <ele>82</ele>
        <time>2026-07-13T12:08:15Z</time>
      </trkpt>
      <trkpt lat="32.047720000000005" lon="34.942930000000004">
        <ele>82</ele>
        <time>2026-07-13T12:08:16Z</time>
      </trkpt>
      <trkpt lat="32.04746" lon="34.94317">
        <ele>82</ele>
        <time>2026-07-13T12:08:17Z</time>
      </trkpt>
      <trkpt lat="32.0471" lon="34.943400000000004">
        <ele>80</ele>
        <time>2026-07-13T12:08:18Z</time>
      </trkpt>
      <trkpt lat="32.046910000000004" lon="34.943470000000005">
        <ele>80</ele>
        <time>2026-07-13T12:08:19Z</time>
      </trkpt>
      <trkpt lat="32.046730000000004" lon="34.94348">
        <ele>80</ele>
        <time>2026-07-13T12:08:20Z</time>
      </trkpt>
      <trkpt lat="32.04661" lon="34.94352">
        <ele>73</ele>
        <time>2026-07-13T12:08:21Z</time>
      </trkpt>
      <trkpt lat="32.04645" lon="34.94364">
        <ele>73</ele>
        <time>2026-07-13T12:08:22Z</time>
      </trkpt>
      <trkpt lat="32.0461" lon="34.94377">
        <ele>73</ele>
        <time>2026-07-13T12:08:23Z</time>
      </trkpt>
      <trkpt lat="32.046040000000005" lon="34.94382">
        <ele>73</ele>
        <time>2026-07-13T12:08:24Z</time>
      </trkpt>
      <trkpt lat="32.04601" lon="34.943900000000006">
        <ele>73</ele>
        <time>2026-07-13T12:08:25Z</time>
      </trkpt>
      <trkpt lat="32.04587" lon="34.94436">
        <ele>73</ele>
        <time>2026-07-13T12:08:26Z</time>
      </trkpt>
      <trkpt lat="32.04591" lon="34.94422">
        <ele>73</ele>
        <time>2026-07-13T12:08:27Z</time>
      </trkpt>
      <trkpt lat="32.04591" lon="34.94418">
        <ele>73</ele>
        <time>2026-07-13T12:08:28Z</time>
      </trkpt>
      <trkpt lat="32.045860000000005" lon="34.94407">
        <ele>73</ele>
        <time>2026-07-13T12:08:29Z</time>
      </trkpt>
      <trkpt lat="32.045860000000005" lon="34.94407">
        <ele>73</ele>
        <time>2026-07-13T12:08:30Z</time>
      </trkpt>
      <trkpt lat="32.04591" lon="34.94418">
        <ele>73</ele>
        <time>2026-07-13T12:08:31Z</time>
      </trkpt>
      <trkpt lat="32.04591" lon="34.94422">
        <ele>73</ele>
        <time>2026-07-13T12:08:32Z</time>
      </trkpt>
      <trkpt lat="32.045840000000005" lon="34.94454">
        <ele>73</ele>
        <time>2026-07-13T12:08:33Z</time>
      </trkpt>
      <trkpt lat="32.04554" lon="34.94489">
        <ele>69</ele>
        <time>2026-07-13T12:08:34Z</time>
      </trkpt>
      <trkpt lat="32.0454" lon="34.9452">
        <ele>73</ele>
        <time>2026-07-13T12:08:35Z</time>
      </trkpt>
      <trkpt lat="32.04441" lon="34.945820000000005">
        <ele>69</ele>
        <time>2026-07-13T12:08:36Z</time>
      </trkpt>
      <trkpt lat="32.04412" lon="34.946020000000004">
        <ele>70</ele>
        <time>2026-07-13T12:08:37Z</time>
      </trkpt>
      <trkpt lat="32.0439" lon="34.94608">
        <ele>70</ele>
        <time>2026-07-13T12:08:38Z</time>
      </trkpt>
      <extensions>
        <RoutingType xmlns="">Hike</RoutingType>
      </extensions>
    </trkseg>
    <trkseg>
      <trkpt lat="32.0439" lon="34.94608">
        <ele>70</ele>
        <time>2026-07-13T12:08:38Z</time>
      </trkpt>
      <trkpt lat="32.043490000000006" lon="34.946340000000006">
        <ele>70</ele>
        <time>2026-07-13T12:08:39Z</time>
      </trkpt>
      <trkpt lat="32.043220000000005" lon="34.946540000000006">
        <ele>73</ele>
        <time>2026-07-13T12:08:40Z</time>
      </trkpt>
      <trkpt lat="32.043110000000006" lon="34.94657">
        <ele>73</ele>
        <time>2026-07-13T12:08:41Z</time>
      </trkpt>
      <trkpt lat="32.043110000000006" lon="34.94657">
        <ele>73</ele>
        <time>2026-07-13T12:08:42Z</time>
      </trkpt>
      <trkpt lat="32.04303" lon="34.94659">
        <ele>73</ele>
        <time>2026-07-13T12:08:43Z</time>
      </trkpt>
      <trkpt lat="32.042970000000004" lon="34.94664">
        <ele>73</ele>
        <time>2026-07-13T12:08:44Z</time>
      </trkpt>
      <trkpt lat="32.04276" lon="34.94688">
        <ele>71</ele>
        <time>2026-07-13T12:08:45Z</time>
      </trkpt>
      <trkpt lat="32.04256" lon="34.94704">
        <ele>71</ele>
        <time>2026-07-13T12:08:46Z</time>
      </trkpt>
      <trkpt lat="32.04206" lon="34.947340000000004">
        <ele>76</ele>
        <time>2026-07-13T12:08:47Z</time>
      </trkpt>
      <trkpt lat="32.041940000000004" lon="34.947390000000006">
        <ele>76</ele>
        <time>2026-07-13T12:08:48Z</time>
      </trkpt>
      <trkpt lat="32.041760000000004" lon="34.94742">
        <ele>76</ele>
        <time>2026-07-13T12:08:49Z</time>
      </trkpt>
      <trkpt lat="32.0416" lon="34.94747">
        <ele>83</ele>
        <time>2026-07-13T12:08:50Z</time>
      </trkpt>
      <trkpt lat="32.04128" lon="34.94751">
        <ele>83</ele>
        <time>2026-07-13T12:08:51Z</time>
      </trkpt>
      <trkpt lat="32.04121" lon="34.947540000000004">
        <ele>82</ele>
        <time>2026-07-13T12:08:52Z</time>
      </trkpt>
      <trkpt lat="32.041090000000004" lon="34.94764">
        <ele>82</ele>
        <time>2026-07-13T12:08:53Z</time>
      </trkpt>
      <trkpt lat="32.04103" lon="34.947750000000006">
        <ele>82</ele>
        <time>2026-07-13T12:08:54Z</time>
      </trkpt>
      <trkpt lat="32.04093" lon="34.947860000000006">
        <ele>82</ele>
        <time>2026-07-13T12:08:55Z</time>
      </trkpt>
      <trkpt lat="32.04075" lon="34.948010000000004">
        <ele>89</ele>
        <time>2026-07-13T12:08:56Z</time>
      </trkpt>
      <trkpt lat="32.04057" lon="34.94823">
        <ele>89</ele>
        <time>2026-07-13T12:08:57Z</time>
      </trkpt>
      <trkpt lat="32.040490000000005" lon="34.94831">
        <ele>89</ele>
        <time>2026-07-13T12:08:58Z</time>
      </trkpt>
      <trkpt lat="32.04041" lon="34.948330000000006">
        <ele>89</ele>
        <time>2026-07-13T12:08:59Z</time>
      </trkpt>
      <trkpt lat="32.04034" lon="34.948330000000006">
        <ele>89</ele>
        <time>2026-07-13T12:09:00Z</time>
      </trkpt>
      <trkpt lat="32.04014" lon="34.94827">
        <ele>89</ele>
        <time>2026-07-13T12:09:01Z</time>
      </trkpt>
      <trkpt lat="32.039910000000006" lon="34.94825">
        <ele>87</ele>
        <time>2026-07-13T12:09:02Z</time>
      </trkpt>
      <trkpt lat="32.039840000000005" lon="34.94825">
        <ele>87</ele>
        <time>2026-07-13T12:09:03Z</time>
      </trkpt>
      <trkpt lat="32.039730000000006" lon="34.948280000000004">
        <ele>87</ele>
        <time>2026-07-13T12:09:04Z</time>
      </trkpt>
      <trkpt lat="32.039640000000006" lon="34.948350000000005">
        <ele>87</ele>
        <time>2026-07-13T12:09:05Z</time>
      </trkpt>
      <trkpt lat="32.039500000000004" lon="34.94849">
        <ele>90</ele>
        <time>2026-07-13T12:09:06Z</time>
      </trkpt>
      <trkpt lat="32.03924" lon="34.94886">
        <ele>90</ele>
        <time>2026-07-13T12:09:07Z</time>
      </trkpt>
      <trkpt lat="32.039170000000006" lon="34.94894">
        <ele>90</ele>
        <time>2026-07-13T12:09:08Z</time>
      </trkpt>
      <trkpt lat="32.03906" lon="34.94899">
        <ele>87</ele>
        <time>2026-07-13T12:09:09Z</time>
      </trkpt>
      <trkpt lat="32.038830000000004" lon="34.94901">
        <ele>87</ele>
        <time>2026-07-13T12:09:10Z</time>
      </trkpt>
      <trkpt lat="32.03868" lon="34.949070000000006">
        <ele>87</ele>
        <time>2026-07-13T12:09:11Z</time>
      </trkpt>
      <trkpt lat="32.03858" lon="34.949180000000005">
        <ele>87</ele>
        <time>2026-07-13T12:09:12Z</time>
      </trkpt>
      <trkpt lat="32.03835" lon="34.94964">
        <ele>89</ele>
        <time>2026-07-13T12:09:13Z</time>
      </trkpt>
      <trkpt lat="32.038250000000005" lon="34.94977">
        <ele>88</ele>
        <time>2026-07-13T12:09:14Z</time>
      </trkpt>
      <trkpt lat="32.038160000000005" lon="34.949830000000006">
        <ele>88</ele>
        <time>2026-07-13T12:09:15Z</time>
      </trkpt>
      <trkpt lat="32.03797" lon="34.94988">
        <ele>88</ele>
        <time>2026-07-13T12:09:16Z</time>
      </trkpt>
      <trkpt lat="32.037670000000006" lon="34.949920000000006">
        <ele>88</ele>
        <time>2026-07-13T12:09:17Z</time>
      </trkpt>
      <trkpt lat="32.037580000000005" lon="34.9499">
        <ele>88</ele>
        <time>2026-07-13T12:09:18Z</time>
      </trkpt>
      <trkpt lat="32.03737" lon="34.94979">
        <ele>93</ele>
        <time>2026-07-13T12:09:19Z</time>
      </trkpt>
      <trkpt lat="32.037310000000005" lon="34.9498">
        <ele>93</ele>
        <time>2026-07-13T12:09:20Z</time>
      </trkpt>
      <trkpt lat="32.037060000000004" lon="34.949960000000004">
        <ele>93</ele>
        <time>2026-07-13T12:09:21Z</time>
      </trkpt>
      <trkpt lat="32.03698" lon="34.94997">
        <ele>93</ele>
        <time>2026-07-13T12:09:22Z</time>
      </trkpt>
      <trkpt lat="32.0368" lon="34.94995">
        <ele>93</ele>
        <time>2026-07-13T12:09:23Z</time>
      </trkpt>
      <trkpt lat="32.03661" lon="34.949870000000004">
        <ele>95</ele>
        <time>2026-07-13T12:09:24Z</time>
      </trkpt>
      <trkpt lat="32.03632" lon="34.949580000000005">
        <ele>95</ele>
        <time>2026-07-13T12:09:25Z</time>
      </trkpt>
      <trkpt lat="32.036010000000005" lon="34.94944">
        <ele>95</ele>
        <time>2026-07-13T12:09:26Z</time>
      </trkpt>
      <trkpt lat="32.035880000000006" lon="34.94933">
        <ele>95</ele>
        <time>2026-07-13T12:09:27Z</time>
      </trkpt>
      <trkpt lat="32.03578" lon="34.949180000000005">
        <ele>102</ele>
        <time>2026-07-13T12:09:28Z</time>
      </trkpt>
      <trkpt lat="32.03575" lon="34.949110000000005">
        <ele>102</ele>
        <time>2026-07-13T12:09:29Z</time>
      </trkpt>
      <trkpt lat="32.03575" lon="34.949020000000004">
        <ele>102</ele>
        <time>2026-07-13T12:09:30Z</time>
      </trkpt>
      <trkpt lat="32.035630000000005" lon="34.9491">
        <ele>102</ele>
        <time>2026-07-13T12:09:31Z</time>
      </trkpt>
      <trkpt lat="32.03531" lon="34.949090000000005">
        <ele>102</ele>
        <time>2026-07-13T12:09:32Z</time>
      </trkpt>
      <trkpt lat="32.03529" lon="34.94901">
        <ele>102</ele>
        <time>2026-07-13T12:09:33Z</time>
      </trkpt>
      <trkpt lat="32.03529" lon="34.94901">
        <ele>102</ele>
        <time>2026-07-13T12:09:34Z</time>
      </trkpt>
      <trkpt lat="32.03519" lon="34.948620000000005">
        <ele>102</ele>
        <time>2026-07-13T12:09:35Z</time>
      </trkpt>
      <trkpt lat="32.035090000000004" lon="34.948280000000004">
        <ele>98</ele>
        <time>2026-07-13T12:09:36Z</time>
      </trkpt>
      <extensions>
        <RoutingType xmlns="">Hike</RoutingType>
      </extensions>
    </trkseg>
    <trkseg>
      <trkpt lat="32.035090000000004" lon="34.948280000000004">
        <ele>98</ele>
        <time>2026-07-13T12:09:36Z</time>
      </trkpt>
      <trkpt lat="32.03504" lon="34.94792">
        <ele>98</ele>
        <time>2026-07-13T12:09:37Z</time>
      </trkpt>
      <trkpt lat="32.03499" lon="34.947720000000004">
        <ele>98</ele>
        <time>2026-07-13T12:09:38Z</time>
      </trkpt>
      <trkpt lat="32.03484" lon="34.94729">
        <ele>99</ele>
        <time>2026-07-13T12:09:39Z</time>
      </trkpt>
      <trkpt lat="32.03474" lon="34.94684">
        <ele>99</ele>
        <time>2026-07-13T12:09:40Z</time>
      </trkpt>
      <trkpt lat="32.034670000000006" lon="34.94641">
        <ele>93</ele>
        <time>2026-07-13T12:09:41Z</time>
      </trkpt>
      <trkpt lat="32.034670000000006" lon="34.946560000000005">
        <ele>93</ele>
        <time>2026-07-13T12:09:42Z</time>
      </trkpt>
      <trkpt lat="32.03466" lon="34.946600000000004">
        <ele>93</ele>
        <time>2026-07-13T12:09:43Z</time>
      </trkpt>
      <extensions>
        <RoutingType xmlns="">Hike</RoutingType>
      </extensions>
    </trkseg>
  </trk>
</gpx>
