<?xml version="1.0" encoding="UTF-8" standalone="yes"?>
<gpx xmlns="http://www.topografix.com/GPX/1/1" xmlns:xsi="http://www.w3.org/2001/XMLSchema-instance" version="1.1" creator="IsraelHikingMap" xsi:schemaLocation="http://www.topografix.com/GPX/1/1 http://www.topografix.com/GPX/1/1/gpx.xsd">
  <metadata>
    <bounds maxlat="31.347021653294465" maxlon="35.161231196752595" minlat="31.258270000000003" minlon="35.085286"></bounds>
  </metadata>
  <trk>
    <name>32 - הר עמשא לערד</name>
    <desc>🏞️ קושי: בינוני | צפון הנגב
🥾 הר עמשא, נחל דרגות, דריג'את, ג'נביב, תל ערד, חורשת רן.
⛺ לילה: פארק ערד ( לינת סופ"ש במידה ונשארים 12 אנשים לסופ"ש)
🛒 קניות בקרבת המסלול:
• ערד — סופרמרקטים וחנויות קרובים לשביל. נקודת ההצטיידות הבאה - עוד כשלושה ימים, ליד ים המלח.</desc>
    <trkseg>
      <trkpt lat="31.347021653294465" lon="35.09675323963166">
        <ele>820.203125</ele>
        <time>2021-11-02T08:36:28Z</time>
      </trkpt>
      <trkpt lat="31.347021653294465" lon="35.09675323963166">
        <ele>820.203125</ele>
        <time>2021-11-02T08:36:28Z</time>
      </trkpt>
      <extensions>
        <RoutingType xmlns="">Hike</RoutingType>
      </extensions>
    </trkseg>
    <trkseg>
      <trkpt lat="31.347021653294465" lon="35.09675323963166">
        <ele>820.203125</ele>
        <time>2021-11-02T08:36:28Z</time>
      </trkpt>
      <trkpt lat="31.347021653294465" lon="35.09675323963166">
        <ele>820.203125</ele>
        <time>2021-11-02T08:36:29Z</time>
      </trkpt>
      <trkpt lat="31.347021653294465" lon="35.09675323963166">
        <ele>807</ele>
        <time>2021-11-02T08:36:30Z</time>
      </trkpt>
      <trkpt lat="31.34653602516348" lon="35.098137259483345">
        <ele>806</ele>
        <time>2021-11-02T08:36:31Z</time>
      </trkpt>
      <trkpt lat="31.34653602516348" lon="35.098137259483345">
        <ele>806</ele>
        <time>2021-11-02T08:36:32Z</time>
      </trkpt>
      <trkpt lat="31.346366512867053" lon="35.09958028793336">
        <ele>826</ele>
        <time>2021-11-02T08:36:33Z</time>
      </trkpt>
      <trkpt lat="31.346366512867053" lon="35.09958028793336">
        <ele>826</ele>
        <time>2021-11-02T08:36:34Z</time>
      </trkpt>
      <trkpt lat="31.345473132203338" lon="35.09842157363892">
        <ele>808</ele>
        <time>2021-11-02T08:36:35Z</time>
      </trkpt>
      <trkpt lat="31.345473132203338" lon="35.09842157363892">
        <ele>810.13671875</ele>
        <time>2021-11-02T08:36:36Z</time>
      </trkpt>
      <trkpt lat="31.345390000000002" lon="35.09835">
        <ele>808</ele>
        <time>2021-11-02T08:36:37Z</time>
      </trkpt>
      <trkpt lat="31.345350000000003" lon="35.09841">
        <ele>808</ele>
        <time>2021-11-02T08:36:38Z</time>
      </trkpt>
      <trkpt lat="31.345280000000002" lon="35.098490000000005">
        <ele>808</ele>
        <time>2021-11-02T08:36:39Z</time>
      </trkpt>
      <trkpt lat="31.345280000000002" lon="35.098490000000005">
        <ele>809.0436466737933</ele>
        <time>2021-11-02T08:36:40Z</time>
      </trkpt>
      <trkpt lat="31.34502" lon="35.0987">
        <ele>808</ele>
        <time>2021-11-02T08:36:41Z</time>
      </trkpt>
      <trkpt lat="31.34466" lon="35.098870000000005">
        <ele>806</ele>
        <time>2021-11-02T08:36:42Z</time>
      </trkpt>
      <trkpt lat="31.34419" lon="35.099140000000006">
        <ele>814</ele>
        <time>2021-11-02T08:36:43Z</time>
      </trkpt>
      <trkpt lat="31.34419" lon="35.099140000000006">
        <ele>813.6023881476738</ele>
        <time>2021-11-02T08:36:44Z</time>
      </trkpt>
      <trkpt lat="31.34419" lon="35.099140000000006">
        <ele>814</ele>
        <time>2021-11-02T08:36:45Z</time>
      </trkpt>
      <trkpt lat="31.343960000000003" lon="35.099250000000005">
        <ele>814</ele>
        <time>2021-11-02T08:36:46Z</time>
      </trkpt>
      <trkpt lat="31.343490000000003" lon="35.099610000000006">
        <ele>812</ele>
        <time>2021-11-02T08:36:47Z</time>
      </trkpt>
      <trkpt lat="31.343210000000003" lon="35.09975">
        <ele>813.5</ele>
        <time>2021-11-02T08:36:48Z</time>
      </trkpt>
      <trkpt lat="31.343210000000003" lon="35.09975">
        <ele>813.5</ele>
        <time>2021-11-02T08:36:49Z</time>
      </trkpt>
      <trkpt lat="31.342440000000003" lon="35.10018">
        <ele>819.5</ele>
        <time>2021-11-02T08:36:50Z</time>
      </trkpt>
      <trkpt lat="31.342440000000003" lon="35.10018">
        <ele>825.2334076741245</ele>
        <time>2021-11-02T08:36:51Z</time>
      </trkpt>
      <trkpt lat="31.342440000000003" lon="35.10018">
        <ele>825.2334076741245</ele>
        <time>2021-11-02T08:36:52Z</time>
      </trkpt>
      <trkpt lat="31.34235768709616" lon="35.09997725486756">
        <ele>819.5</ele>
        <time>2021-11-02T08:36:53Z</time>
      </trkpt>
      <trkpt lat="31.34145052339085" lon="35.10055661201478">
        <ele>827</ele>
        <time>2021-11-02T08:36:54Z</time>
      </trkpt>
      <trkpt lat="31.34145052339085" lon="35.10055661201478">
        <ele>827</ele>
        <time>2021-11-02T08:36:55Z</time>
      </trkpt>
      <trkpt lat="31.340836579354455" lon="35.10107159614564">
        <ele>835</ele>
        <time>2021-11-02T08:36:56Z</time>
      </trkpt>
      <trkpt lat="31.340830000000004" lon="35.101040000000005">
        <ele>835</ele>
        <time>2021-11-02T08:36:57Z</time>
      </trkpt>
      <trkpt lat="31.340780000000002" lon="35.10105">
        <ele>835</ele>
        <time>2021-11-02T08:36:58Z</time>
      </trkpt>
      <trkpt lat="31.34016" lon="35.10043">
        <ele>839</ele>
        <time>2021-11-02T08:36:59Z</time>
      </trkpt>
      <trkpt lat="31.34016" lon="35.10043">
        <ele>840.8396479766816</ele>
        <time>2021-11-02T08:37:00Z</time>
      </trkpt>
      <trkpt lat="31.33988" lon="35.100010000000005">
        <ele>839</ele>
        <time>2021-11-02T08:37:01Z</time>
      </trkpt>
      <trkpt lat="31.339630000000003" lon="35.09946">
        <ele>829</ele>
        <time>2021-11-02T08:37:02Z</time>
      </trkpt>
      <trkpt lat="31.339630000000003" lon="35.09946">
        <ele>835.3249266156589</ele>
        <time>2021-11-02T08:37:03Z</time>
      </trkpt>
      <trkpt lat="31.339260000000003" lon="35.09897">
        <ele>819</ele>
        <time>2021-11-02T08:37:04Z</time>
      </trkpt>
      <trkpt lat="31.339190000000002" lon="35.098800000000004">
        <ele>819</ele>
        <time>2021-11-02T08:37:05Z</time>
      </trkpt>
      <trkpt lat="31.339010000000002" lon="35.098760000000006">
        <ele>819</ele>
        <time>2021-11-02T08:37:06Z</time>
      </trkpt>
      <trkpt lat="31.338680000000004" lon="35.098650000000006">
        <ele>821</ele>
        <time>2021-11-02T08:37:07Z</time>
      </trkpt>
      <trkpt lat="31.338680000000004" lon="35.098650000000006">
        <ele>822.5060546426673</ele>
        <time>2021-11-02T08:37:08Z</time>
      </trkpt>
      <trkpt lat="31.338620000000002" lon="35.098600000000005">
        <ele>821</ele>
        <time>2021-11-02T08:37:09Z</time>
      </trkpt>
      <trkpt lat="31.33855" lon="35.09846">
        <ele>821</ele>
        <time>2021-11-02T08:37:10Z</time>
      </trkpt>
      <trkpt lat="31.338530000000002" lon="35.098400000000005">
        <ele>821</ele>
        <time>2021-11-02T08:37:11Z</time>
      </trkpt>
      <trkpt lat="31.33856070637452" lon="35.098400360866506">
        <ele>821</ele>
        <time>2021-11-02T08:37:12Z</time>
      </trkpt>
      <trkpt lat="31.337809065082237" lon="35.09970522729641">
        <ele>844.5</ele>
        <time>2021-11-02T08:37:13Z</time>
      </trkpt>
      <trkpt lat="31.337809065082237" lon="35.09970522729641">
        <ele>842.1025550926823</ele>
        <time>2021-11-02T08:37:14Z</time>
      </trkpt>
      <trkpt lat="31.337730000000004" lon="35.099970000000006">
        <ele>844.5</ele>
        <time>2021-11-02T08:37:15Z</time>
      </trkpt>
      <trkpt lat="31.337730000000004" lon="35.099970000000006">
        <ele>845.7202206055101</ele>
        <time>2021-11-02T08:37:16Z</time>
      </trkpt>
      <trkpt lat="31.337640000000004" lon="35.099940000000004">
        <ele>846</ele>
        <time>2021-11-02T08:37:17Z</time>
      </trkpt>
      <trkpt lat="31.337260000000004" lon="35.099880000000006">
        <ele>834</ele>
        <time>2021-11-02T08:37:18Z</time>
      </trkpt>
      <trkpt lat="31.337130000000002" lon="35.09982">
        <ele>843</ele>
        <time>2021-11-02T08:37:19Z</time>
      </trkpt>
      <trkpt lat="31.336720000000003" lon="35.09968">
        <ele>843</ele>
        <time>2021-11-02T08:37:20Z</time>
      </trkpt>
      <trkpt lat="31.336100000000002" lon="35.099360000000004">
        <ele>843</ele>
        <time>2021-11-02T08:37:21Z</time>
      </trkpt>
      <trkpt lat="31.335780000000003" lon="35.099160000000005">
        <ele>843</ele>
        <time>2021-11-02T08:37:22Z</time>
      </trkpt>
      <extensions>
        <RoutingType xmlns="">Hike</RoutingType>
      </extensions>
    </trkseg>
    <trkseg>
      <trkpt lat="31.335780000000003" lon="35.099160000000005">
        <ele>843</ele>
        <time>2021-11-02T08:37:22Z</time>
      </trkpt>
      <trkpt lat="31.335130000000003" lon="35.098690000000005">
        <ele>843</ele>
        <time>2021-11-02T08:37:23Z</time>
      </trkpt>
      <trkpt lat="31.335130000000003" lon="35.098690000000005">
        <ele>841.1550113675185</ele>
        <time>2021-11-02T08:37:24Z</time>
      </trkpt>
      <trkpt lat="31.335" lon="35.098650000000006">
        <ele>843</ele>
        <time>2021-11-02T08:37:25Z</time>
      </trkpt>
      <trkpt lat="31.335" lon="35.098650000000006">
        <ele>839.8314021368438</ele>
        <time>2021-11-02T08:37:26Z</time>
      </trkpt>
      <trkpt lat="31.334770000000002" lon="35.098620000000004">
        <ele>843</ele>
        <time>2021-11-02T08:37:27Z</time>
      </trkpt>
      <trkpt lat="31.333650000000002" lon="35.098580000000005">
        <ele>828</ele>
        <time>2021-11-02T08:37:28Z</time>
      </trkpt>
      <trkpt lat="31.33357" lon="35.09852">
        <ele>828</ele>
        <time>2021-11-02T08:37:29Z</time>
      </trkpt>
      <trkpt lat="31.333240000000004" lon="35.0985">
        <ele>828</ele>
        <time>2021-11-02T08:37:30Z</time>
      </trkpt>
      <trkpt lat="31.33312" lon="35.09843">
        <ele>828</ele>
        <time>2021-11-02T08:37:31Z</time>
      </trkpt>
      <trkpt lat="31.33312" lon="35.09843">
        <ele>832.0703436074087</ele>
        <time>2021-11-02T08:37:32Z</time>
      </trkpt>
      <trkpt lat="31.332790000000003" lon="35.09841">
        <ele>836</ele>
        <time>2021-11-02T08:37:33Z</time>
      </trkpt>
      <trkpt lat="31.332700000000003" lon="35.09835">
        <ele>836</ele>
        <time>2021-11-02T08:37:34Z</time>
      </trkpt>
      <trkpt lat="31.33256" lon="35.09832">
        <ele>836</ele>
        <time>2021-11-02T08:37:35Z</time>
      </trkpt>
      <trkpt lat="31.332510000000003" lon="35.09826">
        <ele>836</ele>
        <time>2021-11-02T08:37:36Z</time>
      </trkpt>
      <trkpt lat="31.332510000000003" lon="35.09826">
        <ele>835.2462907498391</ele>
        <time>2021-11-02T08:37:37Z</time>
      </trkpt>
      <trkpt lat="31.33245" lon="35.09823">
        <ele>830</ele>
        <time>2021-11-02T08:37:38Z</time>
      </trkpt>
      <trkpt lat="31.332410000000003" lon="35.09816">
        <ele>830</ele>
        <time>2021-11-02T08:37:39Z</time>
      </trkpt>
      <trkpt lat="31.332410000000003" lon="35.09816">
        <ele>835.5032685886794</ele>
        <time>2021-11-02T08:37:40Z</time>
      </trkpt>
      <trkpt lat="31.33237" lon="35.098040000000005">
        <ele>830</ele>
        <time>2021-11-02T08:37:41Z</time>
      </trkpt>
      <trkpt lat="31.332330000000002" lon="35.097970000000004">
        <ele>830</ele>
        <time>2021-11-02T08:37:42Z</time>
      </trkpt>
      <trkpt lat="31.332190000000004" lon="35.09751">
        <ele>835.5</ele>
        <time>2021-11-02T08:37:43Z</time>
      </trkpt>
      <trkpt lat="31.332190000000004" lon="35.09751">
        <ele>835.5</ele>
        <time>2021-11-02T08:37:44Z</time>
      </trkpt>
      <trkpt lat="31.332140000000003" lon="35.09738">
        <ele>844</ele>
        <time>2021-11-02T08:37:45Z</time>
      </trkpt>
      <trkpt lat="31.332100000000004" lon="35.09732">
        <ele>844</ele>
        <time>2021-11-02T08:37:46Z</time>
      </trkpt>
      <trkpt lat="31.3317" lon="35.097300000000004">
        <ele>844</ele>
        <time>2021-11-02T08:37:47Z</time>
      </trkpt>
      <trkpt lat="31.3317" lon="35.097300000000004">
        <ele>844.4265059086891</ele>
        <time>2021-11-02T08:37:48Z</time>
      </trkpt>
      <trkpt lat="31.3317" lon="35.097300000000004">
        <ele>844.4265059086891</ele>
        <time>2021-11-02T08:37:49Z</time>
      </trkpt>
      <trkpt lat="31.33161" lon="35.09724">
        <ele>844</ele>
        <time>2021-11-02T08:37:50Z</time>
      </trkpt>
      <trkpt lat="31.33151" lon="35.0972">
        <ele>844</ele>
        <time>2021-11-02T08:37:51Z</time>
      </trkpt>
      <trkpt lat="31.331370000000003" lon="35.09707">
        <ele>847</ele>
        <time>2021-11-02T08:37:52Z</time>
      </trkpt>
      <trkpt lat="31.331220000000002" lon="35.09696">
        <ele>847</ele>
        <time>2021-11-02T08:37:53Z</time>
      </trkpt>
      <trkpt lat="31.33115" lon="35.096940000000004">
        <ele>847</ele>
        <time>2021-11-02T08:37:54Z</time>
      </trkpt>
      <trkpt lat="31.330990000000003" lon="35.09678">
        <ele>847</ele>
        <time>2021-11-02T08:37:55Z</time>
      </trkpt>
      <trkpt lat="31.330990000000003" lon="35.09678">
        <ele>855.1878101365874</ele>
        <time>2021-11-02T08:37:56Z</time>
      </trkpt>
      <trkpt lat="31.331010000000003" lon="35.096360000000004">
        <ele>843</ele>
        <time>2021-11-02T08:37:57Z</time>
      </trkpt>
      <trkpt lat="31.330990000000003" lon="35.09611">
        <ele>843</ele>
        <time>2021-11-02T08:37:58Z</time>
      </trkpt>
      <trkpt lat="31.331010000000003" lon="35.09572">
        <ele>840</ele>
        <time>2021-11-02T08:37:59Z</time>
      </trkpt>
      <trkpt lat="31.331010000000003" lon="35.09572">
        <ele>846.1836927978152</ele>
        <time>2021-11-02T08:38:00Z</time>
      </trkpt>
      <trkpt lat="31.330930000000002" lon="35.095290000000006">
        <ele>840</ele>
        <time>2021-11-02T08:38:01Z</time>
      </trkpt>
      <trkpt lat="31.330890000000004" lon="35.09517">
        <ele>840</ele>
        <time>2021-11-02T08:38:02Z</time>
      </trkpt>
      <trkpt lat="31.330640000000002" lon="35.09478">
        <ele>843</ele>
        <time>2021-11-02T08:38:03Z</time>
      </trkpt>
      <trkpt lat="31.330640000000002" lon="35.09478">
        <ele>837.9047336512594</ele>
        <time>2021-11-02T08:38:04Z</time>
      </trkpt>
      <trkpt lat="31.330270000000002" lon="35.094080000000005">
        <ele>838</ele>
        <time>2021-11-02T08:38:05Z</time>
      </trkpt>
      <trkpt lat="31.330090000000002" lon="35.09387">
        <ele>838</ele>
        <time>2021-11-02T08:38:06Z</time>
      </trkpt>
      <trkpt lat="31.32965" lon="35.09355">
        <ele>830</ele>
        <time>2021-11-02T08:38:07Z</time>
      </trkpt>
      <trkpt lat="31.329500000000003" lon="35.09339">
        <ele>830</ele>
        <time>2021-11-02T08:38:08Z</time>
      </trkpt>
      <trkpt lat="31.3287" lon="35.09243">
        <ele>826</ele>
        <time>2021-11-02T08:38:09Z</time>
      </trkpt>
      <trkpt lat="31.32852" lon="35.09225">
        <ele>817</ele>
        <time>2021-11-02T08:38:10Z</time>
      </trkpt>
      <trkpt lat="31.32852" lon="35.09225">
        <ele>824.0753926532436</ele>
        <time>2021-11-02T08:38:11Z</time>
      </trkpt>
      <trkpt lat="31.32852" lon="35.09225">
        <ele>824.0753926532436</ele>
        <time>2021-11-02T08:38:12Z</time>
      </trkpt>
      <trkpt lat="31.328400000000002" lon="35.09217">
        <ele>817</ele>
        <time>2021-11-02T08:38:13Z</time>
      </trkpt>
      <trkpt lat="31.32805" lon="35.09196">
        <ele>813</ele>
        <time>2021-11-02T08:38:14Z</time>
      </trkpt>
      <trkpt lat="31.327780000000004" lon="35.09183">
        <ele>813</ele>
        <time>2021-11-02T08:38:15Z</time>
      </trkpt>
      <trkpt lat="31.327230000000004" lon="35.09154">
        <ele>811</ele>
        <time>2021-11-02T08:38:16Z</time>
      </trkpt>
      <extensions>
        <RoutingType xmlns="">Hike</RoutingType>
      </extensions>
    </trkseg>
    <trkseg>
      <trkpt lat="31.327231" lon="35.091538">
        <ele>810.6</ele>
      </trkpt>
      <trkpt lat="31.326961" lon="35.091389">
        <ele>807.7659789226127</ele>
      </trkpt>
      <trkpt lat="31.326884" lon="35.091319">
        <ele>806.971010687238</ele>
      </trkpt>
      <trkpt lat="31.32648" lon="35.090772">
        <ele>802.2098794773297</ele>
      </trkpt>
      <trkpt lat="31.326304" lon="35.090364">
        <ele>799.5547625961203</ele>
      </trkpt>
      <trkpt lat="31.326147" lon="35.089961">
        <ele>797.6291804563865</ele>
      </trkpt>
      <trkpt lat="31.325497" lon="35.089026">
        <ele>785.7444991620324</ele>
      </trkpt>
      <trkpt lat="31.325234" lon="35.088566">
        <ele>780.7476726588427</ele>
      </trkpt>
      <trkpt lat="31.325153" lon="35.088455">
        <ele>779.8232228353809</ele>
      </trkpt>
      <trkpt lat="31.32509" lon="35.088396">
        <ele>779.2251488223362</ele>
      </trkpt>
      <trkpt lat="31.324695" lon="35.088152">
        <ele>775.3993837421236</ele>
      </trkpt>
      <trkpt lat="31.324012" lon="35.087912">
        <ele>768.7101283023599</ele>
      </trkpt>
      <trkpt lat="31.323906" lon="35.087897">
        <ele>767.720755993459</ele>
      </trkpt>
      <trkpt lat="31.323091" lon="35.088">
        <ele>764.1649768473754</ele>
      </trkpt>
      <trkpt lat="31.322422" lon="35.08811">
        <ele>761.865193159151</ele>
      </trkpt>
      <trkpt lat="31.321403" lon="35.087999">
        <ele>757.0752731951634</ele>
      </trkpt>
      <trkpt lat="31.320996" lon="35.087936">
        <ele>752.6864691833387</ele>
      </trkpt>
      <trkpt lat="31.320495" lon="35.087798">
        <ele>746.470474510958</ele>
      </trkpt>
      <trkpt lat="31.319321" lon="35.087207">
        <ele>729.2933026758926</ele>
      </trkpt>
      <trkpt lat="31.31917" lon="35.087122">
        <ele>728.7964765386913</ele>
      </trkpt>
      <trkpt lat="31.318951" lon="35.086999">
        <ele>728.9273631663242</ele>
      </trkpt>
      <trkpt lat="31.318043" lon="35.08659">
        <ele>728.578393050509</ele>
      </trkpt>
      <trkpt lat="31.317192" lon="35.086661">
        <ele>715.7386471452409</ele>
      </trkpt>
      <trkpt lat="31.31704" lon="35.08666">
        <ele>713.2597024276872</ele>
      </trkpt>
      <trkpt lat="31.316632" lon="35.086583">
        <ele>706.8789748561979</ele>
      </trkpt>
      <trkpt lat="31.315879" lon="35.086395">
        <ele>697.798051008596</ele>
      </trkpt>
      <trkpt lat="31.315375" lon="35.08629">
        <ele>692.876698630422</ele>
      </trkpt>
      <trkpt lat="31.314752" lon="35.086186">
        <ele>688.4942079169056</ele>
      </trkpt>
      <trkpt lat="31.314683" lon="35.086166">
        <ele>687.7037888313257</ele>
      </trkpt>
      <trkpt lat="31.314572" lon="35.0861">
        <ele>686.1886629957589</ele>
      </trkpt>
      <trkpt lat="31.314317" lon="35.085834">
        <ele>682.0620670914374</ele>
      </trkpt>
      <trkpt lat="31.314009" lon="35.085562">
        <ele>678.3655701869149</ele>
      </trkpt>
      <trkpt lat="31.313923" lon="35.085505">
        <ele>677.8160998253088</ele>
      </trkpt>
      <trkpt lat="31.313745" lon="35.085436">
        <ele>676.6977709463655</ele>
      </trkpt>
      <trkpt lat="31.313629" lon="35.085418">
        <ele>675.6568540094964</ele>
      </trkpt>
      <trkpt lat="31.312855" lon="35.08543">
        <ele>667.7516475721518</ele>
      </trkpt>
      <trkpt lat="31.31284" lon="35.085432">
        <ele>667.7012862564821</ele>
      </trkpt>
      <extensions>
        <RoutingType xmlns="">Hike</RoutingType>
      </extensions>
    </trkseg>
    <trkseg>
      <trkpt lat="31.31284" lon="35.085432">
        <ele>667.2</ele>
      </trkpt>
      <trkpt lat="31.312377" lon="35.085492">
        <ele>662.9569208414889</ele>
      </trkpt>
      <trkpt lat="31.311973" lon="35.085394">
        <ele>656.7045672643474</ele>
      </trkpt>
      <trkpt lat="31.311689" lon="35.085286">
        <ele>653.7010889373641</ele>
      </trkpt>
      <trkpt lat="31.311478" lon="35.085712">
        <ele>649.8653689743816</ele>
      </trkpt>
      <trkpt lat="31.311262" lon="35.086147">
        <ele>639.55418380755</ele>
      </trkpt>
      <trkpt lat="31.311037" lon="35.086855">
        <ele>623.1674661980053</ele>
      </trkpt>
      <trkpt lat="31.310602" lon="35.088079">
        <ele>599.8998960478319</ele>
      </trkpt>
      <trkpt lat="31.310129" lon="35.089103">
        <ele>601.6871634307572</ele>
      </trkpt>
      <trkpt lat="31.30927" lon="35.090301">
        <ele>605.3858122137208</ele>
      </trkpt>
      <trkpt lat="31.309529" lon="35.091055">
        <ele>606.6775527522452</ele>
      </trkpt>
      <trkpt lat="31.308758" lon="35.09121">
        <ele>603.304274851935</ele>
      </trkpt>
      <trkpt lat="31.308103" lon="35.092137">
        <ele>597.6438002326768</ele>
      </trkpt>
      <trkpt lat="31.307107" lon="35.093303">
        <ele>585.1088958275768</ele>
      </trkpt>
      <trkpt lat="31.306408" lon="35.093922">
        <ele>569.2622717241629</ele>
      </trkpt>
      <trkpt lat="31.306146" lon="35.094008">
        <ele>566.34051940635</ele>
      </trkpt>
      <extensions>
        <RoutingType xmlns="">Hike</RoutingType>
      </extensions>
    </trkseg>
    <trkseg>
      <trkpt lat="31.306146" lon="35.094008">
        <ele>565.5</ele>
      </trkpt>
      <trkpt lat="31.305764" lon="35.094134">
        <ele>565.418137538584</ele>
      </trkpt>
      <trkpt lat="31.305225" lon="35.094057">
        <ele>568.0869305415326</ele>
      </trkpt>
      <trkpt lat="31.304713" lon="35.093793">
        <ele>566.2179945865789</ele>
      </trkpt>
      <trkpt lat="31.304333" lon="35.093664">
        <ele>562.6402151756362</ele>
      </trkpt>
      <trkpt lat="31.303866" lon="35.093664">
        <ele>557.6335158213186</ele>
      </trkpt>
      <trkpt lat="31.302496" lon="35.094439">
        <ele>542.9789602440591</ele>
      </trkpt>
      <trkpt lat="31.302489" lon="35.094398">
        <ele>543.0054427267863</ele>
      </trkpt>
      <trkpt lat="31.302473" lon="35.094296">
        <ele>543.0711285536444</ele>
      </trkpt>
      <trkpt lat="31.302309" lon="35.094104">
        <ele>544.2446890608388</ele>
      </trkpt>
      <trkpt lat="31.301491" lon="35.093359">
        <ele>545.6328358681312</ele>
      </trkpt>
      <trkpt lat="31.300918" lon="35.092782">
        <ele>545.6769195044559</ele>
      </trkpt>
      <trkpt lat="31.300902" lon="35.092766">
        <ele>545.6067157999139</ele>
      </trkpt>
      <trkpt lat="31.3001" lon="35.092178">
        <ele>540.2773841686023</ele>
      </trkpt>
      <trkpt lat="31.299613" lon="35.092003">
        <ele>539.4835194851706</ele>
      </trkpt>
      <trkpt lat="31.299164" lon="35.091998">
        <ele>537.254668593927</ele>
      </trkpt>
      <trkpt lat="31.298641" lon="35.091976">
        <ele>533.9881947163647</ele>
      </trkpt>
      <trkpt lat="31.298162" lon="35.091765">
        <ele>531.4657780465257</ele>
      </trkpt>
      <trkpt lat="31.297649" lon="35.091746">
        <ele>528.9763597912024</ele>
      </trkpt>
      <trkpt lat="31.297051" lon="35.091387">
        <ele>528.1179976523601</ele>
      </trkpt>
      <trkpt lat="31.29625" lon="35.091039">
        <ele>525.1161702122088</ele>
      </trkpt>
      <trkpt lat="31.295557" lon="35.092076">
        <ele>526.38497573626</ele>
      </trkpt>
      <trkpt lat="31.295353" lon="35.092342">
        <ele>524.5432543355817</ele>
      </trkpt>
      <trkpt lat="31.295123" lon="35.092607">
        <ele>523.8215489644346</ele>
      </trkpt>
      <trkpt lat="31.294864" lon="35.092834">
        <ele>523.7</ele>
      </trkpt>
      <trkpt lat="31.294733" lon="35.093007">
        <ele>523.6028815489143</ele>
      </trkpt>
      <trkpt lat="31.294581" lon="35.093242">
        <ele>523.4257208961275</ele>
      </trkpt>
      <trkpt lat="31.294521" lon="35.093489">
        <ele>523.4858977438315</ele>
      </trkpt>
      <trkpt lat="31.293991" lon="35.094222">
        <ele>523.3116975162781</ele>
      </trkpt>
      <trkpt lat="31.293902" lon="35.094373">
        <ele>523.892686087027</ele>
      </trkpt>
      <trkpt lat="31.293765" lon="35.094587">
        <ele>524.0381216006007</ele>
      </trkpt>
      <trkpt lat="31.293682" lon="35.094684">
        <ele>523.9076893121577</ele>
      </trkpt>
      <trkpt lat="31.293515" lon="35.094951">
        <ele>522.1664617159363</ele>
      </trkpt>
      <trkpt lat="31.293433" lon="35.095063">
        <ele>521.4657651088907</ele>
      </trkpt>
      <trkpt lat="31.293388" lon="35.095154">
        <ele>520.9662596418012</ele>
      </trkpt>
      <trkpt lat="31.29322" lon="35.095399">
        <ele>519.9643153486672</ele>
      </trkpt>
      <extensions>
        <RoutingType xmlns="">Hike</RoutingType>
      </extensions>
    </trkseg>
    <trkseg>
      <trkpt lat="31.29322" lon="35.095399">
        <ele>519.8</ele>
      </trkpt>
      <trkpt lat="31.293218" lon="35.095401">
        <ele>519.7990249149668</ele>
      </trkpt>
      <trkpt lat="31.293156" lon="35.095475">
        <ele>519.7662007345579</ele>
      </trkpt>
      <trkpt lat="31.292954" lon="35.095766">
        <ele>519.3321825620127</ele>
      </trkpt>
      <trkpt lat="31.292566" lon="35.096351">
        <ele>517.1161542360326</ele>
      </trkpt>
      <trkpt lat="31.292406" lon="35.096678">
        <ele>516.567791793329</ele>
      </trkpt>
      <trkpt lat="31.292209" lon="35.097111">
        <ele>515.0491808211348</ele>
      </trkpt>
      <trkpt lat="31.292149" lon="35.0974">
        <ele>512.9437132641883</ele>
      </trkpt>
      <trkpt lat="31.292124" lon="35.097614">
        <ele>511.4092479396026</ele>
      </trkpt>
      <trkpt lat="31.292125" lon="35.097713">
        <ele>510.9075103190207</ele>
      </trkpt>
      <trkpt lat="31.292106" lon="35.098011">
        <ele>510.30085787097084</ele>
      </trkpt>
      <trkpt lat="31.292072" lon="35.098173">
        <ele>510.46202266495646</ele>
      </trkpt>
      <trkpt lat="31.292017" lon="35.098446">
        <ele>512.1499510863937</ele>
      </trkpt>
      <trkpt lat="31.291859" lon="35.098924">
        <ele>515.9620527387284</ele>
      </trkpt>
      <trkpt lat="31.291636" lon="35.098962">
        <ele>516.6</ele>
      </trkpt>
      <trkpt lat="31.291258" lon="35.09891">
        <ele>516.9161172121209</ele>
      </trkpt>
      <trkpt lat="31.290826" lon="35.09888">
        <ele>517</ele>
      </trkpt>
      <trkpt lat="31.290472" lon="35.098776">
        <ele>517.224140295451</ele>
      </trkpt>
      <trkpt lat="31.289541" lon="35.098337">
        <ele>516.3402496005452</ele>
      </trkpt>
      <trkpt lat="31.289174" lon="35.098241">
        <ele>517.7058959728579</ele>
      </trkpt>
      <trkpt lat="31.288838" lon="35.098217">
        <ele>518.3563778581229</ele>
      </trkpt>
      <trkpt lat="31.288625" lon="35.098136">
        <ele>518.0243275362029</ele>
      </trkpt>
      <trkpt lat="31.288103" lon="35.097882">
        <ele>516.5069155741778</ele>
      </trkpt>
      <trkpt lat="31.287314" lon="35.097675">
        <ele>516.9810374578547</ele>
      </trkpt>
      <trkpt lat="31.28644" lon="35.097429">
        <ele>517.8090432796831</ele>
      </trkpt>
      <trkpt lat="31.285624" lon="35.097131">
        <ele>517.47229664249</ele>
      </trkpt>
      <trkpt lat="31.284315" lon="35.096416">
        <ele>517.4431140949973</ele>
      </trkpt>
      <trkpt lat="31.283578" lon="35.096303">
        <ele>516.151112643978</ele>
      </trkpt>
      <extensions>
        <RoutingType xmlns="">Hike</RoutingType>
      </extensions>
    </trkseg>
    <trkseg>
      <trkpt lat="31.283578" lon="35.096303">
        <ele>515.9</ele>
      </trkpt>
      <trkpt lat="31.283266" lon="35.096255">
        <ele>514.4005164879552</ele>
      </trkpt>
      <trkpt lat="31.282731" lon="35.096098">
        <ele>511.44215334775794</ele>
      </trkpt>
      <trkpt lat="31.282417" lon="35.095613">
        <ele>510.8480507556036</ele>
      </trkpt>
      <trkpt lat="31.281956" lon="35.095147">
        <ele>509.1207720689855</ele>
      </trkpt>
      <trkpt lat="31.281319" lon="35.094806">
        <ele>508.30373128781673</ele>
      </trkpt>
      <trkpt lat="31.280392" lon="35.094551">
        <ele>502.75573330816883</ele>
      </trkpt>
      <trkpt lat="31.280025" lon="35.094449">
        <ele>500.97176145651514</ele>
      </trkpt>
      <trkpt lat="31.279087" lon="35.096502">
        <ele>493.77053783449253</ele>
      </trkpt>
      <trkpt lat="31.277673" lon="35.098802">
        <ele>485.16514903743723</ele>
      </trkpt>
      <trkpt lat="31.277857" lon="35.099271">
        <ele>485.16178135374423</ele>
      </trkpt>
      <trkpt lat="31.277831" lon="35.099818">
        <ele>486.54794007210313</ele>
      </trkpt>
      <trkpt lat="31.277048" lon="35.100999">
        <ele>489.9749596626192</ele>
      </trkpt>
      <trkpt lat="31.276182" lon="35.102183">
        <ele>487.7688515965131</ele>
      </trkpt>
      <trkpt lat="31.276618" lon="35.102433">
        <ele>488.57779847847115</ele>
      </trkpt>
      <trkpt lat="31.27732" lon="35.103167">
        <ele>490.41980499540347</ele>
      </trkpt>
      <trkpt lat="31.277476" lon="35.103578">
        <ele>490.60757188011576</ele>
      </trkpt>
      <trkpt lat="31.277137" lon="35.103688">
        <ele>491.32791520403134</ele>
      </trkpt>
      <trkpt lat="31.276871" lon="35.104079">
        <ele>492.2</ele>
      </trkpt>
      <trkpt lat="31.276615" lon="35.104269">
        <ele>491.8</ele>
      </trkpt>
      <extensions>
        <RoutingType xmlns="">Hike</RoutingType>
      </extensions>
    </trkseg>
    <trkseg>
      <trkpt lat="31.276615" lon="35.104269">
        <ele>491.8</ele>
      </trkpt>
      <trkpt lat="31.276128" lon="35.10463">
        <ele>494.09156729289367</ele>
      </trkpt>
      <trkpt lat="31.275377" lon="35.105274">
        <ele>493.37082686062183</ele>
      </trkpt>
      <trkpt lat="31.275103" lon="35.105693">
        <ele>492.874073064729</ele>
      </trkpt>
      <trkpt lat="31.274786" lon="35.106028">
        <ele>493.05276412023295</ele>
      </trkpt>
      <trkpt lat="31.274641" lon="35.106083">
        <ele>493.75204232061327</ele>
      </trkpt>
      <trkpt lat="31.274065" lon="35.106622">
        <ele>497.2695671133035</ele>
      </trkpt>
      <trkpt lat="31.27378" lon="35.106874">
        <ele>498.5326932921881</ele>
      </trkpt>
      <trkpt lat="31.273016" lon="35.107672">
        <ele>498.5307032215012</ele>
      </trkpt>
      <trkpt lat="31.272795" lon="35.107781">
        <ele>498.41887923654514</ele>
      </trkpt>
      <trkpt lat="31.272383" lon="35.108186">
        <ele>492.9841007963816</ele>
      </trkpt>
      <trkpt lat="31.271967" lon="35.108737">
        <ele>492.4473917223269</ele>
      </trkpt>
      <trkpt lat="31.271845" lon="35.109209">
        <ele>492.0216530819837</ele>
      </trkpt>
      <trkpt lat="31.271721" lon="35.109832">
        <ele>493.88758191525847</ele>
      </trkpt>
      <trkpt lat="31.271711" lon="35.110163">
        <ele>495.2</ele>
      </trkpt>
      <trkpt lat="31.271657" lon="35.112027">
        <ele>498.5366584930913</ele>
      </trkpt>
      <trkpt lat="31.272279" lon="35.115408">
        <ele>506</ele>
      </trkpt>
      <trkpt lat="31.272299" lon="35.115686">
        <ele>506.774414913627</ele>
      </trkpt>
      <trkpt lat="31.272309" lon="35.115826">
        <ele>507.4499437233792</ele>
      </trkpt>
      <trkpt lat="31.272319" lon="35.115965">
        <ele>508.2453751226129</ele>
      </trkpt>
      <trkpt lat="31.272447" lon="35.116425">
        <ele>510.6799840666331</ele>
      </trkpt>
      <trkpt lat="31.272566" lon="35.116686">
        <ele>511.7690929947308</ele>
      </trkpt>
      <trkpt lat="31.273031" lon="35.117606">
        <ele>516.8856026412311</ele>
      </trkpt>
      <trkpt lat="31.27364" lon="35.118868">
        <ele>528.7022583814025</ele>
      </trkpt>
      <trkpt lat="31.273777" lon="35.119053">
        <ele>531.106160079891</ele>
      </trkpt>
      <trkpt lat="31.273874" lon="35.119179">
        <ele>532.1631760168513</ele>
      </trkpt>
      <trkpt lat="31.27407" lon="35.119733">
        <ele>533.7</ele>
      </trkpt>
      <trkpt lat="31.274095" lon="35.119988">
        <ele>533.8097485910642</ele>
      </trkpt>
      <trkpt lat="31.274095" lon="35.120374">
        <ele>534.4211571232662</ele>
      </trkpt>
      <trkpt lat="31.274162" lon="35.1206">
        <ele>534.8600879538209</ele>
      </trkpt>
      <trkpt lat="31.27414" lon="35.120963">
        <ele>535.7823613091422</ele>
      </trkpt>
      <trkpt lat="31.274229" lon="35.121372">
        <ele>535.6790327099227</ele>
      </trkpt>
      <trkpt lat="31.274367" lon="35.121805">
        <ele>532.4074134234835</ele>
      </trkpt>
      <trkpt lat="31.27441" lon="35.122062">
        <ele>529.7526731208839</ele>
      </trkpt>
      <trkpt lat="31.274504" lon="35.122477">
        <ele>526.5594764312857</ele>
      </trkpt>
      <trkpt lat="31.274767" lon="35.123144">
        <ele>525.6305686261446</ele>
      </trkpt>
      <trkpt lat="31.275267" lon="35.124634">
        <ele>524.67196488799</ele>
      </trkpt>
      <trkpt lat="31.275386" lon="35.124979">
        <ele>521.4236724354838</ele>
      </trkpt>
      <trkpt lat="31.275359" lon="35.12505">
        <ele>521.2831476561103</ele>
      </trkpt>
      <trkpt lat="31.275368" lon="35.12527">
        <ele>521.632013099065</ele>
      </trkpt>
      <trkpt lat="31.275404" lon="35.125569">
        <ele>522.8488031745208</ele>
      </trkpt>
      <trkpt lat="31.275403" lon="35.126053">
        <ele>523</ele>
      </trkpt>
      <trkpt lat="31.27542" lon="35.126217">
        <ele>523</ele>
      </trkpt>
      <trkpt lat="31.27545" lon="35.126303">
        <ele>523.2057093186602</ele>
      </trkpt>
      <trkpt lat="31.275515" lon="35.1264">
        <ele>523.6742733640558</ele>
      </trkpt>
      <trkpt lat="31.275638" lon="35.1265">
        <ele>524.3053453463286</ele>
      </trkpt>
      <trkpt lat="31.275682" lon="35.126663">
        <ele>524.792699380868</ele>
      </trkpt>
      <trkpt lat="31.275706" lon="35.12678">
        <ele>525.1119162216096</ele>
      </trkpt>
      <trkpt lat="31.275743" lon="35.12692">
        <ele>525.251182391418</ele>
      </trkpt>
      <trkpt lat="31.27596" lon="35.12685">
        <ele>525.7044340106186</ele>
      </trkpt>
      <extensions>
        <RoutingType xmlns="">Hike</RoutingType>
      </extensions>
    </trkseg>
    <trkseg>
      <trkpt lat="31.275920000000003" lon="35.12668">
        <ele>522.1628627399332</ele>
        <time>2021-11-02T08:43:40Z</time>
      </trkpt>
      <trkpt lat="31.275920000000003" lon="35.12668">
        <ele>525</ele>
        <time>2021-11-02T08:43:41Z</time>
      </trkpt>
      <trkpt lat="31.275820000000003" lon="35.12689">
        <ele>525</ele>
        <time>2021-11-02T08:43:42Z</time>
      </trkpt>
      <trkpt lat="31.275820000000003" lon="35.12689">
        <ele>521.2103969138698</ele>
        <time>2021-11-02T08:43:43Z</time>
      </trkpt>
      <trkpt lat="31.275740000000003" lon="35.12691">
        <ele>525</ele>
        <time>2021-11-02T08:43:44Z</time>
      </trkpt>
      <trkpt lat="31.27548" lon="35.12706">
        <ele>520</ele>
        <time>2021-11-02T08:43:45Z</time>
      </trkpt>
      <trkpt lat="31.275270000000003" lon="35.127250000000004">
        <ele>520</ele>
        <time>2021-11-02T08:43:46Z</time>
      </trkpt>
      <trkpt lat="31.275150000000004" lon="35.12745">
        <ele>518</ele>
        <time>2021-11-02T08:43:47Z</time>
      </trkpt>
      <trkpt lat="31.275150000000004" lon="35.12745">
        <ele>519.3164863846833</ele>
        <time>2021-11-02T08:43:48Z</time>
      </trkpt>
      <trkpt lat="31.275060000000003" lon="35.12763">
        <ele>518</ele>
        <time>2021-11-02T08:43:49Z</time>
      </trkpt>
      <trkpt lat="31.27493" lon="35.1281">
        <ele>518</ele>
        <time>2021-11-02T08:43:50Z</time>
      </trkpt>
      <trkpt lat="31.274880000000003" lon="35.12834">
        <ele>518</ele>
        <time>2021-11-02T08:43:51Z</time>
      </trkpt>
      <trkpt lat="31.274610000000003" lon="35.12836">
        <ele>517</ele>
        <time>2021-11-02T08:43:52Z</time>
      </trkpt>
      <trkpt lat="31.274530000000002" lon="35.12838">
        <ele>517</ele>
        <time>2021-11-02T08:43:53Z</time>
      </trkpt>
      <trkpt lat="31.274530000000002" lon="35.12838">
        <ele>516.7314257400133</ele>
        <time>2021-11-02T08:43:54Z</time>
      </trkpt>
      <trkpt lat="31.274480000000004" lon="35.12843">
        <ele>517</ele>
        <time>2021-11-02T08:43:55Z</time>
      </trkpt>
      <trkpt lat="31.274480000000004" lon="35.12843">
        <ele>516.4516501355645</ele>
        <time>2021-11-02T08:43:56Z</time>
      </trkpt>
      <trkpt lat="31.27436" lon="35.12863">
        <ele>517</ele>
        <time>2021-11-02T08:43:57Z</time>
      </trkpt>
      <trkpt lat="31.274150000000002" lon="35.129070000000006">
        <ele>516</ele>
        <time>2021-11-02T08:43:58Z</time>
      </trkpt>
      <trkpt lat="31.273940000000003" lon="35.129690000000004">
        <ele>515.5</ele>
        <time>2021-11-02T08:43:59Z</time>
      </trkpt>
      <trkpt lat="31.273940000000003" lon="35.129690000000004">
        <ele>515.5</ele>
        <time>2021-11-02T08:44:00Z</time>
      </trkpt>
      <trkpt lat="31.27286" lon="35.133280000000006">
        <ele>508</ele>
        <time>2021-11-02T08:44:01Z</time>
      </trkpt>
      <trkpt lat="31.272700000000004" lon="35.13376">
        <ele>508</ele>
        <time>2021-11-02T08:44:02Z</time>
      </trkpt>
      <trkpt lat="31.27259" lon="35.13401">
        <ele>508</ele>
        <time>2021-11-02T08:44:03Z</time>
      </trkpt>
      <trkpt lat="31.27259" lon="35.13401">
        <ele>506.0517442816031</ele>
        <time>2021-11-02T08:44:04Z</time>
      </trkpt>
      <trkpt lat="31.272460000000002" lon="35.134260000000005">
        <ele>507</ele>
        <time>2021-11-02T08:44:05Z</time>
      </trkpt>
      <trkpt lat="31.272460000000002" lon="35.134260000000005">
        <ele>505.40883979205995</ele>
        <time>2021-11-02T08:44:06Z</time>
      </trkpt>
      <trkpt lat="31.272130000000004" lon="35.134780000000006">
        <ele>507</ele>
        <time>2021-11-02T08:44:07Z</time>
      </trkpt>
      <trkpt lat="31.271500000000003" lon="35.13555">
        <ele>507</ele>
        <time>2021-11-02T08:44:08Z</time>
      </trkpt>
      <trkpt lat="31.271380000000004" lon="35.135740000000006">
        <ele>503</ele>
        <time>2021-11-02T08:44:09Z</time>
      </trkpt>
      <trkpt lat="31.27099" lon="35.13655">
        <ele>502</ele>
        <time>2021-11-02T08:44:10Z</time>
      </trkpt>
      <trkpt lat="31.270860000000003" lon="35.13678">
        <ele>502</ele>
        <time>2021-11-02T08:44:11Z</time>
      </trkpt>
      <trkpt lat="31.270860000000003" lon="35.13678">
        <ele>499.43955985653884</ele>
        <time>2021-11-02T08:44:12Z</time>
      </trkpt>
      <trkpt lat="31.270470000000003" lon="35.1373">
        <ele>505</ele>
        <time>2021-11-02T08:44:13Z</time>
      </trkpt>
      <trkpt lat="31.270260000000004" lon="35.1377">
        <ele>501</ele>
        <time>2021-11-02T08:44:14Z</time>
      </trkpt>
      <trkpt lat="31.269990000000004" lon="35.13834">
        <ele>499</ele>
        <time>2021-11-02T08:44:15Z</time>
      </trkpt>
      <trkpt lat="31.269890000000004" lon="35.13853">
        <ele>499</ele>
        <time>2021-11-02T08:44:16Z</time>
      </trkpt>
      <trkpt lat="31.269890000000004" lon="35.13853">
        <ele>497.11324088892434</ele>
        <time>2021-11-02T08:44:17Z</time>
      </trkpt>
      <trkpt lat="31.269260000000003" lon="35.139660000000006">
        <ele>498</ele>
        <time>2021-11-02T08:44:18Z</time>
      </trkpt>
      <trkpt lat="31.269150000000003" lon="35.139880000000005">
        <ele>496</ele>
        <time>2021-11-02T08:44:19Z</time>
      </trkpt>
      <trkpt lat="31.269150000000003" lon="35.139880000000005">
        <ele>495.0972606684463</ele>
        <time>2021-11-02T08:44:20Z</time>
      </trkpt>
      <trkpt lat="31.268780000000003" lon="35.1405">
        <ele>491</ele>
        <time>2021-11-02T08:44:21Z</time>
      </trkpt>
      <trkpt lat="31.26845" lon="35.14126">
        <ele>495</ele>
        <time>2021-11-02T08:44:22Z</time>
      </trkpt>
      <trkpt lat="31.267850000000003" lon="35.14233">
        <ele>494</ele>
        <time>2021-11-02T08:44:23Z</time>
      </trkpt>
      <trkpt lat="31.26771" lon="35.14251">
        <ele>493.5</ele>
        <time>2021-11-02T08:44:24Z</time>
      </trkpt>
      <trkpt lat="31.26771" lon="35.14251">
        <ele>493.5</ele>
        <time>2021-11-02T08:44:25Z</time>
      </trkpt>
      <trkpt lat="31.267580000000002" lon="35.142610000000005">
        <ele>493</ele>
        <time>2021-11-02T08:44:26Z</time>
      </trkpt>
      <trkpt lat="31.267450000000004" lon="35.142630000000004">
        <ele>493</ele>
        <time>2021-11-02T08:44:27Z</time>
      </trkpt>
      <trkpt lat="31.267450000000004" lon="35.142630000000004">
        <ele>492.17112533329055</ele>
        <time>2021-11-02T08:44:28Z</time>
      </trkpt>
      <trkpt lat="31.267450000000004" lon="35.142630000000004">
        <ele>492.17112533329055</ele>
        <time>2021-11-02T08:44:29Z</time>
      </trkpt>
      <trkpt lat="31.267350000000004" lon="35.14262">
        <ele>493</ele>
        <time>2021-11-02T08:44:30Z</time>
      </trkpt>
      <trkpt lat="31.26714" lon="35.14256">
        <ele>496</ele>
        <time>2021-11-02T08:44:31Z</time>
      </trkpt>
      <trkpt lat="31.266230000000004" lon="35.142230000000005">
        <ele>500</ele>
        <time>2021-11-02T08:44:32Z</time>
      </trkpt>
      <trkpt lat="31.265960000000003" lon="35.142210000000006">
        <ele>500</ele>
        <time>2021-11-02T08:44:33Z</time>
      </trkpt>
      <trkpt lat="31.265710000000002" lon="35.14253">
        <ele>495</ele>
        <time>2021-11-02T08:44:34Z</time>
      </trkpt>
      <extensions>
        <RoutingType xmlns="">Hike</RoutingType>
      </extensions>
    </trkseg>
    <trkseg>
      <trkpt lat="31.265710000000002" lon="35.14253">
        <ele>495</ele>
        <time>2021-11-02T08:44:34Z</time>
      </trkpt>
      <trkpt lat="31.265200000000004" lon="35.14331">
        <ele>492</ele>
        <time>2021-11-02T08:44:35Z</time>
      </trkpt>
      <trkpt lat="31.265200000000004" lon="35.14331">
        <ele>493.1904817777686</ele>
        <time>2021-11-02T08:44:36Z</time>
      </trkpt>
      <trkpt lat="31.264750000000003" lon="35.14392">
        <ele>491.5</ele>
        <time>2021-11-02T08:44:37Z</time>
      </trkpt>
      <trkpt lat="31.264750000000003" lon="35.14392">
        <ele>491.5</ele>
        <time>2021-11-02T08:44:38Z</time>
      </trkpt>
      <trkpt lat="31.264680000000002" lon="35.14401">
        <ele>491</ele>
        <time>2021-11-02T08:44:39Z</time>
      </trkpt>
      <trkpt lat="31.264680000000002" lon="35.14401">
        <ele>491.34733984508057</ele>
        <time>2021-11-02T08:44:40Z</time>
      </trkpt>
      <trkpt lat="31.26461" lon="35.14414">
        <ele>489</ele>
        <time>2021-11-02T08:44:41Z</time>
      </trkpt>
      <trkpt lat="31.264570000000003" lon="35.144290000000005">
        <ele>489</ele>
        <time>2021-11-02T08:44:42Z</time>
      </trkpt>
      <trkpt lat="31.264540000000004" lon="35.14459">
        <ele>489</ele>
        <time>2021-11-02T08:44:43Z</time>
      </trkpt>
      <trkpt lat="31.264540000000004" lon="35.14459">
        <ele>490.8861447299812</ele>
        <time>2021-11-02T08:44:44Z</time>
      </trkpt>
      <trkpt lat="31.264560000000003" lon="35.14499">
        <ele>490</ele>
        <time>2021-11-02T08:44:45Z</time>
      </trkpt>
      <trkpt lat="31.265140000000002" lon="35.14882">
        <ele>502</ele>
        <time>2021-11-02T08:44:46Z</time>
      </trkpt>
      <trkpt lat="31.26518" lon="35.14947">
        <ele>503</ele>
        <time>2021-11-02T08:44:47Z</time>
      </trkpt>
      <trkpt lat="31.265210000000003" lon="35.149640000000005">
        <ele>503</ele>
        <time>2021-11-02T08:44:48Z</time>
      </trkpt>
      <trkpt lat="31.265310000000003" lon="35.14999">
        <ele>503</ele>
        <time>2021-11-02T08:44:49Z</time>
      </trkpt>
      <trkpt lat="31.265380000000004" lon="35.15052">
        <ele>503</ele>
        <time>2021-11-02T08:44:50Z</time>
      </trkpt>
      <trkpt lat="31.265380000000004" lon="35.15052">
        <ele>503.6160323359072</ele>
        <time>2021-11-02T08:44:51Z</time>
      </trkpt>
      <trkpt lat="31.265380000000004" lon="35.150510000000004">
        <ele>503</ele>
        <time>2021-11-02T08:44:52Z</time>
      </trkpt>
      <trkpt lat="31.265660000000004" lon="35.15225">
        <ele>503</ele>
        <time>2021-11-02T08:44:53Z</time>
      </trkpt>
      <trkpt lat="31.265780000000003" lon="35.15332">
        <ele>506</ele>
        <time>2021-11-02T08:44:54Z</time>
      </trkpt>
      <trkpt lat="31.26591" lon="35.15404">
        <ele>508</ele>
        <time>2021-11-02T08:44:55Z</time>
      </trkpt>
      <trkpt lat="31.26591" lon="35.154410000000006">
        <ele>508</ele>
        <time>2021-11-02T08:44:56Z</time>
      </trkpt>
      <trkpt lat="31.265880000000003" lon="35.15473">
        <ele>508</ele>
        <time>2021-11-02T08:44:57Z</time>
      </trkpt>
      <trkpt lat="31.265880000000003" lon="35.15549">
        <ele>509</ele>
        <time>2021-11-02T08:44:58Z</time>
      </trkpt>
      <trkpt lat="31.265840000000004" lon="35.155930000000005">
        <ele>509</ele>
        <time>2021-11-02T08:44:59Z</time>
      </trkpt>
      <trkpt lat="31.265840000000004" lon="35.155930000000005">
        <ele>509</ele>
        <time>2021-11-02T08:45:00Z</time>
      </trkpt>
      <trkpt lat="31.26582" lon="35.15616">
        <ele>509</ele>
        <time>2021-11-02T08:45:01Z</time>
      </trkpt>
      <trkpt lat="31.26574" lon="35.156310000000005">
        <ele>509</ele>
        <time>2021-11-02T08:45:02Z</time>
      </trkpt>
      <trkpt lat="31.26564" lon="35.156420000000004">
        <ele>509</ele>
        <time>2021-11-02T08:45:03Z</time>
      </trkpt>
      <trkpt lat="31.265410000000003" lon="35.156600000000005">
        <ele>509</ele>
        <time>2021-11-02T08:45:04Z</time>
      </trkpt>
      <trkpt lat="31.265090000000004" lon="35.15697">
        <ele>509</ele>
        <time>2021-11-02T08:45:05Z</time>
      </trkpt>
      <trkpt lat="31.264860000000002" lon="35.15715">
        <ele>509</ele>
        <time>2021-11-02T08:45:06Z</time>
      </trkpt>
      <trkpt lat="31.2647" lon="35.157230000000006">
        <ele>507</ele>
        <time>2021-11-02T08:45:07Z</time>
      </trkpt>
      <trkpt lat="31.264570000000003" lon="35.157250000000005">
        <ele>507</ele>
        <time>2021-11-02T08:45:08Z</time>
      </trkpt>
      <trkpt lat="31.264340000000004" lon="35.15724">
        <ele>507</ele>
        <time>2021-11-02T08:45:09Z</time>
      </trkpt>
      <trkpt lat="31.263930000000002" lon="35.15713">
        <ele>507</ele>
        <time>2021-11-02T08:45:10Z</time>
      </trkpt>
      <trkpt lat="31.262960000000003" lon="35.15695">
        <ele>506</ele>
        <time>2021-11-02T08:45:11Z</time>
      </trkpt>
      <trkpt lat="31.262850000000004" lon="35.15695">
        <ele>506</ele>
        <time>2021-11-02T08:45:12Z</time>
      </trkpt>
      <trkpt lat="31.262320000000003" lon="35.157050000000005">
        <ele>506</ele>
        <time>2021-11-02T08:45:13Z</time>
      </trkpt>
      <trkpt lat="31.262140000000002" lon="35.157140000000005">
        <ele>508</ele>
        <time>2021-11-02T08:45:14Z</time>
      </trkpt>
      <trkpt lat="31.261950000000002" lon="35.1572">
        <ele>508</ele>
        <time>2021-11-02T08:45:15Z</time>
      </trkpt>
      <trkpt lat="31.261560000000003" lon="35.157160000000005">
        <ele>508</ele>
        <time>2021-11-02T08:45:16Z</time>
      </trkpt>
      <trkpt lat="31.261180000000003" lon="35.157160000000005">
        <ele>510</ele>
        <time>2021-11-02T08:45:17Z</time>
      </trkpt>
      <trkpt lat="31.26103" lon="35.1572">
        <ele>510</ele>
        <time>2021-11-02T08:45:18Z</time>
      </trkpt>
      <trkpt lat="31.259670000000003" lon="35.157830000000004">
        <ele>513</ele>
        <time>2021-11-02T08:45:19Z</time>
      </trkpt>
      <trkpt lat="31.2588" lon="35.15818">
        <ele>513</ele>
        <time>2021-11-02T08:45:20Z</time>
      </trkpt>
      <trkpt lat="31.2588" lon="35.15818">
        <ele>513</ele>
        <time>2021-11-02T08:45:21Z</time>
      </trkpt>
      <trkpt lat="31.25841" lon="35.158370000000005">
        <ele>513</ele>
        <time>2021-11-02T08:45:22Z</time>
      </trkpt>
      <trkpt lat="31.25831" lon="35.15845">
        <ele>513</ele>
        <time>2021-11-02T08:45:23Z</time>
      </trkpt>
      <trkpt lat="31.258270000000003" lon="35.15854">
        <ele>513</ele>
        <time>2021-11-02T08:45:24Z</time>
      </trkpt>
      <trkpt lat="31.258270000000003" lon="35.15854">
        <ele>513</ele>
        <time>2021-11-02T08:45:25Z</time>
      </trkpt>
      <trkpt lat="31.258270000000003" lon="35.158620000000006">
        <ele>513</ele>
        <time>2021-11-02T08:45:26Z</time>
      </trkpt>
      <trkpt lat="31.258290000000002" lon="35.15883">
        <ele>513</ele>
        <time>2021-11-02T08:45:27Z</time>
      </trkpt>
      <trkpt lat="31.258340000000004" lon="35.159090000000006">
        <ele>515</ele>
        <time>2021-11-02T08:45:28Z</time>
      </trkpt>
      <extensions>
        <RoutingType xmlns="">Hike</RoutingType>
      </extensions>
    </trkseg>
    <trkseg>
      <trkpt lat="31.258340000000004" lon="35.159090000000006">
        <ele>515</ele>
        <time>2021-11-02T08:45:28Z</time>
      </trkpt>
      <trkpt lat="31.258490000000002" lon="35.159580000000005">
        <ele>515</ele>
        <time>2021-11-02T08:45:29Z</time>
      </trkpt>
      <trkpt lat="31.258840000000003" lon="35.16049">
        <ele>518</ele>
        <time>2021-11-02T08:45:30Z</time>
      </trkpt>
      <trkpt lat="31.258860000000002" lon="35.160590000000006">
        <ele>518</ele>
        <time>2021-11-02T08:45:31Z</time>
      </trkpt>
      <trkpt lat="31.258960000000002" lon="35.160720000000005">
        <ele>514</ele>
        <time>2021-11-02T08:45:32Z</time>
      </trkpt>
      <trkpt lat="31.259030000000003" lon="35.16087">
        <ele>514</ele>
        <time>2021-11-02T08:45:33Z</time>
      </trkpt>
      <trkpt lat="31.25886630178633" lon="35.16098084447245">
        <ele>514</ele>
        <time>2021-11-02T08:45:34Z</time>
      </trkpt>
      <trkpt lat="31.25856798568931" lon="35.161231196752595">
        <ele>514</ele>
        <time>2021-11-02T08:45:35Z</time>
      </trkpt>
      <extensions>
        <RoutingType xmlns="">Hike</RoutingType>
      </extensions>
    </trkseg>
  </trk>
</gpx>
