<?xml version="1.0" encoding="UTF-8" standalone="yes"?>
<gpx xmlns="http://www.topografix.com/GPX/1/1" xmlns:xsi="http://www.w3.org/2001/XMLSchema-instance" version="1.1" creator="IsraelHikingMap" xsi:schemaLocation="http://www.topografix.com/GPX/1/1 http://www.topografix.com/GPX/1/1/gpx.xsd">
  <metadata>
    <bounds maxlat="31.331390000000003" maxlon="35.27846" minlat="31.255755" minlon="35.161173"></bounds>
  </metadata>
  <trk>
    <name>33 - ערד לכפר הנוקדים</name>
    <desc>🏞️ קושי: קל | מדבר יהודה
🥾 ערד, שביל הבורות, נחל דומיה, נחל רחף עליון, כפר הנוקדים
⛺ לילה: כפר הנוקדים</desc>
    <trkseg>
      <trkpt lat="31.259141" lon="35.161173">
        <ele>515.6</ele>
      </trkpt>
      <trkpt lat="31.259141" lon="35.161173">
        <ele>515.6</ele>
      </trkpt>
      <extensions>
        <RoutingType xmlns="">Hike</RoutingType>
      </extensions>
    </trkseg>
    <trkseg>
      <trkpt lat="31.259141" lon="35.161173">
        <ele>515.6</ele>
      </trkpt>
      <trkpt lat="31.25971" lon="35.163113">
        <ele>520.8015358582588</ele>
      </trkpt>
      <trkpt lat="31.259956" lon="35.163854">
        <ele>521.6777862941393</ele>
      </trkpt>
      <trkpt lat="31.259811" lon="35.164888">
        <ele>515.6237985877822</ele>
      </trkpt>
      <trkpt lat="31.259341" lon="35.165432">
        <ele>517.2115540272841</ele>
      </trkpt>
      <trkpt lat="31.259298" lon="35.165613">
        <ele>518.0062804212481</ele>
      </trkpt>
      <trkpt lat="31.259081" lon="35.166084">
        <ele>518.7312495032912</ele>
      </trkpt>
      <trkpt lat="31.258949" lon="35.166618">
        <ele>519.855444315983</ele>
      </trkpt>
      <trkpt lat="31.258821" lon="35.167023">
        <ele>521.7734863500472</ele>
      </trkpt>
      <trkpt lat="31.258377" lon="35.168073">
        <ele>526.8272214917592</ele>
      </trkpt>
      <trkpt lat="31.257952" lon="35.168886">
        <ele>528.550855778261</ele>
      </trkpt>
      <trkpt lat="31.257794" lon="35.169286">
        <ele>527.3991702104782</ele>
      </trkpt>
      <trkpt lat="31.257714" lon="35.169448">
        <ele>527.0434999641113</ele>
      </trkpt>
      <trkpt lat="31.25761" lon="35.169603">
        <ele>527.3310959580915</ele>
      </trkpt>
      <trkpt lat="31.257315" lon="35.169966">
        <ele>527.6306097324048</ele>
      </trkpt>
      <trkpt lat="31.257122" lon="35.170253">
        <ele>527.0816860521759</ele>
      </trkpt>
      <trkpt lat="31.257033" lon="35.170421">
        <ele>526.8311921666523</ele>
      </trkpt>
      <trkpt lat="31.256842" lon="35.170854">
        <ele>526.346586260175</ele>
      </trkpt>
      <trkpt lat="31.256654" lon="35.171377">
        <ele>527.0581215129776</ele>
      </trkpt>
      <trkpt lat="31.256312" lon="35.172083">
        <ele>528.2338808312693</ele>
      </trkpt>
      <trkpt lat="31.256198" lon="35.172442">
        <ele>529.7866604232491</ele>
      </trkpt>
      <trkpt lat="31.256002" lon="35.172916">
        <ele>532.2881496709296</ele>
      </trkpt>
      <trkpt lat="31.255975" lon="35.173047">
        <ele>532.6286941139007</ele>
      </trkpt>
      <trkpt lat="31.255973" lon="35.173077">
        <ele>532.647763006549</ele>
      </trkpt>
      <extensions>
        <RoutingType xmlns="">Hike</RoutingType>
      </extensions>
    </trkseg>
    <trkseg>
      <trkpt lat="31.255973" lon="35.173077">
        <ele>532.8</ele>
      </trkpt>
      <trkpt lat="31.255918" lon="35.173766">
        <ele>531.5881246303592</ele>
      </trkpt>
      <trkpt lat="31.255815" lon="35.174328">
        <ele>529.8944827682546</ele>
      </trkpt>
      <trkpt lat="31.255755" lon="35.174581">
        <ele>529.5617167268013</ele>
      </trkpt>
      <trkpt lat="31.255956" lon="35.174769">
        <ele>528.3805865260971</ele>
      </trkpt>
      <trkpt lat="31.256406" lon="35.175268">
        <ele>524.680439471929</ele>
      </trkpt>
      <trkpt lat="31.256664" lon="35.175484">
        <ele>524.3631222420535</ele>
      </trkpt>
      <trkpt lat="31.257071" lon="35.175862">
        <ele>524.7399556026545</ele>
      </trkpt>
      <trkpt lat="31.257974" lon="35.176536">
        <ele>527.3149135347295</ele>
      </trkpt>
      <trkpt lat="31.258088" lon="35.176654">
        <ele>527.0328117979582</ele>
      </trkpt>
      <trkpt lat="31.258149" lon="35.176755">
        <ele>526.7864167347325</ele>
      </trkpt>
      <trkpt lat="31.258302" lon="35.177352">
        <ele>526.051423249865</ele>
      </trkpt>
      <trkpt lat="31.25838" lon="35.177584">
        <ele>527.2362576053606</ele>
      </trkpt>
      <trkpt lat="31.258551" lon="35.177958">
        <ele>529.5816281427528</ele>
      </trkpt>
      <trkpt lat="31.258578" lon="35.178073">
        <ele>530.0350648365493</ele>
      </trkpt>
      <trkpt lat="31.258601" lon="35.178418">
        <ele>531.1380866444106</ele>
      </trkpt>
      <trkpt lat="31.258547" lon="35.179037">
        <ele>531.0473888081563</ele>
      </trkpt>
      <trkpt lat="31.258573" lon="35.179576">
        <ele>527.5572076352712</ele>
      </trkpt>
      <trkpt lat="31.258595" lon="35.17975">
        <ele>526.4983253374827</ele>
      </trkpt>
      <trkpt lat="31.258632" lon="35.179901">
        <ele>526.0878339530703</ele>
      </trkpt>
      <trkpt lat="31.258712" lon="35.180153">
        <ele>525.9381435493971</ele>
      </trkpt>
      <trkpt lat="31.258929" lon="35.180767">
        <ele>527.537473181187</ele>
      </trkpt>
      <trkpt lat="31.259127" lon="35.180701">
        <ele>526.5520542299134</ele>
      </trkpt>
      <trkpt lat="31.259771" lon="35.18042">
        <ele>521.0870050011386</ele>
      </trkpt>
      <trkpt lat="31.260115" lon="35.18036">
        <ele>518.5970787718966</ele>
      </trkpt>
      <trkpt lat="31.260231" lon="35.180367">
        <ele>518.1235008658792</ele>
      </trkpt>
      <trkpt lat="31.260302" lon="35.1804">
        <ele>517.8120124409879</ele>
      </trkpt>
      <trkpt lat="31.260418" lon="35.180556">
        <ele>517.3514176984401</ele>
      </trkpt>
      <trkpt lat="31.260428" lon="35.180565">
        <ele>517.3327118019081</ele>
      </trkpt>
      <trkpt lat="31.26047" lon="35.180607">
        <ele>517.2507926460705</ele>
      </trkpt>
      <trkpt lat="31.260518" lon="35.180629">
        <ele>517.1743608985942</ele>
      </trkpt>
      <trkpt lat="31.260817" lon="35.180686">
        <ele>515.4134738165521</ele>
      </trkpt>
      <trkpt lat="31.260897" lon="35.180678">
        <ele>514.455583396331</ele>
      </trkpt>
      <trkpt lat="31.261042" lon="35.180605">
        <ele>512.3492318181154</ele>
      </trkpt>
      <trkpt lat="31.261147" lon="35.180716">
        <ele>511.0115952980285</ele>
      </trkpt>
      <trkpt lat="31.261165" lon="35.180752">
        <ele>510.74731508274397</ele>
      </trkpt>
      <trkpt lat="31.261159" lon="35.181042">
        <ele>509.89771712161865</ele>
      </trkpt>
      <trkpt lat="31.261154" lon="35.181235">
        <ele>510.2036036942074</ele>
      </trkpt>
      <trkpt lat="31.261153" lon="35.181298">
        <ele>510.3034240625155</ele>
      </trkpt>
      <trkpt lat="31.261216" lon="35.181472">
        <ele>510.60277799965644</ele>
      </trkpt>
      <trkpt lat="31.261233" lon="35.181518">
        <ele>510.6821689428622</ele>
      </trkpt>
      <trkpt lat="31.26134" lon="35.181734">
        <ele>510.8510625578287</ele>
      </trkpt>
      <trkpt lat="31.261421" lon="35.181897">
        <ele>511.4290188222429</ele>
      </trkpt>
      <trkpt lat="31.26152" lon="35.18203">
        <ele>512.2671640727987</ele>
      </trkpt>
      <trkpt lat="31.261607" lon="35.182187">
        <ele>513.1563743299484</ele>
      </trkpt>
      <trkpt lat="31.261729" lon="35.1825">
        <ele>514.791254834107</ele>
      </trkpt>
      <trkpt lat="31.261798" lon="35.182825">
        <ele>516.0551632200173</ele>
      </trkpt>
      <trkpt lat="31.261801" lon="35.18284">
        <ele>516.1039717012723</ele>
      </trkpt>
      <trkpt lat="31.261861" lon="35.182943">
        <ele>516.4296644849629</ele>
      </trkpt>
      <trkpt lat="31.262226" lon="35.183432">
        <ele>515.3131240245351</ele>
      </trkpt>
      <trkpt lat="31.262271" lon="35.183543">
        <ele>514.8460467580475</ele>
      </trkpt>
      <trkpt lat="31.262286" lon="35.183633">
        <ele>514.4974250870615</ele>
      </trkpt>
      <trkpt lat="31.262297" lon="35.183866">
        <ele>513.8401425565079</ele>
      </trkpt>
      <trkpt lat="31.262298" lon="35.183884">
        <ele>513.7944225501791</ele>
      </trkpt>
      <trkpt lat="31.262289" lon="35.183964">
        <ele>513.5899017388609</ele>
      </trkpt>
      <trkpt lat="31.262107" lon="35.184604">
        <ele>516.0590716116711</ele>
      </trkpt>
      <trkpt lat="31.262081" lon="35.184695">
        <ele>516.7886632485702</ele>
      </trkpt>
      <trkpt lat="31.261939" lon="35.184945">
        <ele>518.6796136266114</ele>
      </trkpt>
      <trkpt lat="31.261446" lon="35.185622">
        <ele>518.2876578339723</ele>
      </trkpt>
      <trkpt lat="31.26141" lon="35.185786">
        <ele>518.7704788661829</ele>
      </trkpt>
      <trkpt lat="31.261308" lon="35.186242">
        <ele>520.976366876716</ele>
      </trkpt>
      <trkpt lat="31.261168" lon="35.186645">
        <ele>521.8538770666131</ele>
      </trkpt>
      <trkpt lat="31.261069" lon="35.187062">
        <ele>522.4630258267662</ele>
      </trkpt>
      <trkpt lat="31.261011" lon="35.187169">
        <ele>522.5556364811329</ele>
      </trkpt>
      <trkpt lat="31.260947" lon="35.187289">
        <ele>522.6452636761798</ele>
      </trkpt>
      <trkpt lat="31.261217" lon="35.187715">
        <ele>523.4065723220262</ele>
      </trkpt>
      <trkpt lat="31.261316" lon="35.187989">
        <ele>524.1047196974883</ele>
      </trkpt>
      <trkpt lat="31.261399" lon="35.188216">
        <ele>524.3525254797358</ele>
      </trkpt>
      <trkpt lat="31.261495" lon="35.188669">
        <ele>525.0660139702483</ele>
      </trkpt>
      <trkpt lat="31.261555" lon="35.189185">
        <ele>525.6039776703705</ele>
      </trkpt>
      <trkpt lat="31.261668" lon="35.189635">
        <ele>525.9</ele>
      </trkpt>
      <trkpt lat="31.261716" lon="35.18989">
        <ele>526.186612843764</ele>
      </trkpt>
      <trkpt lat="31.261718" lon="35.190013">
        <ele>526.3815007247345</ele>
      </trkpt>
      <trkpt lat="31.261685" lon="35.190165">
        <ele>526.9518543457334</ele>
      </trkpt>
      <trkpt lat="31.261683" lon="35.190238">
        <ele>527.2295431492491</ele>
      </trkpt>
      <trkpt lat="31.261721" lon="35.190406">
        <ele>527.9628288851712</ele>
      </trkpt>
      <trkpt lat="31.261718" lon="35.190426">
        <ele>528.0593312749554</ele>
      </trkpt>
      <trkpt lat="31.26171" lon="35.19049">
        <ele>528.3667263404</ele>
      </trkpt>
      <trkpt lat="31.261722" lon="35.190554">
        <ele>528.6781177094219</ele>
      </trkpt>
      <trkpt lat="31.261776" lon="35.190616">
        <ele>529.0987808285175</ele>
      </trkpt>
      <trkpt lat="31.261884" lon="35.190684">
        <ele>530.0529474721527</ele>
      </trkpt>
      <trkpt lat="31.261893" lon="35.190689">
        <ele>530.1304982255323</ele>
      </trkpt>
      <trkpt lat="31.262105" lon="35.190891">
        <ele>532.1578802781924</ele>
      </trkpt>
      <trkpt lat="31.262146" lon="35.190931">
        <ele>532.533845137665</ele>
      </trkpt>
      <trkpt lat="31.262246" lon="35.190975">
        <ele>533.1294068576509</ele>
      </trkpt>
      <extensions>
        <RoutingType xmlns="">Hike</RoutingType>
      </extensions>
    </trkseg>
    <trkseg>
      <trkpt lat="31.262246" lon="35.190975">
        <ele>533.4</ele>
      </trkpt>
      <trkpt lat="31.262399" lon="35.191043">
        <ele>533.8246482257313</ele>
      </trkpt>
      <trkpt lat="31.262492" lon="35.191151">
        <ele>533.9337836238116</ele>
      </trkpt>
      <trkpt lat="31.262526" lon="35.191266">
        <ele>533.2398230016171</ele>
      </trkpt>
      <trkpt lat="31.262523" lon="35.191419">
        <ele>532.3670413498683</ele>
      </trkpt>
      <trkpt lat="31.262482" lon="35.191585">
        <ele>532.5551044317374</ele>
      </trkpt>
      <trkpt lat="31.262476" lon="35.191639">
        <ele>532.6413684558258</ele>
      </trkpt>
      <trkpt lat="31.262456" lon="35.191809">
        <ele>532.867928110494</ele>
      </trkpt>
      <trkpt lat="31.262472" lon="35.191887">
        <ele>532.9441713928908</ele>
      </trkpt>
      <trkpt lat="31.26259" lon="35.192177">
        <ele>533.7476166497948</ele>
      </trkpt>
      <trkpt lat="31.262624" lon="35.19225">
        <ele>534.0900244785302</ele>
      </trkpt>
      <trkpt lat="31.262649" lon="35.192304">
        <ele>534.3429658123193</ele>
      </trkpt>
      <trkpt lat="31.262742" lon="35.192454">
        <ele>534.7802549969088</ele>
      </trkpt>
      <trkpt lat="31.262834" lon="35.192532">
        <ele>535.0750467772367</ele>
      </trkpt>
      <trkpt lat="31.262897" lon="35.192565">
        <ele>535.2981803306969</ele>
      </trkpt>
      <trkpt lat="31.262953" lon="35.192595">
        <ele>535.5036427431761</ele>
      </trkpt>
      <trkpt lat="31.2629" lon="35.192761">
        <ele>536.0238049945267</ele>
      </trkpt>
      <trkpt lat="31.26276" lon="35.193078">
        <ele>538.9615987579195</ele>
      </trkpt>
      <trkpt lat="31.262623" lon="35.193353">
        <ele>542.9358838086886</ele>
      </trkpt>
      <trkpt lat="31.262537" lon="35.19357">
        <ele>545.6640434477729</ele>
      </trkpt>
      <trkpt lat="31.262458" lon="35.193657">
        <ele>547.1117566905783</ele>
      </trkpt>
      <trkpt lat="31.262313" lon="35.193759">
        <ele>549.3693946482944</ele>
      </trkpt>
      <trkpt lat="31.262202" lon="35.193964">
        <ele>551.8553248072343</ele>
      </trkpt>
      <trkpt lat="31.262131" lon="35.19427">
        <ele>554.5734409995979</ele>
      </trkpt>
      <trkpt lat="31.262105" lon="35.194396">
        <ele>555.636145628392</ele>
      </trkpt>
      <trkpt lat="31.26205" lon="35.194419">
        <ele>556.2423186099353</ele>
      </trkpt>
      <trkpt lat="31.262111" lon="35.194826">
        <ele>560.0371637159226</ele>
      </trkpt>
      <trkpt lat="31.262187" lon="35.195377">
        <ele>564.8765225697066</ele>
      </trkpt>
      <trkpt lat="31.26221" lon="35.195743">
        <ele>567.6689190423498</ele>
      </trkpt>
      <trkpt lat="31.26222" lon="35.19585">
        <ele>568.4191857001517</ele>
      </trkpt>
      <trkpt lat="31.262092" lon="35.196188">
        <ele>570.0425461018635</ele>
      </trkpt>
      <trkpt lat="31.26186" lon="35.196471">
        <ele>571.7982842308364</ele>
      </trkpt>
      <trkpt lat="31.261837" lon="35.196654">
        <ele>572.3257186499553</ele>
      </trkpt>
      <trkpt lat="31.261771" lon="35.19675">
        <ele>572.3384412178134</ele>
      </trkpt>
      <trkpt lat="31.261886" lon="35.196899">
        <ele>572.2112331102286</ele>
      </trkpt>
      <trkpt lat="31.26186" lon="35.197218">
        <ele>572.3918231475158</ele>
      </trkpt>
      <trkpt lat="31.261805" lon="35.19728">
        <ele>572.5937719360769</ele>
      </trkpt>
      <trkpt lat="31.261792" lon="35.197555">
        <ele>573.2574188813198</ele>
      </trkpt>
      <trkpt lat="31.261778" lon="35.197676">
        <ele>573.4508509999017</ele>
      </trkpt>
      <trkpt lat="31.261857" lon="35.197885">
        <ele>573.7</ele>
      </trkpt>
      <trkpt lat="31.261958" lon="35.198135">
        <ele>573.7</ele>
      </trkpt>
      <trkpt lat="31.262008" lon="35.198265">
        <ele>573.7</ele>
      </trkpt>
      <trkpt lat="31.262032" lon="35.19832">
        <ele>573.7</ele>
      </trkpt>
      <trkpt lat="31.261713" lon="35.198878">
        <ele>572.886798468632</ele>
      </trkpt>
      <trkpt lat="31.261555" lon="35.199242">
        <ele>572.6202823888981</ele>
      </trkpt>
      <trkpt lat="31.261423" lon="35.199663">
        <ele>575.3526117669928</ele>
      </trkpt>
      <trkpt lat="31.261345" lon="35.199869">
        <ele>577.503405987708</ele>
      </trkpt>
      <trkpt lat="31.261488" lon="35.200499">
        <ele>584.2709496353563</ele>
      </trkpt>
      <trkpt lat="31.261575" lon="35.201132">
        <ele>588.1406729270942</ele>
      </trkpt>
      <trkpt lat="31.261566" lon="35.201469">
        <ele>589.925272246447</ele>
      </trkpt>
      <trkpt lat="31.261585" lon="35.201687">
        <ele>591.5915420071877</ele>
      </trkpt>
      <trkpt lat="31.261563" lon="35.201731">
        <ele>591.9791517105384</ele>
      </trkpt>
      <trkpt lat="31.261555" lon="35.201781">
        <ele>592.3659554608187</ele>
      </trkpt>
      <trkpt lat="31.261565" lon="35.20184">
        <ele>592.8233266027037</ele>
      </trkpt>
      <trkpt lat="31.261588" lon="35.201882">
        <ele>593.2026114225455</ele>
      </trkpt>
      <trkpt lat="31.261623" lon="35.201913">
        <ele>593.5931267414783</ele>
      </trkpt>
      <trkpt lat="31.261665" lon="35.201927">
        <ele>593.7431046207496</ele>
      </trkpt>
      <trkpt lat="31.261708" lon="35.201953">
        <ele>593.9045730492898</ele>
      </trkpt>
      <trkpt lat="31.261754" lon="35.201985">
        <ele>594.0831026028649</ele>
      </trkpt>
      <trkpt lat="31.262232" lon="35.202477">
        <ele>595.9586487415198</ele>
      </trkpt>
      <trkpt lat="31.262776" lon="35.203091">
        <ele>599.2380798446421</ele>
      </trkpt>
      <trkpt lat="31.262994" lon="35.203205">
        <ele>600.416855342525</ele>
      </trkpt>
      <trkpt lat="31.26318" lon="35.203313">
        <ele>601.0353122604369</ele>
      </trkpt>
      <trkpt lat="31.263262" lon="35.203366">
        <ele>601.0700357355067</ele>
      </trkpt>
      <trkpt lat="31.263338" lon="35.203425">
        <ele>601.0961569090977</ele>
      </trkpt>
      <trkpt lat="31.263535" lon="35.203613">
        <ele>601.0019260563416</ele>
      </trkpt>
      <trkpt lat="31.263588" lon="35.203677">
        <ele>601</ele>
      </trkpt>
      <trkpt lat="31.263615" lon="35.203726">
        <ele>601</ele>
      </trkpt>
      <trkpt lat="31.263634" lon="35.203782">
        <ele>601</ele>
      </trkpt>
      <trkpt lat="31.263642" lon="35.2038">
        <ele>601</ele>
      </trkpt>
      <trkpt lat="31.263629" lon="35.20393">
        <ele>601.0470468777277</ele>
      </trkpt>
      <trkpt lat="31.263608" lon="35.203983">
        <ele>601.1210794118527</ele>
      </trkpt>
      <trkpt lat="31.263567" lon="35.204042">
        <ele>601.217441974457</ele>
      </trkpt>
      <trkpt lat="31.263198" lon="35.204542">
        <ele>603.4820036232895</ele>
      </trkpt>
      <trkpt lat="31.263257" lon="35.204599">
        <ele>603.9641446154984</ele>
      </trkpt>
      <trkpt lat="31.263333" lon="35.204682">
        <ele>604.7108926104672</ele>
      </trkpt>
      <trkpt lat="31.26344" lon="35.204777">
        <ele>605.7066449562818</ele>
      </trkpt>
      <trkpt lat="31.263525" lon="35.204898">
        <ele>606.3396256288817</ele>
      </trkpt>
      <trkpt lat="31.263509" lon="35.205025">
        <ele>606.6649998262128</ele>
      </trkpt>
      <trkpt lat="31.263514" lon="35.205108">
        <ele>606.875895082256</ele>
      </trkpt>
      <trkpt lat="31.263517" lon="35.205199">
        <ele>606.9775188695263</ele>
      </trkpt>
      <trkpt lat="31.263553" lon="35.205343">
        <ele>607.1201220346909</ele>
      </trkpt>
      <trkpt lat="31.263586" lon="35.205446">
        <ele>607.1013097299663</ele>
      </trkpt>
      <trkpt lat="31.263586" lon="35.205544">
        <ele>606.7287208573314</ele>
      </trkpt>
      <trkpt lat="31.263624" lon="35.205652">
        <ele>606.2846876525981</ele>
      </trkpt>
      <trkpt lat="31.263658" lon="35.205706">
        <ele>606.0296999194337</ele>
      </trkpt>
      <trkpt lat="31.263766" lon="35.205864">
        <ele>605.1373075174401</ele>
      </trkpt>
      <trkpt lat="31.263734" lon="35.205901">
        <ele>604.9038399489499</ele>
      </trkpt>
      <trkpt lat="31.26362" lon="35.205986">
        <ele>604.3443684471175</ele>
      </trkpt>
      <trkpt lat="31.263542" lon="35.206053">
        <ele>604.0215667646479</ele>
      </trkpt>
      <trkpt lat="31.263485" lon="35.206135">
        <ele>603.7201937871669</ele>
      </trkpt>
      <trkpt lat="31.263504" lon="35.206241">
        <ele>603.5717184037318</ele>
      </trkpt>
      <trkpt lat="31.263565" lon="35.206334">
        <ele>603.4231584349294</ele>
      </trkpt>
      <trkpt lat="31.263696" lon="35.206393">
        <ele>602.9814086377206</ele>
      </trkpt>
      <trkpt lat="31.26397" lon="35.206491">
        <ele>601.031744380957</ele>
      </trkpt>
      <trkpt lat="31.263974" lon="35.206506">
        <ele>600.8923524411551</ele>
      </trkpt>
      <trkpt lat="31.264062" lon="35.206596">
        <ele>599.6792875408265</ele>
      </trkpt>
      <extensions>
        <RoutingType xmlns="">Hike</RoutingType>
      </extensions>
    </trkseg>
    <trkseg>
      <trkpt lat="31.264062" lon="35.206596">
        <ele>599</ele>
      </trkpt>
      <trkpt lat="31.263974" lon="35.206506">
        <ele>599.2599424786418</ele>
      </trkpt>
      <trkpt lat="31.26404" lon="35.206441">
        <ele>599.4518048397216</ele>
      </trkpt>
      <trkpt lat="31.264192" lon="35.206305">
        <ele>599.0914929152449</ele>
      </trkpt>
      <trkpt lat="31.264291" lon="35.206181">
        <ele>598.500158491026</ele>
      </trkpt>
      <trkpt lat="31.264336" lon="35.206124">
        <ele>598.7211175376561</ele>
      </trkpt>
      <trkpt lat="31.264399" lon="35.206035">
        <ele>599.0506157804972</ele>
      </trkpt>
      <trkpt lat="31.264427" lon="35.205985">
        <ele>599.2210586008769</ele>
      </trkpt>
      <trkpt lat="31.264718" lon="35.205539">
        <ele>599.0790599192171</ele>
      </trkpt>
      <trkpt lat="31.264938" lon="35.20523">
        <ele>599.8088004702768</ele>
      </trkpt>
      <trkpt lat="31.264984" lon="35.205029">
        <ele>601.2804161368938</ele>
      </trkpt>
      <trkpt lat="31.264956" lon="35.204568">
        <ele>603.8669618421693</ele>
      </trkpt>
      <trkpt lat="31.265001" lon="35.20427">
        <ele>604.1805457275642</ele>
      </trkpt>
      <trkpt lat="31.265083" lon="35.204147">
        <ele>603.9423879394733</ele>
      </trkpt>
      <trkpt lat="31.265229" lon="35.203989">
        <ele>603.4001707863382</ele>
      </trkpt>
      <trkpt lat="31.26605" lon="35.203324">
        <ele>602.8544994012566</ele>
      </trkpt>
      <trkpt lat="31.266247" lon="35.203176">
        <ele>603.3677476288221</ele>
      </trkpt>
      <trkpt lat="31.266618" lon="35.202926">
        <ele>602.7776010594446</ele>
      </trkpt>
      <trkpt lat="31.266724" lon="35.202865">
        <ele>602.3397536657434</ele>
      </trkpt>
      <trkpt lat="31.267082" lon="35.202625">
        <ele>601.3393730355405</ele>
      </trkpt>
      <trkpt lat="31.267336" lon="35.202474">
        <ele>600.2161467449524</ele>
      </trkpt>
      <trkpt lat="31.267488" lon="35.202391">
        <ele>599.3457210618058</ele>
      </trkpt>
      <trkpt lat="31.267726" lon="35.202265">
        <ele>598.0837147064004</ele>
      </trkpt>
      <trkpt lat="31.267775" lon="35.20224">
        <ele>598.0267482807988</ele>
      </trkpt>
      <trkpt lat="31.267962" lon="35.202135">
        <ele>598.1805100236917</ele>
      </trkpt>
      <trkpt lat="31.268164" lon="35.202076">
        <ele>598.267424255226</ele>
      </trkpt>
      <trkpt lat="31.268527" lon="35.201925">
        <ele>597.7897782960781</ele>
      </trkpt>
      <trkpt lat="31.269229" lon="35.201702">
        <ele>599.2580624848958</ele>
      </trkpt>
      <trkpt lat="31.269552" lon="35.201545">
        <ele>599.53884721947</ele>
      </trkpt>
      <trkpt lat="31.270052" lon="35.201194">
        <ele>593.9110669519694</ele>
      </trkpt>
      <trkpt lat="31.270192" lon="35.201145">
        <ele>592.6653137900234</ele>
      </trkpt>
      <trkpt lat="31.270417" lon="35.201097">
        <ele>590.5219540872341</ele>
      </trkpt>
      <trkpt lat="31.270541" lon="35.200991">
        <ele>588.8702963927207</ele>
      </trkpt>
      <trkpt lat="31.270685" lon="35.200942">
        <ele>586.9804001145604</ele>
      </trkpt>
      <trkpt lat="31.270832" lon="35.200784">
        <ele>584.7199950496492</ele>
      </trkpt>
      <trkpt lat="31.2711" lon="35.200654">
        <ele>582.1286401668124</ele>
      </trkpt>
      <trkpt lat="31.271147" lon="35.200521">
        <ele>581.2583809601321</ele>
      </trkpt>
      <trkpt lat="31.271213" lon="35.200427">
        <ele>580.8729924062214</ele>
      </trkpt>
      <trkpt lat="31.271368" lon="35.200283">
        <ele>580.2196953658039</ele>
      </trkpt>
      <trkpt lat="31.271465" lon="35.20023">
        <ele>580.0212930361805</ele>
      </trkpt>
      <trkpt lat="31.271799" lon="35.20008">
        <ele>578.0330895058376</ele>
      </trkpt>
      <trkpt lat="31.271964" lon="35.200035">
        <ele>575.9588765991684</ele>
      </trkpt>
      <trkpt lat="31.272078" lon="35.200023">
        <ele>574.4315859108551</ele>
      </trkpt>
      <trkpt lat="31.272115" lon="35.200019">
        <ele>573.9577958481306</ele>
      </trkpt>
      <trkpt lat="31.272628" lon="35.199885">
        <ele>566.8636704538771</ele>
      </trkpt>
      <trkpt lat="31.272888" lon="35.199729">
        <ele>560.3336897745232</ele>
      </trkpt>
      <trkpt lat="31.273044" lon="35.199589">
        <ele>557.783162818879</ele>
      </trkpt>
      <trkpt lat="31.273315" lon="35.199559">
        <ele>554.9257117678154</ele>
      </trkpt>
      <trkpt lat="31.273558" lon="35.199383">
        <ele>550.4427191311772</ele>
      </trkpt>
      <trkpt lat="31.273969" lon="35.199259">
        <ele>544.5007158077176</ele>
      </trkpt>
      <trkpt lat="31.274145" lon="35.199103">
        <ele>540.9045634338446</ele>
      </trkpt>
      <trkpt lat="31.274223" lon="35.199028">
        <ele>538.9960895701</ele>
      </trkpt>
      <trkpt lat="31.274349" lon="35.198991">
        <ele>536.3914868424847</ele>
      </trkpt>
      <trkpt lat="31.274471" lon="35.198955">
        <ele>533.5467379885035</ele>
      </trkpt>
      <trkpt lat="31.274529" lon="35.198853">
        <ele>531.1843867679843</ele>
      </trkpt>
      <trkpt lat="31.274611" lon="35.198638">
        <ele>527.7535408048411</ele>
      </trkpt>
      <trkpt lat="31.274772" lon="35.19849">
        <ele>525.9902466504568</ele>
      </trkpt>
      <trkpt lat="31.274891" lon="35.198349">
        <ele>525.4271743590001</ele>
      </trkpt>
      <trkpt lat="31.274939" lon="35.198279">
        <ele>525.4840344653974</ele>
      </trkpt>
      <trkpt lat="31.275277" lon="35.197599">
        <ele>519.9602170508412</ele>
      </trkpt>
      <trkpt lat="31.275729" lon="35.197155">
        <ele>515.280446015702</ele>
      </trkpt>
      <trkpt lat="31.276405" lon="35.196984">
        <ele>512.4358234375264</ele>
      </trkpt>
      <extensions>
        <RoutingType xmlns="">Hike</RoutingType>
      </extensions>
    </trkseg>
    <trkseg>
      <trkpt lat="31.27643" lon="35.197120000000005">
        <ele>517</ele>
        <time>2025-12-11T09:01:51Z</time>
      </trkpt>
      <trkpt lat="31.27653" lon="35.197120000000005">
        <ele>517</ele>
        <time>2025-12-11T09:01:52Z</time>
      </trkpt>
      <trkpt lat="31.276670000000003" lon="35.197160000000004">
        <ele>517</ele>
        <time>2025-12-11T09:01:53Z</time>
      </trkpt>
      <trkpt lat="31.276820000000004" lon="35.19713">
        <ele>517</ele>
        <time>2025-12-11T09:01:54Z</time>
      </trkpt>
      <trkpt lat="31.276820000000004" lon="35.19713">
        <ele>507.16887832171165</ele>
        <time>2025-12-11T09:01:55Z</time>
      </trkpt>
      <trkpt lat="31.276960000000003" lon="35.19702">
        <ele>517</ele>
        <time>2025-12-11T09:01:56Z</time>
      </trkpt>
      <trkpt lat="31.277130000000003" lon="35.19697">
        <ele>517</ele>
        <time>2025-12-11T09:01:57Z</time>
      </trkpt>
      <trkpt lat="31.278040000000004" lon="35.19698">
        <ele>515</ele>
        <time>2025-12-11T09:01:58Z</time>
      </trkpt>
      <trkpt lat="31.278200000000002" lon="35.19695">
        <ele>516</ele>
        <time>2025-12-11T09:01:59Z</time>
      </trkpt>
      <trkpt lat="31.278440000000003" lon="35.19717">
        <ele>516</ele>
        <time>2025-12-11T09:02:00Z</time>
      </trkpt>
      <trkpt lat="31.278440000000003" lon="35.19717">
        <ele>496.9014023756669</ele>
        <time>2025-12-11T09:02:01Z</time>
      </trkpt>
      <trkpt lat="31.278510000000004" lon="35.1972">
        <ele>516</ele>
        <time>2025-12-11T09:02:02Z</time>
      </trkpt>
      <trkpt lat="31.278630000000003" lon="35.197300000000006">
        <ele>516</ele>
        <time>2025-12-11T09:02:03Z</time>
      </trkpt>
      <trkpt lat="31.27886" lon="35.197410000000005">
        <ele>501</ele>
        <time>2025-12-11T09:02:04Z</time>
      </trkpt>
      <trkpt lat="31.279110000000003" lon="35.19747">
        <ele>496</ele>
        <time>2025-12-11T09:02:05Z</time>
      </trkpt>
      <trkpt lat="31.27943" lon="35.197430000000004">
        <ele>496</ele>
        <time>2025-12-11T09:02:06Z</time>
      </trkpt>
      <trkpt lat="31.27943" lon="35.197430000000004">
        <ele>492.22586377570406</ele>
        <time>2025-12-11T09:02:07Z</time>
      </trkpt>
      <trkpt lat="31.279650000000004" lon="35.19744">
        <ele>496</ele>
        <time>2025-12-11T09:02:08Z</time>
      </trkpt>
      <trkpt lat="31.279740000000004" lon="35.19751">
        <ele>496</ele>
        <time>2025-12-11T09:02:09Z</time>
      </trkpt>
      <trkpt lat="31.279760000000003" lon="35.197590000000005">
        <ele>496</ele>
        <time>2025-12-11T09:02:10Z</time>
      </trkpt>
      <trkpt lat="31.279740000000004" lon="35.19767">
        <ele>496</ele>
        <time>2025-12-11T09:02:11Z</time>
      </trkpt>
      <trkpt lat="31.27981" lon="35.197810000000004">
        <ele>491</ele>
        <time>2025-12-11T09:02:12Z</time>
      </trkpt>
      <trkpt lat="31.27981" lon="35.197810000000004">
        <ele>490.6399789207435</ele>
        <time>2025-12-11T09:02:13Z</time>
      </trkpt>
      <trkpt lat="31.279880000000002" lon="35.19784">
        <ele>491</ele>
        <time>2025-12-11T09:02:14Z</time>
      </trkpt>
      <trkpt lat="31.279980000000002" lon="35.19784">
        <ele>491</ele>
        <time>2025-12-11T09:02:15Z</time>
      </trkpt>
      <trkpt lat="31.28009" lon="35.19787">
        <ele>491</ele>
        <time>2025-12-11T09:02:16Z</time>
      </trkpt>
      <trkpt lat="31.280150000000003" lon="35.19791">
        <ele>491</ele>
        <time>2025-12-11T09:02:17Z</time>
      </trkpt>
      <trkpt lat="31.280220000000003" lon="35.198010000000004">
        <ele>491</ele>
        <time>2025-12-11T09:02:18Z</time>
      </trkpt>
      <trkpt lat="31.280220000000003" lon="35.198010000000004">
        <ele>487.6711586797495</ele>
        <time>2025-12-11T09:02:19Z</time>
      </trkpt>
      <trkpt lat="31.28038" lon="35.19818">
        <ele>496</ele>
        <time>2025-12-11T09:02:20Z</time>
      </trkpt>
      <trkpt lat="31.280630000000002" lon="35.198350000000005">
        <ele>495</ele>
        <time>2025-12-11T09:02:21Z</time>
      </trkpt>
      <trkpt lat="31.280630000000002" lon="35.198350000000005">
        <ele>495</ele>
        <time>2025-12-11T09:02:22Z</time>
      </trkpt>
      <trkpt lat="31.280730000000002" lon="35.1984">
        <ele>494</ele>
        <time>2025-12-11T09:02:23Z</time>
      </trkpt>
      <trkpt lat="31.280810000000002" lon="35.198690000000006">
        <ele>494</ele>
        <time>2025-12-11T09:02:24Z</time>
      </trkpt>
      <trkpt lat="31.280810000000002" lon="35.198690000000006">
        <ele>503.9940066181188</ele>
        <time>2025-12-11T09:02:25Z</time>
      </trkpt>
      <trkpt lat="31.28093" lon="35.19886">
        <ele>494</ele>
        <time>2025-12-11T09:02:26Z</time>
      </trkpt>
      <trkpt lat="31.280910000000002" lon="35.19937">
        <ele>504</ele>
        <time>2025-12-11T09:02:27Z</time>
      </trkpt>
      <trkpt lat="31.280710000000003" lon="35.19993">
        <ele>499</ele>
        <time>2025-12-11T09:02:28Z</time>
      </trkpt>
      <trkpt lat="31.28046" lon="35.20049">
        <ele>518</ele>
        <time>2025-12-11T09:02:29Z</time>
      </trkpt>
      <trkpt lat="31.280240000000003" lon="35.200970000000005">
        <ele>508</ele>
        <time>2025-12-11T09:02:30Z</time>
      </trkpt>
      <trkpt lat="31.280240000000003" lon="35.200970000000005">
        <ele>504.46989900103733</ele>
        <time>2025-12-11T09:02:31Z</time>
      </trkpt>
      <trkpt lat="31.279850000000003" lon="35.20163">
        <ele>495</ele>
        <time>2025-12-11T09:02:32Z</time>
      </trkpt>
      <trkpt lat="31.279500000000002" lon="35.20212">
        <ele>513</ele>
        <time>2025-12-11T09:02:33Z</time>
      </trkpt>
      <trkpt lat="31.27914" lon="35.20228">
        <ele>513</ele>
        <time>2025-12-11T09:02:34Z</time>
      </trkpt>
      <trkpt lat="31.27907" lon="35.202540000000006">
        <ele>495</ele>
        <time>2025-12-11T09:02:35Z</time>
      </trkpt>
      <trkpt lat="31.27934" lon="35.202580000000005">
        <ele>495</ele>
        <time>2025-12-11T09:02:36Z</time>
      </trkpt>
      <trkpt lat="31.27934" lon="35.202580000000005">
        <ele>493.9620256634122</ele>
        <time>2025-12-11T09:02:37Z</time>
      </trkpt>
      <trkpt lat="31.27934" lon="35.202580000000005">
        <ele>495</ele>
        <time>2025-12-11T09:02:38Z</time>
      </trkpt>
      <trkpt lat="31.279490000000003" lon="35.202600000000004">
        <ele>495</ele>
        <time>2025-12-11T09:02:39Z</time>
      </trkpt>
      <trkpt lat="31.279960000000003" lon="35.20302">
        <ele>487</ele>
        <time>2025-12-11T09:02:40Z</time>
      </trkpt>
      <trkpt lat="31.280020000000004" lon="35.20324">
        <ele>488</ele>
        <time>2025-12-11T09:02:41Z</time>
      </trkpt>
      <trkpt lat="31.280730000000002" lon="35.204130000000006">
        <ele>481</ele>
        <time>2025-12-11T09:02:42Z</time>
      </trkpt>
      <trkpt lat="31.280730000000002" lon="35.204130000000006">
        <ele>481.9944828306907</ele>
        <time>2025-12-11T09:02:43Z</time>
      </trkpt>
      <trkpt lat="31.281260000000003" lon="35.20452">
        <ele>481</ele>
        <time>2025-12-11T09:02:44Z</time>
      </trkpt>
      <trkpt lat="31.281730000000003" lon="35.205040000000004">
        <ele>484</ele>
        <time>2025-12-11T09:02:45Z</time>
      </trkpt>
      <trkpt lat="31.28206" lon="35.20537">
        <ele>484</ele>
        <time>2025-12-11T09:02:46Z</time>
      </trkpt>
      <trkpt lat="31.28206" lon="35.20537">
        <ele>484</ele>
        <time>2025-12-11T09:02:47Z</time>
      </trkpt>
      <extensions>
        <RoutingType xmlns="">Hike</RoutingType>
      </extensions>
    </trkseg>
    <trkseg>
      <trkpt lat="31.28206" lon="35.20537">
        <ele>484</ele>
        <time>2025-12-11T09:02:47Z</time>
      </trkpt>
      <trkpt lat="31.28252" lon="35.205830000000006">
        <ele>484</ele>
        <time>2025-12-11T09:02:48Z</time>
      </trkpt>
      <trkpt lat="31.28252" lon="35.205830000000006">
        <ele>483.1731642447388</ele>
        <time>2025-12-11T09:02:49Z</time>
      </trkpt>
      <trkpt lat="31.282700000000002" lon="35.20597">
        <ele>484</ele>
        <time>2025-12-11T09:02:50Z</time>
      </trkpt>
      <trkpt lat="31.282830000000004" lon="35.206010000000006">
        <ele>484</ele>
        <time>2025-12-11T09:02:51Z</time>
      </trkpt>
      <trkpt lat="31.2829" lon="35.20604">
        <ele>484</ele>
        <time>2025-12-11T09:02:52Z</time>
      </trkpt>
      <trkpt lat="31.282980000000002" lon="35.20599">
        <ele>484</ele>
        <time>2025-12-11T09:02:53Z</time>
      </trkpt>
      <trkpt lat="31.2829" lon="35.20635">
        <ele>484</ele>
        <time>2025-12-11T09:02:54Z</time>
      </trkpt>
      <trkpt lat="31.2829" lon="35.20635">
        <ele>484.86084768353044</ele>
        <time>2025-12-11T09:02:55Z</time>
      </trkpt>
      <trkpt lat="31.282500000000002" lon="35.20655">
        <ele>489</ele>
        <time>2025-12-11T09:02:56Z</time>
      </trkpt>
      <trkpt lat="31.282400000000003" lon="35.206590000000006">
        <ele>489</ele>
        <time>2025-12-11T09:02:57Z</time>
      </trkpt>
      <trkpt lat="31.282130000000002" lon="35.20691">
        <ele>488</ele>
        <time>2025-12-11T09:02:58Z</time>
      </trkpt>
      <trkpt lat="31.282140000000002" lon="35.207150000000006">
        <ele>488</ele>
        <time>2025-12-11T09:02:59Z</time>
      </trkpt>
      <trkpt lat="31.282140000000002" lon="35.207150000000006">
        <ele>488</ele>
        <time>2025-12-11T09:03:00Z</time>
      </trkpt>
      <trkpt lat="31.282140000000002" lon="35.207150000000006">
        <ele>489.26504080907785</ele>
        <time>2025-12-11T09:03:01Z</time>
      </trkpt>
      <trkpt lat="31.282140000000002" lon="35.207300000000004">
        <ele>488</ele>
        <time>2025-12-11T09:03:02Z</time>
      </trkpt>
      <trkpt lat="31.282000000000004" lon="35.207800000000006">
        <ele>490</ele>
        <time>2025-12-11T09:03:03Z</time>
      </trkpt>
      <trkpt lat="31.28188" lon="35.20806">
        <ele>490</ele>
        <time>2025-12-11T09:03:04Z</time>
      </trkpt>
      <trkpt lat="31.281830000000003" lon="35.20824">
        <ele>498</ele>
        <time>2025-12-11T09:03:05Z</time>
      </trkpt>
      <trkpt lat="31.281740000000003" lon="35.208400000000005">
        <ele>498</ele>
        <time>2025-12-11T09:03:06Z</time>
      </trkpt>
      <trkpt lat="31.281740000000003" lon="35.208400000000005">
        <ele>499.61075815884396</ele>
        <time>2025-12-11T09:03:07Z</time>
      </trkpt>
      <trkpt lat="31.281750000000002" lon="35.208850000000005">
        <ele>498</ele>
        <time>2025-12-11T09:03:08Z</time>
      </trkpt>
      <trkpt lat="31.281720000000004" lon="35.209030000000006">
        <ele>511</ele>
        <time>2025-12-11T09:03:09Z</time>
      </trkpt>
      <trkpt lat="31.281470000000002" lon="35.209500000000006">
        <ele>511</ele>
        <time>2025-12-11T09:03:10Z</time>
      </trkpt>
      <trkpt lat="31.28151" lon="35.209450000000004">
        <ele>511</ele>
        <time>2025-12-11T09:03:11Z</time>
      </trkpt>
      <trkpt lat="31.28151" lon="35.209450000000004">
        <ele>511</ele>
        <time>2025-12-11T09:03:12Z</time>
      </trkpt>
      <trkpt lat="31.28151" lon="35.209450000000004">
        <ele>519.0463298264314</ele>
        <time>2025-12-11T09:03:13Z</time>
      </trkpt>
      <trkpt lat="31.281470000000002" lon="35.209500000000006">
        <ele>511</ele>
        <time>2025-12-11T09:03:14Z</time>
      </trkpt>
      <trkpt lat="31.281270000000003" lon="35.20991">
        <ele>516</ele>
        <time>2025-12-11T09:03:15Z</time>
      </trkpt>
      <trkpt lat="31.281160000000003" lon="35.210350000000005">
        <ele>516</ele>
        <time>2025-12-11T09:03:16Z</time>
      </trkpt>
      <trkpt lat="31.281080000000003" lon="35.210510000000006">
        <ele>516</ele>
        <time>2025-12-11T09:03:17Z</time>
      </trkpt>
      <trkpt lat="31.280880000000003" lon="35.21069">
        <ele>518</ele>
        <time>2025-12-11T09:03:18Z</time>
      </trkpt>
      <trkpt lat="31.280880000000003" lon="35.21069">
        <ele>521.5704826268765</ele>
        <time>2025-12-11T09:03:19Z</time>
      </trkpt>
      <trkpt lat="31.280810000000002" lon="35.21078">
        <ele>518</ele>
        <time>2025-12-11T09:03:20Z</time>
      </trkpt>
      <trkpt lat="31.280730000000002" lon="35.21085">
        <ele>518</ele>
        <time>2025-12-11T09:03:21Z</time>
      </trkpt>
      <trkpt lat="31.280710000000003" lon="35.2109">
        <ele>518</ele>
        <time>2025-12-11T09:03:22Z</time>
      </trkpt>
      <trkpt lat="31.280640000000002" lon="35.21097">
        <ele>518</ele>
        <time>2025-12-11T09:03:23Z</time>
      </trkpt>
      <trkpt lat="31.280490000000004" lon="35.21101">
        <ele>520</ele>
        <time>2025-12-11T09:03:24Z</time>
      </trkpt>
      <trkpt lat="31.280490000000004" lon="35.21101">
        <ele>523.8912733892971</ele>
        <time>2025-12-11T09:03:25Z</time>
      </trkpt>
      <trkpt lat="31.280240000000003" lon="35.211330000000004">
        <ele>520</ele>
        <time>2025-12-11T09:03:26Z</time>
      </trkpt>
      <trkpt lat="31.27972" lon="35.21162">
        <ele>529</ele>
        <time>2025-12-11T09:03:27Z</time>
      </trkpt>
      <trkpt lat="31.279390000000003" lon="35.211960000000005">
        <ele>529</ele>
        <time>2025-12-11T09:03:28Z</time>
      </trkpt>
      <trkpt lat="31.27933" lon="35.211960000000005">
        <ele>529</ele>
        <time>2025-12-11T09:03:29Z</time>
      </trkpt>
      <trkpt lat="31.27916" lon="35.21208">
        <ele>529</ele>
        <time>2025-12-11T09:03:30Z</time>
      </trkpt>
      <trkpt lat="31.27916" lon="35.21208">
        <ele>527.7666773332749</ele>
        <time>2025-12-11T09:03:31Z</time>
      </trkpt>
      <trkpt lat="31.278850000000002" lon="35.21222">
        <ele>529</ele>
        <time>2025-12-11T09:03:32Z</time>
      </trkpt>
      <trkpt lat="31.278850000000002" lon="35.21222">
        <ele>529</ele>
        <time>2025-12-11T09:03:33Z</time>
      </trkpt>
      <trkpt lat="31.278540000000003" lon="35.21253">
        <ele>527</ele>
        <time>2025-12-11T09:03:34Z</time>
      </trkpt>
      <trkpt lat="31.27803" lon="35.212950000000006">
        <ele>528</ele>
        <time>2025-12-11T09:03:35Z</time>
      </trkpt>
      <trkpt lat="31.278270000000003" lon="35.2137">
        <ele>525</ele>
        <time>2025-12-11T09:03:36Z</time>
      </trkpt>
      <trkpt lat="31.278270000000003" lon="35.2137">
        <ele>528.1992156032354</ele>
        <time>2025-12-11T09:03:37Z</time>
      </trkpt>
      <trkpt lat="31.278240000000004" lon="35.213860000000004">
        <ele>525</ele>
        <time>2025-12-11T09:03:38Z</time>
      </trkpt>
      <trkpt lat="31.278230000000004" lon="35.214110000000005">
        <ele>528</ele>
        <time>2025-12-11T09:03:39Z</time>
      </trkpt>
      <trkpt lat="31.278260000000003" lon="35.214360000000006">
        <ele>528</ele>
        <time>2025-12-11T09:03:40Z</time>
      </trkpt>
      <trkpt lat="31.278260000000003" lon="35.21461">
        <ele>528</ele>
        <time>2025-12-11T09:03:41Z</time>
      </trkpt>
      <trkpt lat="31.278290000000002" lon="35.214870000000005">
        <ele>530</ele>
        <time>2025-12-11T09:03:42Z</time>
      </trkpt>
      <trkpt lat="31.278290000000002" lon="35.214870000000005">
        <ele>530.4111179343804</ele>
        <time>2025-12-11T09:03:43Z</time>
      </trkpt>
      <extensions>
        <RoutingType xmlns="">Hike</RoutingType>
      </extensions>
    </trkseg>
    <trkseg>
      <trkpt lat="31.278290000000002" lon="35.214870000000005">
        <ele>530.4111179343804</ele>
        <time>2025-12-11T09:03:43Z</time>
      </trkpt>
      <trkpt lat="31.278330000000004" lon="35.21502">
        <ele>530</ele>
        <time>2025-12-11T09:03:44Z</time>
      </trkpt>
      <trkpt lat="31.278350000000003" lon="35.215180000000004">
        <ele>530</ele>
        <time>2025-12-11T09:03:45Z</time>
      </trkpt>
      <trkpt lat="31.278350000000003" lon="35.215410000000006">
        <ele>530</ele>
        <time>2025-12-11T09:03:46Z</time>
      </trkpt>
      <trkpt lat="31.278330000000004" lon="35.21587">
        <ele>532</ele>
        <time>2025-12-11T09:03:47Z</time>
      </trkpt>
      <trkpt lat="31.278460000000003" lon="35.21643">
        <ele>533.5</ele>
        <time>2025-12-11T09:03:48Z</time>
      </trkpt>
      <trkpt lat="31.278460000000003" lon="35.21643">
        <ele>534.8303748580016</ele>
        <time>2025-12-11T09:03:49Z</time>
      </trkpt>
      <trkpt lat="31.278460000000003" lon="35.21643">
        <ele>533.5</ele>
        <time>2025-12-11T09:03:50Z</time>
      </trkpt>
      <trkpt lat="31.278630000000003" lon="35.21725">
        <ele>535</ele>
        <time>2025-12-11T09:03:51Z</time>
      </trkpt>
      <trkpt lat="31.278900000000004" lon="35.21802">
        <ele>538</ele>
        <time>2025-12-11T09:03:52Z</time>
      </trkpt>
      <trkpt lat="31.278890000000004" lon="35.218790000000006">
        <ele>539</ele>
        <time>2025-12-11T09:03:53Z</time>
      </trkpt>
      <trkpt lat="31.27877" lon="35.21898">
        <ele>536</ele>
        <time>2025-12-11T09:03:54Z</time>
      </trkpt>
      <trkpt lat="31.27877" lon="35.21898">
        <ele>540.7201043555574</ele>
        <time>2025-12-11T09:03:55Z</time>
      </trkpt>
      <trkpt lat="31.278750000000002" lon="35.21914">
        <ele>536</ele>
        <time>2025-12-11T09:03:56Z</time>
      </trkpt>
      <trkpt lat="31.278890000000004" lon="35.21967">
        <ele>536</ele>
        <time>2025-12-11T09:03:57Z</time>
      </trkpt>
      <trkpt lat="31.278750000000002" lon="35.2197">
        <ele>536</ele>
        <time>2025-12-11T09:03:58Z</time>
      </trkpt>
      <trkpt lat="31.278560000000002" lon="35.219840000000005">
        <ele>542</ele>
        <time>2025-12-11T09:03:59Z</time>
      </trkpt>
      <trkpt lat="31.278510000000004" lon="35.21989">
        <ele>542</ele>
        <time>2025-12-11T09:04:00Z</time>
      </trkpt>
      <trkpt lat="31.278510000000004" lon="35.21989">
        <ele>541.4069262024714</ele>
        <time>2025-12-11T09:04:01Z</time>
      </trkpt>
      <trkpt lat="31.278440000000003" lon="35.21992">
        <ele>542</ele>
        <time>2025-12-11T09:04:02Z</time>
      </trkpt>
      <trkpt lat="31.278090000000002" lon="35.220240000000004">
        <ele>534</ele>
        <time>2025-12-11T09:04:03Z</time>
      </trkpt>
      <trkpt lat="31.277950000000004" lon="35.220270000000006">
        <ele>534</ele>
        <time>2025-12-11T09:04:04Z</time>
      </trkpt>
      <trkpt lat="31.27775" lon="35.22043">
        <ele>534</ele>
        <time>2025-12-11T09:04:05Z</time>
      </trkpt>
      <trkpt lat="31.277680000000004" lon="35.22052">
        <ele>534</ele>
        <time>2025-12-11T09:04:06Z</time>
      </trkpt>
      <trkpt lat="31.277680000000004" lon="35.22052">
        <ele>542.2088725167807</ele>
        <time>2025-12-11T09:04:07Z</time>
      </trkpt>
      <trkpt lat="31.277540000000002" lon="35.220760000000006">
        <ele>539</ele>
        <time>2025-12-11T09:04:08Z</time>
      </trkpt>
      <trkpt lat="31.277250000000002" lon="35.22149">
        <ele>532</ele>
        <time>2025-12-11T09:04:09Z</time>
      </trkpt>
      <trkpt lat="31.277200000000004" lon="35.22173">
        <ele>532</ele>
        <time>2025-12-11T09:04:10Z</time>
      </trkpt>
      <trkpt lat="31.27717" lon="35.22213">
        <ele>534</ele>
        <time>2025-12-11T09:04:11Z</time>
      </trkpt>
      <trkpt lat="31.27717" lon="35.22213">
        <ele>534</ele>
        <time>2025-12-11T09:04:12Z</time>
      </trkpt>
      <trkpt lat="31.27717" lon="35.22213">
        <ele>538.7334888889327</ele>
        <time>2025-12-11T09:04:13Z</time>
      </trkpt>
      <trkpt lat="31.277210000000004" lon="35.222570000000005">
        <ele>536</ele>
        <time>2025-12-11T09:04:14Z</time>
      </trkpt>
      <trkpt lat="31.277260000000002" lon="35.222770000000004">
        <ele>536</ele>
        <time>2025-12-11T09:04:15Z</time>
      </trkpt>
      <trkpt lat="31.27746" lon="35.22332">
        <ele>539</ele>
        <time>2025-12-11T09:04:16Z</time>
      </trkpt>
      <trkpt lat="31.277490000000004" lon="35.22334">
        <ele>539</ele>
        <time>2025-12-11T09:04:17Z</time>
      </trkpt>
      <trkpt lat="31.277590000000004" lon="35.223560000000006">
        <ele>539</ele>
        <time>2025-12-11T09:04:18Z</time>
      </trkpt>
      <trkpt lat="31.277590000000004" lon="35.223560000000006">
        <ele>536.8715137295629</ele>
        <time>2025-12-11T09:04:19Z</time>
      </trkpt>
      <trkpt lat="31.277800000000003" lon="35.223780000000005">
        <ele>539</ele>
        <time>2025-12-11T09:04:20Z</time>
      </trkpt>
      <trkpt lat="31.277880000000003" lon="35.22392">
        <ele>539</ele>
        <time>2025-12-11T09:04:21Z</time>
      </trkpt>
      <trkpt lat="31.278010000000002" lon="35.224050000000005">
        <ele>541</ele>
        <time>2025-12-11T09:04:22Z</time>
      </trkpt>
      <trkpt lat="31.278050000000004" lon="35.22411">
        <ele>541</ele>
        <time>2025-12-11T09:04:23Z</time>
      </trkpt>
      <trkpt lat="31.278090000000002" lon="35.224120000000006">
        <ele>541</ele>
        <time>2025-12-11T09:04:24Z</time>
      </trkpt>
      <trkpt lat="31.278090000000002" lon="35.224120000000006">
        <ele>539.5651768183341</ele>
        <time>2025-12-11T09:04:25Z</time>
      </trkpt>
      <trkpt lat="31.278140000000004" lon="35.224180000000004">
        <ele>542</ele>
        <time>2025-12-11T09:04:26Z</time>
      </trkpt>
      <trkpt lat="31.278240000000004" lon="35.22422">
        <ele>542</ele>
        <time>2025-12-11T09:04:27Z</time>
      </trkpt>
      <trkpt lat="31.278290000000002" lon="35.22428">
        <ele>542</ele>
        <time>2025-12-11T09:04:28Z</time>
      </trkpt>
      <trkpt lat="31.278330000000004" lon="35.224450000000004">
        <ele>542</ele>
        <time>2025-12-11T09:04:29Z</time>
      </trkpt>
      <trkpt lat="31.278440000000003" lon="35.224470000000004">
        <ele>542</ele>
        <time>2025-12-11T09:04:30Z</time>
      </trkpt>
      <trkpt lat="31.278440000000003" lon="35.224470000000004">
        <ele>541.5409491233935</ele>
        <time>2025-12-11T09:04:31Z</time>
      </trkpt>
      <trkpt lat="31.278910000000003" lon="35.22469">
        <ele>542</ele>
        <time>2025-12-11T09:04:32Z</time>
      </trkpt>
      <trkpt lat="31.278990000000004" lon="35.22477">
        <ele>548</ele>
        <time>2025-12-11T09:04:33Z</time>
      </trkpt>
      <trkpt lat="31.279120000000002" lon="35.22507">
        <ele>546</ele>
        <time>2025-12-11T09:04:34Z</time>
      </trkpt>
      <trkpt lat="31.279120000000002" lon="35.22514">
        <ele>546</ele>
        <time>2025-12-11T09:04:35Z</time>
      </trkpt>
      <trkpt lat="31.279220000000002" lon="35.22543">
        <ele>546</ele>
        <time>2025-12-11T09:04:36Z</time>
      </trkpt>
      <trkpt lat="31.279220000000002" lon="35.22543">
        <ele>546.5456450743469</ele>
        <time>2025-12-11T09:04:37Z</time>
      </trkpt>
      <trkpt lat="31.279600000000002" lon="35.22574">
        <ele>556</ele>
        <time>2025-12-11T09:04:38Z</time>
      </trkpt>
      <trkpt lat="31.279700000000002" lon="35.22585">
        <ele>556</ele>
        <time>2025-12-11T09:04:39Z</time>
      </trkpt>
      <extensions>
        <RoutingType xmlns="">Hike</RoutingType>
      </extensions>
    </trkseg>
    <trkseg>
      <trkpt lat="31.279700000000002" lon="35.22585">
        <ele>556</ele>
        <time>2025-12-11T09:04:39Z</time>
      </trkpt>
      <trkpt lat="31.279780000000002" lon="35.226000000000006">
        <ele>560</ele>
        <time>2025-12-11T09:04:40Z</time>
      </trkpt>
      <trkpt lat="31.27991" lon="35.22634">
        <ele>560</ele>
        <time>2025-12-11T09:04:41Z</time>
      </trkpt>
      <trkpt lat="31.280070000000002" lon="35.226620000000004">
        <ele>558.5</ele>
        <time>2025-12-11T09:04:42Z</time>
      </trkpt>
      <trkpt lat="31.280070000000002" lon="35.226620000000004">
        <ele>553.8189233570585</ele>
        <time>2025-12-11T09:04:43Z</time>
      </trkpt>
      <trkpt lat="31.280070000000002" lon="35.226620000000004">
        <ele>558.5</ele>
        <time>2025-12-11T09:04:44Z</time>
      </trkpt>
      <trkpt lat="31.280230000000003" lon="35.22679">
        <ele>557</ele>
        <time>2025-12-11T09:04:45Z</time>
      </trkpt>
      <trkpt lat="31.28055" lon="35.22699">
        <ele>557</ele>
        <time>2025-12-11T09:04:46Z</time>
      </trkpt>
      <trkpt lat="31.28065" lon="35.22708">
        <ele>569</ele>
        <time>2025-12-11T09:04:47Z</time>
      </trkpt>
      <trkpt lat="31.280710000000003" lon="35.2272">
        <ele>569</ele>
        <time>2025-12-11T09:04:48Z</time>
      </trkpt>
      <trkpt lat="31.280710000000003" lon="35.2272">
        <ele>556.7296681925683</ele>
        <time>2025-12-11T09:04:49Z</time>
      </trkpt>
      <trkpt lat="31.280810000000002" lon="35.22737">
        <ele>565</ele>
        <time>2025-12-11T09:04:50Z</time>
      </trkpt>
      <trkpt lat="31.280910000000002" lon="35.227650000000004">
        <ele>565</ele>
        <time>2025-12-11T09:04:51Z</time>
      </trkpt>
      <trkpt lat="31.28111" lon="35.22755">
        <ele>565</ele>
        <time>2025-12-11T09:04:52Z</time>
      </trkpt>
      <trkpt lat="31.280970000000003" lon="35.22798">
        <ele>565</ele>
        <time>2025-12-11T09:04:53Z</time>
      </trkpt>
      <trkpt lat="31.280820000000002" lon="35.228080000000006">
        <ele>565</ele>
        <time>2025-12-11T09:04:54Z</time>
      </trkpt>
      <trkpt lat="31.280820000000002" lon="35.228080000000006">
        <ele>569.6360278975261</ele>
        <time>2025-12-11T09:04:55Z</time>
      </trkpt>
      <trkpt lat="31.280810000000002" lon="35.22816">
        <ele>571</ele>
        <time>2025-12-11T09:04:56Z</time>
      </trkpt>
      <trkpt lat="31.28085" lon="35.228320000000004">
        <ele>571</ele>
        <time>2025-12-11T09:04:57Z</time>
      </trkpt>
      <trkpt lat="31.280920000000002" lon="35.22847">
        <ele>571</ele>
        <time>2025-12-11T09:04:58Z</time>
      </trkpt>
      <trkpt lat="31.280920000000002" lon="35.228680000000004">
        <ele>571</ele>
        <time>2025-12-11T09:04:59Z</time>
      </trkpt>
      <trkpt lat="31.281340000000004" lon="35.228860000000005">
        <ele>571</ele>
        <time>2025-12-11T09:05:00Z</time>
      </trkpt>
      <trkpt lat="31.281340000000004" lon="35.228860000000005">
        <ele>577.0413014475364</ele>
        <time>2025-12-11T09:05:01Z</time>
      </trkpt>
      <trkpt lat="31.281180000000003" lon="35.22908">
        <ele>578</ele>
        <time>2025-12-11T09:05:02Z</time>
      </trkpt>
      <trkpt lat="31.281050000000004" lon="35.2293">
        <ele>578</ele>
        <time>2025-12-11T09:05:03Z</time>
      </trkpt>
      <trkpt lat="31.280820000000002" lon="35.22957">
        <ele>578</ele>
        <time>2025-12-11T09:05:04Z</time>
      </trkpt>
      <trkpt lat="31.28076" lon="35.22977">
        <ele>578</ele>
        <time>2025-12-11T09:05:05Z</time>
      </trkpt>
      <trkpt lat="31.280790000000003" lon="35.229890000000005">
        <ele>587</ele>
        <time>2025-12-11T09:05:06Z</time>
      </trkpt>
      <trkpt lat="31.280790000000003" lon="35.229890000000005">
        <ele>584.7544711827896</ele>
        <time>2025-12-11T09:05:07Z</time>
      </trkpt>
      <trkpt lat="31.280700000000003" lon="35.23012">
        <ele>587</ele>
        <time>2025-12-11T09:05:08Z</time>
      </trkpt>
      <trkpt lat="31.28066" lon="35.23028">
        <ele>587</ele>
        <time>2025-12-11T09:05:09Z</time>
      </trkpt>
      <trkpt lat="31.280580000000004" lon="35.230410000000006">
        <ele>588</ele>
        <time>2025-12-11T09:05:10Z</time>
      </trkpt>
      <trkpt lat="31.280500000000004" lon="35.2306">
        <ele>588</ele>
        <time>2025-12-11T09:05:11Z</time>
      </trkpt>
      <trkpt lat="31.280210000000004" lon="35.230920000000005">
        <ele>587</ele>
        <time>2025-12-11T09:05:12Z</time>
      </trkpt>
      <trkpt lat="31.280210000000004" lon="35.230920000000005">
        <ele>585.4586564594242</ele>
        <time>2025-12-11T09:05:13Z</time>
      </trkpt>
      <trkpt lat="31.280160000000002" lon="35.231030000000004">
        <ele>587</ele>
        <time>2025-12-11T09:05:14Z</time>
      </trkpt>
      <trkpt lat="31.280110000000004" lon="35.231230000000004">
        <ele>587</ele>
        <time>2025-12-11T09:05:15Z</time>
      </trkpt>
      <trkpt lat="31.280130000000003" lon="35.23131">
        <ele>587</ele>
        <time>2025-12-11T09:05:16Z</time>
      </trkpt>
      <trkpt lat="31.28027" lon="35.23156">
        <ele>590</ele>
        <time>2025-12-11T09:05:17Z</time>
      </trkpt>
      <trkpt lat="31.28038" lon="35.23167">
        <ele>590</ele>
        <time>2025-12-11T09:05:18Z</time>
      </trkpt>
      <trkpt lat="31.28038" lon="35.23167">
        <ele>588.7961298068985</ele>
        <time>2025-12-11T09:05:19Z</time>
      </trkpt>
      <trkpt lat="31.280630000000002" lon="35.231820000000006">
        <ele>592</ele>
        <time>2025-12-11T09:05:20Z</time>
      </trkpt>
      <trkpt lat="31.280810000000002" lon="35.231840000000005">
        <ele>592</ele>
        <time>2025-12-11T09:05:21Z</time>
      </trkpt>
      <trkpt lat="31.28102" lon="35.23192">
        <ele>592</ele>
        <time>2025-12-11T09:05:22Z</time>
      </trkpt>
      <trkpt lat="31.281080000000003" lon="35.231970000000004">
        <ele>592</ele>
        <time>2025-12-11T09:05:23Z</time>
      </trkpt>
      <trkpt lat="31.281090000000003" lon="35.23205">
        <ele>592</ele>
        <time>2025-12-11T09:05:24Z</time>
      </trkpt>
      <trkpt lat="31.281090000000003" lon="35.23205">
        <ele>591.5472697526226</ele>
        <time>2025-12-11T09:05:25Z</time>
      </trkpt>
      <trkpt lat="31.28169" lon="35.231930000000006">
        <ele>596</ele>
        <time>2025-12-11T09:05:26Z</time>
      </trkpt>
      <trkpt lat="31.282100000000003" lon="35.23216">
        <ele>596</ele>
        <time>2025-12-11T09:05:27Z</time>
      </trkpt>
      <trkpt lat="31.2828" lon="35.23274">
        <ele>602</ele>
        <time>2025-12-11T09:05:28Z</time>
      </trkpt>
      <trkpt lat="31.2828" lon="35.23274">
        <ele>602</ele>
        <time>2025-12-11T09:05:29Z</time>
      </trkpt>
      <trkpt lat="31.283060000000003" lon="35.23319">
        <ele>604</ele>
        <time>2025-12-11T09:05:30Z</time>
      </trkpt>
      <trkpt lat="31.283060000000003" lon="35.23319">
        <ele>608.7355974692618</ele>
        <time>2025-12-11T09:05:31Z</time>
      </trkpt>
      <trkpt lat="31.282650000000004" lon="35.233630000000005">
        <ele>604</ele>
        <time>2025-12-11T09:05:32Z</time>
      </trkpt>
      <trkpt lat="31.282550000000004" lon="35.233760000000004">
        <ele>604</ele>
        <time>2025-12-11T09:05:33Z</time>
      </trkpt>
      <trkpt lat="31.283520000000003" lon="35.23443">
        <ele>599</ele>
        <time>2025-12-11T09:05:34Z</time>
      </trkpt>
      <trkpt lat="31.283980000000003" lon="35.234840000000005">
        <ele>596</ele>
        <time>2025-12-11T09:05:35Z</time>
      </trkpt>
      <extensions>
        <RoutingType xmlns="">Hike</RoutingType>
      </extensions>
    </trkseg>
    <trkseg>
      <trkpt lat="31.283980000000003" lon="35.234840000000005">
        <ele>596</ele>
        <time>2025-12-11T09:05:35Z</time>
      </trkpt>
      <trkpt lat="31.284110000000002" lon="35.234910000000006">
        <ele>596</ele>
        <time>2025-12-11T09:05:36Z</time>
      </trkpt>
      <trkpt lat="31.284110000000002" lon="35.234910000000006">
        <ele>599.8276042165026</ele>
        <time>2025-12-11T09:05:37Z</time>
      </trkpt>
      <trkpt lat="31.284250000000004" lon="35.234930000000006">
        <ele>596</ele>
        <time>2025-12-11T09:05:38Z</time>
      </trkpt>
      <trkpt lat="31.284580000000002" lon="35.2349">
        <ele>596</ele>
        <time>2025-12-11T09:05:39Z</time>
      </trkpt>
      <trkpt lat="31.284940000000002" lon="35.23492">
        <ele>592</ele>
        <time>2025-12-11T09:05:40Z</time>
      </trkpt>
      <trkpt lat="31.285680000000003" lon="35.235110000000006">
        <ele>590</ele>
        <time>2025-12-11T09:05:41Z</time>
      </trkpt>
      <trkpt lat="31.286020000000004" lon="35.23547">
        <ele>593.5</ele>
        <time>2025-12-11T09:05:42Z</time>
      </trkpt>
      <trkpt lat="31.286020000000004" lon="35.23547">
        <ele>592.8260878278334</ele>
        <time>2025-12-11T09:05:43Z</time>
      </trkpt>
      <trkpt lat="31.286020000000004" lon="35.23547">
        <ele>593.5</ele>
        <time>2025-12-11T09:05:44Z</time>
      </trkpt>
      <trkpt lat="31.28647" lon="35.236000000000004">
        <ele>597</ele>
        <time>2025-12-11T09:05:45Z</time>
      </trkpt>
      <trkpt lat="31.287060000000004" lon="35.23664">
        <ele>595</ele>
        <time>2025-12-11T09:05:46Z</time>
      </trkpt>
      <trkpt lat="31.28722" lon="35.236850000000004">
        <ele>595</ele>
        <time>2025-12-11T09:05:47Z</time>
      </trkpt>
      <trkpt lat="31.287460000000003" lon="35.237280000000005">
        <ele>604</ele>
        <time>2025-12-11T09:05:48Z</time>
      </trkpt>
      <trkpt lat="31.287460000000003" lon="35.237280000000005">
        <ele>606.4527426686716</ele>
        <time>2025-12-11T09:05:49Z</time>
      </trkpt>
      <trkpt lat="31.28761" lon="35.23763">
        <ele>604</ele>
        <time>2025-12-11T09:05:50Z</time>
      </trkpt>
      <trkpt lat="31.287640000000003" lon="35.237750000000005">
        <ele>606</ele>
        <time>2025-12-11T09:05:51Z</time>
      </trkpt>
      <trkpt lat="31.287640000000003" lon="35.237750000000005">
        <ele>606</ele>
        <time>2025-12-11T09:05:52Z</time>
      </trkpt>
      <trkpt lat="31.28787" lon="35.238490000000006">
        <ele>608</ele>
        <time>2025-12-11T09:05:53Z</time>
      </trkpt>
      <trkpt lat="31.287770000000002" lon="35.23868">
        <ele>608</ele>
        <time>2025-12-11T09:05:54Z</time>
      </trkpt>
      <trkpt lat="31.287770000000002" lon="35.23868">
        <ele>610</ele>
        <time>2025-12-11T09:05:55Z</time>
      </trkpt>
      <trkpt lat="31.28759" lon="35.23886">
        <ele>608</ele>
        <time>2025-12-11T09:05:56Z</time>
      </trkpt>
      <trkpt lat="31.287540000000003" lon="35.23894">
        <ele>608</ele>
        <time>2025-12-11T09:05:57Z</time>
      </trkpt>
      <trkpt lat="31.287440000000004" lon="35.23915">
        <ele>607</ele>
        <time>2025-12-11T09:05:58Z</time>
      </trkpt>
      <trkpt lat="31.287290000000002" lon="35.239290000000004">
        <ele>607</ele>
        <time>2025-12-11T09:05:59Z</time>
      </trkpt>
      <trkpt lat="31.28714" lon="35.239470000000004">
        <ele>602</ele>
        <time>2025-12-11T09:06:00Z</time>
      </trkpt>
      <trkpt lat="31.28714" lon="35.239470000000004">
        <ele>608.057019812092</ele>
        <time>2025-12-11T09:06:01Z</time>
      </trkpt>
      <trkpt lat="31.28693" lon="35.23966">
        <ele>602</ele>
        <time>2025-12-11T09:06:02Z</time>
      </trkpt>
      <trkpt lat="31.286770000000004" lon="35.23998">
        <ele>599</ele>
        <time>2025-12-11T09:06:03Z</time>
      </trkpt>
      <trkpt lat="31.28665" lon="35.240280000000006">
        <ele>599</ele>
        <time>2025-12-11T09:06:04Z</time>
      </trkpt>
      <trkpt lat="31.286430000000003" lon="35.240570000000005">
        <ele>599</ele>
        <time>2025-12-11T09:06:05Z</time>
      </trkpt>
      <trkpt lat="31.286420000000003" lon="35.24083">
        <ele>589</ele>
        <time>2025-12-11T09:06:06Z</time>
      </trkpt>
      <trkpt lat="31.286420000000003" lon="35.24083">
        <ele>596.4638978908397</ele>
        <time>2025-12-11T09:06:07Z</time>
      </trkpt>
      <trkpt lat="31.28637" lon="35.24098">
        <ele>589</ele>
        <time>2025-12-11T09:06:08Z</time>
      </trkpt>
      <trkpt lat="31.28639" lon="35.241130000000005">
        <ele>589</ele>
        <time>2025-12-11T09:06:09Z</time>
      </trkpt>
      <trkpt lat="31.28639" lon="35.241130000000005">
        <ele>589</ele>
        <time>2025-12-11T09:06:10Z</time>
      </trkpt>
      <trkpt lat="31.286410000000004" lon="35.24123">
        <ele>589</ele>
        <time>2025-12-11T09:06:11Z</time>
      </trkpt>
      <trkpt lat="31.286550000000002" lon="35.24141">
        <ele>593</ele>
        <time>2025-12-11T09:06:12Z</time>
      </trkpt>
      <trkpt lat="31.286550000000002" lon="35.24141">
        <ele>596.926579728507</ele>
        <time>2025-12-11T09:06:13Z</time>
      </trkpt>
      <trkpt lat="31.286990000000003" lon="35.24172">
        <ele>596</ele>
        <time>2025-12-11T09:06:14Z</time>
      </trkpt>
      <trkpt lat="31.287080000000003" lon="35.24206">
        <ele>596</ele>
        <time>2025-12-11T09:06:15Z</time>
      </trkpt>
      <trkpt lat="31.287020000000002" lon="35.242490000000004">
        <ele>600</ele>
        <time>2025-12-11T09:06:16Z</time>
      </trkpt>
      <trkpt lat="31.286990000000003" lon="35.24316">
        <ele>592</ele>
        <time>2025-12-11T09:06:17Z</time>
      </trkpt>
      <trkpt lat="31.28684" lon="35.243840000000006">
        <ele>592</ele>
        <time>2025-12-11T09:06:18Z</time>
      </trkpt>
      <trkpt lat="31.28684" lon="35.243840000000006">
        <ele>588.5073632722488</ele>
        <time>2025-12-11T09:06:19Z</time>
      </trkpt>
      <trkpt lat="31.286920000000002" lon="35.244060000000005">
        <ele>573</ele>
        <time>2025-12-11T09:06:20Z</time>
      </trkpt>
      <trkpt lat="31.286910000000002" lon="35.24429">
        <ele>573</ele>
        <time>2025-12-11T09:06:21Z</time>
      </trkpt>
      <trkpt lat="31.287090000000003" lon="35.24439">
        <ele>573</ele>
        <time>2025-12-11T09:06:22Z</time>
      </trkpt>
      <trkpt lat="31.28695" lon="35.244510000000005">
        <ele>573</ele>
        <time>2025-12-11T09:06:23Z</time>
      </trkpt>
      <trkpt lat="31.286880000000004" lon="35.244710000000005">
        <ele>573</ele>
        <time>2025-12-11T09:06:24Z</time>
      </trkpt>
      <trkpt lat="31.286880000000004" lon="35.244710000000005">
        <ele>563.7785067872028</ele>
        <time>2025-12-11T09:06:25Z</time>
      </trkpt>
      <trkpt lat="31.286770000000004" lon="35.2449">
        <ele>555</ele>
        <time>2025-12-11T09:06:26Z</time>
      </trkpt>
      <trkpt lat="31.286960000000004" lon="35.24523">
        <ele>555</ele>
        <time>2025-12-11T09:06:27Z</time>
      </trkpt>
      <trkpt lat="31.286880000000004" lon="35.245490000000004">
        <ele>555</ele>
        <time>2025-12-11T09:06:28Z</time>
      </trkpt>
      <trkpt lat="31.286890000000003" lon="35.24557">
        <ele>555</ele>
        <time>2025-12-11T09:06:29Z</time>
      </trkpt>
      <trkpt lat="31.286920000000002" lon="35.24566">
        <ele>539</ele>
        <time>2025-12-11T09:06:30Z</time>
      </trkpt>
      <trkpt lat="31.286920000000002" lon="35.24566">
        <ele>547.2534200210357</ele>
        <time>2025-12-11T09:06:31Z</time>
      </trkpt>
      <extensions>
        <RoutingType xmlns="">Hike</RoutingType>
      </extensions>
    </trkseg>
    <trkseg>
      <trkpt lat="31.286920000000002" lon="35.24566">
        <ele>547.2534200210357</ele>
        <time>2025-12-11T09:06:31Z</time>
      </trkpt>
      <trkpt lat="31.28703" lon="35.245830000000005">
        <ele>539</ele>
        <time>2025-12-11T09:06:32Z</time>
      </trkpt>
      <trkpt lat="31.287200000000002" lon="35.245810000000006">
        <ele>539</ele>
        <time>2025-12-11T09:06:33Z</time>
      </trkpt>
      <trkpt lat="31.287250000000004" lon="35.24582">
        <ele>532.5</ele>
        <time>2025-12-11T09:06:34Z</time>
      </trkpt>
      <trkpt lat="31.287250000000004" lon="35.24582">
        <ele>532.5</ele>
        <time>2025-12-11T09:06:35Z</time>
      </trkpt>
      <trkpt lat="31.287380000000002" lon="35.24586">
        <ele>526</ele>
        <time>2025-12-11T09:06:36Z</time>
      </trkpt>
      <trkpt lat="31.287380000000002" lon="35.24586">
        <ele>532.9948725025336</ele>
        <time>2025-12-11T09:06:37Z</time>
      </trkpt>
      <trkpt lat="31.287350000000004" lon="35.246100000000006">
        <ele>526</ele>
        <time>2025-12-11T09:06:38Z</time>
      </trkpt>
      <trkpt lat="31.287460000000003" lon="35.246120000000005">
        <ele>526</ele>
        <time>2025-12-11T09:06:39Z</time>
      </trkpt>
      <trkpt lat="31.287490000000002" lon="35.24618">
        <ele>526</ele>
        <time>2025-12-11T09:06:40Z</time>
      </trkpt>
      <trkpt lat="31.287570000000002" lon="35.246590000000005">
        <ele>512</ele>
        <time>2025-12-11T09:06:41Z</time>
      </trkpt>
      <trkpt lat="31.28741" lon="35.24671">
        <ele>512</ele>
        <time>2025-12-11T09:06:42Z</time>
      </trkpt>
      <trkpt lat="31.28741" lon="35.24671">
        <ele>513.0299944786418</ele>
        <time>2025-12-11T09:06:43Z</time>
      </trkpt>
      <trkpt lat="31.28723" lon="35.247240000000005">
        <ele>521</ele>
        <time>2025-12-11T09:06:44Z</time>
      </trkpt>
      <trkpt lat="31.287070000000003" lon="35.24797">
        <ele>501</ele>
        <time>2025-12-11T09:06:45Z</time>
      </trkpt>
      <trkpt lat="31.286960000000004" lon="35.248850000000004">
        <ele>489</ele>
        <time>2025-12-11T09:06:46Z</time>
      </trkpt>
      <trkpt lat="31.286960000000004" lon="35.248850000000004">
        <ele>489</ele>
        <time>2025-12-11T09:06:47Z</time>
      </trkpt>
      <trkpt lat="31.287180000000003" lon="35.249120000000005">
        <ele>486</ele>
        <time>2025-12-11T09:06:48Z</time>
      </trkpt>
      <trkpt lat="31.287180000000003" lon="35.249120000000005">
        <ele>481.99335153183335</ele>
        <time>2025-12-11T09:06:49Z</time>
      </trkpt>
      <trkpt lat="31.287280000000003" lon="35.249460000000006">
        <ele>483</ele>
        <time>2025-12-11T09:06:50Z</time>
      </trkpt>
      <trkpt lat="31.2877" lon="35.249990000000004">
        <ele>481</ele>
        <time>2025-12-11T09:06:51Z</time>
      </trkpt>
      <trkpt lat="31.28817" lon="35.250080000000004">
        <ele>474</ele>
        <time>2025-12-11T09:06:52Z</time>
      </trkpt>
      <trkpt lat="31.288420000000002" lon="35.24991">
        <ele>474</ele>
        <time>2025-12-11T09:06:53Z</time>
      </trkpt>
      <trkpt lat="31.288420000000002" lon="35.24991">
        <ele>474</ele>
        <time>2025-12-11T09:06:54Z</time>
      </trkpt>
      <trkpt lat="31.288420000000002" lon="35.24991">
        <ele>472.07661169681296</ele>
        <time>2025-12-11T09:06:55Z</time>
      </trkpt>
      <trkpt lat="31.288560000000004" lon="35.24982">
        <ele>474</ele>
        <time>2025-12-11T09:06:56Z</time>
      </trkpt>
      <trkpt lat="31.288800000000002" lon="35.249990000000004">
        <ele>474</ele>
        <time>2025-12-11T09:06:57Z</time>
      </trkpt>
      <trkpt lat="31.28891" lon="35.250400000000006">
        <ele>474</ele>
        <time>2025-12-11T09:06:58Z</time>
      </trkpt>
      <trkpt lat="31.289150000000003" lon="35.25065">
        <ele>467</ele>
        <time>2025-12-11T09:06:59Z</time>
      </trkpt>
      <trkpt lat="31.289230000000003" lon="35.251020000000004">
        <ele>467</ele>
        <time>2025-12-11T09:07:00Z</time>
      </trkpt>
      <trkpt lat="31.289230000000003" lon="35.251020000000004">
        <ele>466.5063434881265</ele>
        <time>2025-12-11T09:07:01Z</time>
      </trkpt>
      <trkpt lat="31.289490000000004" lon="35.250800000000005">
        <ele>467</ele>
        <time>2025-12-11T09:07:02Z</time>
      </trkpt>
      <trkpt lat="31.289870000000004" lon="35.25058">
        <ele>468</ele>
        <time>2025-12-11T09:07:03Z</time>
      </trkpt>
      <trkpt lat="31.290000000000003" lon="35.250730000000004">
        <ele>463</ele>
        <time>2025-12-11T09:07:04Z</time>
      </trkpt>
      <trkpt lat="31.290180000000003" lon="35.25066">
        <ele>463</ele>
        <time>2025-12-11T09:07:05Z</time>
      </trkpt>
      <trkpt lat="31.290370000000003" lon="35.25016">
        <ele>468</ele>
        <time>2025-12-11T09:07:06Z</time>
      </trkpt>
      <trkpt lat="31.290370000000003" lon="35.25016">
        <ele>455.02928879351884</ele>
        <time>2025-12-11T09:07:07Z</time>
      </trkpt>
      <trkpt lat="31.290570000000002" lon="35.250170000000004">
        <ele>462</ele>
        <time>2025-12-11T09:07:08Z</time>
      </trkpt>
      <trkpt lat="31.290570000000002" lon="35.250170000000004">
        <ele>462</ele>
        <time>2025-12-11T09:07:09Z</time>
      </trkpt>
      <trkpt lat="31.291020000000003" lon="35.25019">
        <ele>456</ele>
        <time>2025-12-11T09:07:10Z</time>
      </trkpt>
      <trkpt lat="31.291430000000002" lon="35.2503">
        <ele>454</ele>
        <time>2025-12-11T09:07:11Z</time>
      </trkpt>
      <trkpt lat="31.291590000000003" lon="35.250370000000004">
        <ele>454</ele>
        <time>2025-12-11T09:07:12Z</time>
      </trkpt>
      <trkpt lat="31.291590000000003" lon="35.250370000000004">
        <ele>439.4704419007455</ele>
        <time>2025-12-11T09:07:13Z</time>
      </trkpt>
      <trkpt lat="31.291880000000003" lon="35.25061">
        <ele>454</ele>
        <time>2025-12-11T09:07:14Z</time>
      </trkpt>
      <trkpt lat="31.292230000000004" lon="35.25066">
        <ele>444</ele>
        <time>2025-12-11T09:07:15Z</time>
      </trkpt>
      <trkpt lat="31.292410000000004" lon="35.25077">
        <ele>438</ele>
        <time>2025-12-11T09:07:16Z</time>
      </trkpt>
      <trkpt lat="31.292510000000004" lon="35.25092">
        <ele>438</ele>
        <time>2025-12-11T09:07:17Z</time>
      </trkpt>
      <trkpt lat="31.292540000000002" lon="35.25137">
        <ele>438</ele>
        <time>2025-12-11T09:07:18Z</time>
      </trkpt>
      <trkpt lat="31.292540000000002" lon="35.25137">
        <ele>433.52409107883307</ele>
        <time>2025-12-11T09:07:19Z</time>
      </trkpt>
      <trkpt lat="31.292700000000004" lon="35.251470000000005">
        <ele>433</ele>
        <time>2025-12-11T09:07:20Z</time>
      </trkpt>
      <trkpt lat="31.29284" lon="35.25162">
        <ele>433</ele>
        <time>2025-12-11T09:07:21Z</time>
      </trkpt>
      <trkpt lat="31.292900000000003" lon="35.25202">
        <ele>433</ele>
        <time>2025-12-11T09:07:22Z</time>
      </trkpt>
      <trkpt lat="31.293060000000004" lon="35.25218">
        <ele>433</ele>
        <time>2025-12-11T09:07:23Z</time>
      </trkpt>
      <trkpt lat="31.29332" lon="35.251940000000005">
        <ele>423</ele>
        <time>2025-12-11T09:07:24Z</time>
      </trkpt>
      <trkpt lat="31.29332" lon="35.251940000000005">
        <ele>414.55530748857336</ele>
        <time>2025-12-11T09:07:25Z</time>
      </trkpt>
      <trkpt lat="31.293460000000003" lon="35.2517">
        <ele>423</ele>
        <time>2025-12-11T09:07:26Z</time>
      </trkpt>
      <trkpt lat="31.293830000000003" lon="35.251270000000005">
        <ele>441</ele>
        <time>2025-12-11T09:07:27Z</time>
      </trkpt>
      <extensions>
        <RoutingType xmlns="">Hike</RoutingType>
      </extensions>
    </trkseg>
    <trkseg>
      <trkpt lat="31.293830000000003" lon="35.251270000000005">
        <ele>441</ele>
        <time>2025-12-11T09:07:27Z</time>
      </trkpt>
      <trkpt lat="31.29398" lon="35.251180000000005">
        <ele>419</ele>
        <time>2025-12-11T09:07:28Z</time>
      </trkpt>
      <trkpt lat="31.294520000000002" lon="35.251050000000006">
        <ele>419</ele>
        <time>2025-12-11T09:07:29Z</time>
      </trkpt>
      <trkpt lat="31.294700000000002" lon="35.25097">
        <ele>419</ele>
        <time>2025-12-11T09:07:30Z</time>
      </trkpt>
      <trkpt lat="31.294700000000002" lon="35.25097">
        <ele>405.23471662275347</ele>
        <time>2025-12-11T09:07:31Z</time>
      </trkpt>
      <trkpt lat="31.294840000000004" lon="35.25083">
        <ele>410</ele>
        <time>2025-12-11T09:07:32Z</time>
      </trkpt>
      <trkpt lat="31.294790000000003" lon="35.250640000000004">
        <ele>410</ele>
        <time>2025-12-11T09:07:33Z</time>
      </trkpt>
      <trkpt lat="31.294700000000002" lon="35.250440000000005">
        <ele>434</ele>
        <time>2025-12-11T09:07:34Z</time>
      </trkpt>
      <trkpt lat="31.294950000000004" lon="35.249860000000005">
        <ele>401</ele>
        <time>2025-12-11T09:07:35Z</time>
      </trkpt>
      <trkpt lat="31.295130000000004" lon="35.24992">
        <ele>401</ele>
        <time>2025-12-11T09:07:36Z</time>
      </trkpt>
      <trkpt lat="31.295130000000004" lon="35.24992">
        <ele>394.3445826430593</ele>
        <time>2025-12-11T09:07:37Z</time>
      </trkpt>
      <trkpt lat="31.2952" lon="35.250130000000006">
        <ele>401</ele>
        <time>2025-12-11T09:07:38Z</time>
      </trkpt>
      <trkpt lat="31.2952" lon="35.250130000000006">
        <ele>401</ele>
        <time>2025-12-11T09:07:39Z</time>
      </trkpt>
      <trkpt lat="31.2953" lon="35.250240000000005">
        <ele>401</ele>
        <time>2025-12-11T09:07:40Z</time>
      </trkpt>
      <trkpt lat="31.295700000000004" lon="35.25018">
        <ele>402</ele>
        <time>2025-12-11T09:07:41Z</time>
      </trkpt>
      <trkpt lat="31.295830000000002" lon="35.25027">
        <ele>402</ele>
        <time>2025-12-11T09:07:42Z</time>
      </trkpt>
      <trkpt lat="31.295830000000002" lon="35.25027">
        <ele>390.5346635191545</ele>
        <time>2025-12-11T09:07:43Z</time>
      </trkpt>
      <trkpt lat="31.296010000000003" lon="35.25067">
        <ele>397</ele>
        <time>2025-12-11T09:07:44Z</time>
      </trkpt>
      <trkpt lat="31.296190000000003" lon="35.25077">
        <ele>397</ele>
        <time>2025-12-11T09:07:45Z</time>
      </trkpt>
      <trkpt lat="31.29633" lon="35.25079">
        <ele>397</ele>
        <time>2025-12-11T09:07:46Z</time>
      </trkpt>
      <trkpt lat="31.296490000000002" lon="35.250980000000006">
        <ele>395</ele>
        <time>2025-12-11T09:07:47Z</time>
      </trkpt>
      <trkpt lat="31.296530000000004" lon="35.251290000000004">
        <ele>395</ele>
        <time>2025-12-11T09:07:48Z</time>
      </trkpt>
      <trkpt lat="31.296530000000004" lon="35.251290000000004">
        <ele>384.0586985140625</ele>
        <time>2025-12-11T09:07:49Z</time>
      </trkpt>
      <trkpt lat="31.2967" lon="35.251810000000006">
        <ele>390</ele>
        <time>2025-12-11T09:07:50Z</time>
      </trkpt>
      <trkpt lat="31.296840000000003" lon="35.252370000000006">
        <ele>388</ele>
        <time>2025-12-11T09:07:51Z</time>
      </trkpt>
      <trkpt lat="31.29697" lon="35.25276">
        <ele>388</ele>
        <time>2025-12-11T09:07:52Z</time>
      </trkpt>
      <trkpt lat="31.297100000000004" lon="35.25291">
        <ele>388</ele>
        <time>2025-12-11T09:07:53Z</time>
      </trkpt>
      <trkpt lat="31.297520000000002" lon="35.25368">
        <ele>383</ele>
        <time>2025-12-11T09:07:54Z</time>
      </trkpt>
      <trkpt lat="31.297520000000002" lon="35.25368">
        <ele>369.55339872820167</ele>
        <time>2025-12-11T09:07:55Z</time>
      </trkpt>
      <trkpt lat="31.297510000000003" lon="35.25381">
        <ele>378.5</ele>
        <time>2025-12-11T09:07:56Z</time>
      </trkpt>
      <trkpt lat="31.297510000000003" lon="35.25381">
        <ele>378.5</ele>
        <time>2025-12-11T09:07:57Z</time>
      </trkpt>
      <trkpt lat="31.297510000000003" lon="35.25395">
        <ele>374</ele>
        <time>2025-12-11T09:07:58Z</time>
      </trkpt>
      <trkpt lat="31.297490000000003" lon="35.25406">
        <ele>374</ele>
        <time>2025-12-11T09:07:59Z</time>
      </trkpt>
      <trkpt lat="31.29736" lon="35.25446">
        <ele>374</ele>
        <time>2025-12-11T09:08:00Z</time>
      </trkpt>
      <trkpt lat="31.29736" lon="35.25446">
        <ele>365.8404419321406</ele>
        <time>2025-12-11T09:08:01Z</time>
      </trkpt>
      <trkpt lat="31.297420000000002" lon="35.254650000000005">
        <ele>374</ele>
        <time>2025-12-11T09:08:02Z</time>
      </trkpt>
      <trkpt lat="31.297430000000002" lon="35.255120000000005">
        <ele>370</ele>
        <time>2025-12-11T09:08:03Z</time>
      </trkpt>
      <trkpt lat="31.297590000000003" lon="35.255810000000004">
        <ele>367</ele>
        <time>2025-12-11T09:08:04Z</time>
      </trkpt>
      <trkpt lat="31.29765" lon="35.25654">
        <ele>365</ele>
        <time>2025-12-11T09:08:05Z</time>
      </trkpt>
      <trkpt lat="31.29774" lon="35.256870000000006">
        <ele>365</ele>
        <time>2025-12-11T09:08:06Z</time>
      </trkpt>
      <trkpt lat="31.29774" lon="35.256870000000006">
        <ele>358.8082337305102</ele>
        <time>2025-12-11T09:08:07Z</time>
      </trkpt>
      <trkpt lat="31.298000000000002" lon="35.257600000000004">
        <ele>363</ele>
        <time>2025-12-11T09:08:08Z</time>
      </trkpt>
      <trkpt lat="31.298030000000004" lon="35.257760000000005">
        <ele>357</ele>
        <time>2025-12-11T09:08:09Z</time>
      </trkpt>
      <trkpt lat="31.298030000000004" lon="35.257760000000005">
        <ele>357</ele>
        <time>2025-12-11T09:08:10Z</time>
      </trkpt>
      <trkpt lat="31.29812" lon="35.2582">
        <ele>351</ele>
        <time>2025-12-11T09:08:11Z</time>
      </trkpt>
      <trkpt lat="31.298180000000002" lon="35.258590000000005">
        <ele>351</ele>
        <time>2025-12-11T09:08:12Z</time>
      </trkpt>
      <trkpt lat="31.298180000000002" lon="35.258590000000005">
        <ele>349.6289570043326</ele>
        <time>2025-12-11T09:08:13Z</time>
      </trkpt>
      <trkpt lat="31.29819" lon="35.259170000000005">
        <ele>348</ele>
        <time>2025-12-11T09:08:14Z</time>
      </trkpt>
      <trkpt lat="31.298260000000003" lon="35.25995">
        <ele>345</ele>
        <time>2025-12-11T09:08:15Z</time>
      </trkpt>
      <trkpt lat="31.29849" lon="35.26064">
        <ele>345</ele>
        <time>2025-12-11T09:08:16Z</time>
      </trkpt>
      <trkpt lat="31.298830000000002" lon="35.261">
        <ele>345</ele>
        <time>2025-12-11T09:08:17Z</time>
      </trkpt>
      <trkpt lat="31.299270000000003" lon="35.26211">
        <ele>336</ele>
        <time>2025-12-11T09:08:18Z</time>
      </trkpt>
      <trkpt lat="31.299270000000003" lon="35.26211">
        <ele>334.01922765016457</ele>
        <time>2025-12-11T09:08:19Z</time>
      </trkpt>
      <trkpt lat="31.299390000000002" lon="35.262480000000004">
        <ele>336</ele>
        <time>2025-12-11T09:08:20Z</time>
      </trkpt>
      <trkpt lat="31.299590000000002" lon="35.262800000000006">
        <ele>336</ele>
        <time>2025-12-11T09:08:21Z</time>
      </trkpt>
      <trkpt lat="31.299680000000002" lon="35.263380000000005">
        <ele>332</ele>
        <time>2025-12-11T09:08:22Z</time>
      </trkpt>
      <trkpt lat="31.30008" lon="35.263940000000005">
        <ele>333</ele>
        <time>2025-12-11T09:08:23Z</time>
      </trkpt>
      <extensions>
        <RoutingType xmlns="">Hike</RoutingType>
      </extensions>
    </trkseg>
    <trkseg>
      <trkpt lat="31.30008" lon="35.263940000000005">
        <ele>333</ele>
        <time>2025-12-11T09:08:23Z</time>
      </trkpt>
      <trkpt lat="31.300030000000003" lon="35.26493">
        <ele>325</ele>
        <time>2025-12-11T09:08:24Z</time>
      </trkpt>
      <trkpt lat="31.300030000000003" lon="35.26493">
        <ele>327.42349731024115</ele>
        <time>2025-12-11T09:08:25Z</time>
      </trkpt>
      <trkpt lat="31.30101" lon="35.26624">
        <ele>324</ele>
        <time>2025-12-11T09:08:26Z</time>
      </trkpt>
      <trkpt lat="31.301080000000002" lon="35.26652">
        <ele>323.5</ele>
        <time>2025-12-11T09:08:27Z</time>
      </trkpt>
      <trkpt lat="31.301080000000002" lon="35.26652">
        <ele>323.5</ele>
        <time>2025-12-11T09:08:28Z</time>
      </trkpt>
      <trkpt lat="31.30111" lon="35.26661">
        <ele>323</ele>
        <time>2025-12-11T09:08:29Z</time>
      </trkpt>
      <trkpt lat="31.301280000000002" lon="35.26699">
        <ele>323</ele>
        <time>2025-12-11T09:08:30Z</time>
      </trkpt>
      <trkpt lat="31.301280000000002" lon="35.26699">
        <ele>323.0268251637857</ele>
        <time>2025-12-11T09:08:31Z</time>
      </trkpt>
      <trkpt lat="31.301530000000003" lon="35.26733">
        <ele>318</ele>
        <time>2025-12-11T09:08:32Z</time>
      </trkpt>
      <trkpt lat="31.30196" lon="35.26816">
        <ele>316</ele>
        <time>2025-12-11T09:08:33Z</time>
      </trkpt>
      <trkpt lat="31.302110000000003" lon="35.26812">
        <ele>316</ele>
        <time>2025-12-11T09:08:34Z</time>
      </trkpt>
      <trkpt lat="31.302110000000003" lon="35.26812">
        <ele>316</ele>
        <time>2025-12-11T09:08:35Z</time>
      </trkpt>
      <trkpt lat="31.302500000000002" lon="35.26776">
        <ele>311</ele>
        <time>2025-12-11T09:08:36Z</time>
      </trkpt>
      <trkpt lat="31.302500000000002" lon="35.26776">
        <ele>311.7002726709612</ele>
        <time>2025-12-11T09:08:37Z</time>
      </trkpt>
      <trkpt lat="31.302670000000003" lon="35.267540000000004">
        <ele>311</ele>
        <time>2025-12-11T09:08:38Z</time>
      </trkpt>
      <trkpt lat="31.302750000000003" lon="35.26747">
        <ele>311</ele>
        <time>2025-12-11T09:08:39Z</time>
      </trkpt>
      <trkpt lat="31.302860000000003" lon="35.26742">
        <ele>311</ele>
        <time>2025-12-11T09:08:40Z</time>
      </trkpt>
      <trkpt lat="31.303040000000003" lon="35.267340000000004">
        <ele>311</ele>
        <time>2025-12-11T09:08:41Z</time>
      </trkpt>
      <trkpt lat="31.303220000000003" lon="35.26756">
        <ele>319</ele>
        <time>2025-12-11T09:08:42Z</time>
      </trkpt>
      <trkpt lat="31.303220000000003" lon="35.26756">
        <ele>317.6310387546568</ele>
        <time>2025-12-11T09:08:43Z</time>
      </trkpt>
      <trkpt lat="31.303250000000002" lon="35.26773">
        <ele>319</ele>
        <time>2025-12-11T09:08:44Z</time>
      </trkpt>
      <trkpt lat="31.303400000000003" lon="35.26812">
        <ele>318</ele>
        <time>2025-12-11T09:08:45Z</time>
      </trkpt>
      <trkpt lat="31.303480000000004" lon="35.268170000000005">
        <ele>318</ele>
        <time>2025-12-11T09:08:46Z</time>
      </trkpt>
      <trkpt lat="31.303530000000002" lon="35.26816">
        <ele>318</ele>
        <time>2025-12-11T09:08:47Z</time>
      </trkpt>
      <trkpt lat="31.303600000000003" lon="35.268100000000004">
        <ele>319</ele>
        <time>2025-12-11T09:08:48Z</time>
      </trkpt>
      <trkpt lat="31.303600000000003" lon="35.268100000000004">
        <ele>326.282171939034</ele>
        <time>2025-12-11T09:08:49Z</time>
      </trkpt>
      <trkpt lat="31.303970000000003" lon="35.267880000000005">
        <ele>327</ele>
        <time>2025-12-11T09:08:50Z</time>
      </trkpt>
      <trkpt lat="31.30411" lon="35.267830000000004">
        <ele>327</ele>
        <time>2025-12-11T09:08:51Z</time>
      </trkpt>
      <trkpt lat="31.305190000000003" lon="35.26766">
        <ele>325</ele>
        <time>2025-12-11T09:08:52Z</time>
      </trkpt>
      <trkpt lat="31.305360000000004" lon="35.26766">
        <ele>325</ele>
        <time>2025-12-11T09:08:53Z</time>
      </trkpt>
      <trkpt lat="31.305500000000002" lon="35.26771">
        <ele>325</ele>
        <time>2025-12-11T09:08:54Z</time>
      </trkpt>
      <trkpt lat="31.305500000000002" lon="35.26771">
        <ele>325</ele>
        <time>2025-12-11T09:08:55Z</time>
      </trkpt>
      <trkpt lat="31.30631135802426" lon="35.26918376848735">
        <ele>317</ele>
        <time>2025-12-11T09:08:56Z</time>
      </trkpt>
      <trkpt lat="31.306300000000004" lon="35.269180000000006">
        <ele>317</ele>
        <time>2025-12-11T09:08:57Z</time>
      </trkpt>
      <trkpt lat="31.30618" lon="35.26877">
        <ele>321</ele>
        <time>2025-12-11T09:08:58Z</time>
      </trkpt>
      <trkpt lat="31.306670000000004" lon="35.269270000000006">
        <ele>316</ele>
        <time>2025-12-11T09:08:59Z</time>
      </trkpt>
      <trkpt lat="31.306800000000003" lon="35.269330000000004">
        <ele>316</ele>
        <time>2025-12-11T09:09:00Z</time>
      </trkpt>
      <trkpt lat="31.307170000000003" lon="35.269400000000005">
        <ele>316</ele>
        <time>2025-12-11T09:09:01Z</time>
      </trkpt>
      <trkpt lat="31.307640000000003" lon="35.269420000000004">
        <ele>312</ele>
        <time>2025-12-11T09:09:02Z</time>
      </trkpt>
      <trkpt lat="31.307790000000004" lon="35.269400000000005">
        <ele>312</ele>
        <time>2025-12-11T09:09:03Z</time>
      </trkpt>
      <trkpt lat="31.308010000000003" lon="35.26935">
        <ele>312</ele>
        <time>2025-12-11T09:09:04Z</time>
      </trkpt>
      <trkpt lat="31.30825" lon="35.269360000000006">
        <ele>315</ele>
        <time>2025-12-11T09:09:05Z</time>
      </trkpt>
      <trkpt lat="31.308450000000004" lon="35.26943">
        <ele>315</ele>
        <time>2025-12-11T09:09:06Z</time>
      </trkpt>
      <trkpt lat="31.30899" lon="35.269690000000004">
        <ele>319</ele>
        <time>2025-12-11T09:09:07Z</time>
      </trkpt>
      <trkpt lat="31.309120000000004" lon="35.269740000000006">
        <ele>319</ele>
        <time>2025-12-11T09:09:08Z</time>
      </trkpt>
      <trkpt lat="31.30927" lon="35.26975">
        <ele>319</ele>
        <time>2025-12-11T09:09:09Z</time>
      </trkpt>
      <trkpt lat="31.30965" lon="35.26962">
        <ele>319</ele>
        <time>2025-12-11T09:09:10Z</time>
      </trkpt>
      <trkpt lat="31.309880000000003" lon="35.269600000000004">
        <ele>324</ele>
        <time>2025-12-11T09:09:11Z</time>
      </trkpt>
      <trkpt lat="31.31013" lon="35.26964">
        <ele>324</ele>
        <time>2025-12-11T09:09:12Z</time>
      </trkpt>
      <trkpt lat="31.310370000000002" lon="35.269760000000005">
        <ele>324</ele>
        <time>2025-12-11T09:09:13Z</time>
      </trkpt>
      <trkpt lat="31.310480000000002" lon="35.26984">
        <ele>324</ele>
        <time>2025-12-11T09:09:14Z</time>
      </trkpt>
      <trkpt lat="31.310560000000002" lon="35.269920000000006">
        <ele>324</ele>
        <time>2025-12-11T09:09:15Z</time>
      </trkpt>
      <trkpt lat="31.310650000000003" lon="35.270050000000005">
        <ele>327</ele>
        <time>2025-12-11T09:09:16Z</time>
      </trkpt>
      <trkpt lat="31.310910000000003" lon="35.270590000000006">
        <ele>327</ele>
        <time>2025-12-11T09:09:17Z</time>
      </trkpt>
      <trkpt lat="31.311670000000003" lon="35.272310000000004">
        <ele>313</ele>
        <time>2025-12-11T09:09:18Z</time>
      </trkpt>
      <trkpt lat="31.31199" lon="35.27273">
        <ele>313</ele>
        <time>2025-12-11T09:09:19Z</time>
      </trkpt>
      <extensions>
        <RoutingType xmlns="">Hike</RoutingType>
      </extensions>
    </trkseg>
    <trkseg>
      <trkpt lat="31.31199" lon="35.27273">
        <ele>313</ele>
        <time>2025-12-11T09:09:19Z</time>
      </trkpt>
      <trkpt lat="31.312230000000003" lon="35.272850000000005">
        <ele>313</ele>
        <time>2025-12-11T09:09:20Z</time>
      </trkpt>
      <trkpt lat="31.312390000000004" lon="35.27291">
        <ele>311</ele>
        <time>2025-12-11T09:09:21Z</time>
      </trkpt>
      <trkpt lat="31.31294" lon="35.27306">
        <ele>311</ele>
        <time>2025-12-11T09:09:22Z</time>
      </trkpt>
      <trkpt lat="31.313380000000002" lon="35.27313">
        <ele>310</ele>
        <time>2025-12-11T09:09:23Z</time>
      </trkpt>
      <trkpt lat="31.314550000000004" lon="35.273450000000004">
        <ele>314</ele>
        <time>2025-12-11T09:09:24Z</time>
      </trkpt>
      <trkpt lat="31.314940000000004" lon="35.27357">
        <ele>316</ele>
        <time>2025-12-11T09:09:25Z</time>
      </trkpt>
      <trkpt lat="31.315680000000004" lon="35.27376">
        <ele>317</ele>
        <time>2025-12-11T09:09:26Z</time>
      </trkpt>
      <trkpt lat="31.315680000000004" lon="35.27376">
        <ele>317</ele>
        <time>2025-12-11T09:09:27Z</time>
      </trkpt>
      <trkpt lat="31.316110000000002" lon="35.27387">
        <ele>318</ele>
        <time>2025-12-11T09:09:28Z</time>
      </trkpt>
      <trkpt lat="31.316190000000002" lon="35.273880000000005">
        <ele>318</ele>
        <time>2025-12-11T09:09:29Z</time>
      </trkpt>
      <trkpt lat="31.31642" lon="35.27387">
        <ele>320</ele>
        <time>2025-12-11T09:09:30Z</time>
      </trkpt>
      <trkpt lat="31.31651" lon="35.27389">
        <ele>320</ele>
        <time>2025-12-11T09:09:31Z</time>
      </trkpt>
      <trkpt lat="31.31679" lon="35.274">
        <ele>315</ele>
        <time>2025-12-11T09:09:32Z</time>
      </trkpt>
      <trkpt lat="31.31735" lon="35.274150000000006">
        <ele>320</ele>
        <time>2025-12-11T09:09:33Z</time>
      </trkpt>
      <trkpt lat="31.317770000000003" lon="35.274300000000004">
        <ele>320</ele>
        <time>2025-12-11T09:09:34Z</time>
      </trkpt>
      <trkpt lat="31.319070000000004" lon="35.27456">
        <ele>324</ele>
        <time>2025-12-11T09:09:35Z</time>
      </trkpt>
      <trkpt lat="31.3197" lon="35.27467">
        <ele>324</ele>
        <time>2025-12-11T09:09:36Z</time>
      </trkpt>
      <trkpt lat="31.320370000000004" lon="35.27487">
        <ele>322</ele>
        <time>2025-12-11T09:09:37Z</time>
      </trkpt>
      <trkpt lat="31.320610000000002" lon="35.27492">
        <ele>323</ele>
        <time>2025-12-11T09:09:38Z</time>
      </trkpt>
      <trkpt lat="31.321160000000003" lon="35.275110000000005">
        <ele>323</ele>
        <time>2025-12-11T09:09:39Z</time>
      </trkpt>
      <trkpt lat="31.321500000000004" lon="35.275380000000006">
        <ele>324</ele>
        <time>2025-12-11T09:09:40Z</time>
      </trkpt>
      <trkpt lat="31.321680000000004" lon="35.275470000000006">
        <ele>324</ele>
        <time>2025-12-11T09:09:41Z</time>
      </trkpt>
      <trkpt lat="31.322000000000003" lon="35.27555">
        <ele>324</ele>
        <time>2025-12-11T09:09:42Z</time>
      </trkpt>
      <trkpt lat="31.322190000000003" lon="35.27561">
        <ele>322</ele>
        <time>2025-12-11T09:09:43Z</time>
      </trkpt>
      <trkpt lat="31.32251" lon="35.275760000000005">
        <ele>323</ele>
        <time>2025-12-11T09:09:44Z</time>
      </trkpt>
      <trkpt lat="31.323320000000002" lon="35.276030000000006">
        <ele>325</ele>
        <time>2025-12-11T09:09:45Z</time>
      </trkpt>
      <trkpt lat="31.323690000000003" lon="35.27608">
        <ele>325</ele>
        <time>2025-12-11T09:09:46Z</time>
      </trkpt>
      <trkpt lat="31.323870000000003" lon="35.27617">
        <ele>325</ele>
        <time>2025-12-11T09:09:47Z</time>
      </trkpt>
      <trkpt lat="31.324260000000002" lon="35.27624">
        <ele>328</ele>
        <time>2025-12-11T09:09:48Z</time>
      </trkpt>
      <trkpt lat="31.324630000000003" lon="35.27635">
        <ele>328</ele>
        <time>2025-12-11T09:09:49Z</time>
      </trkpt>
      <trkpt lat="31.326110000000003" lon="35.27703">
        <ele>317</ele>
        <time>2025-12-11T09:09:50Z</time>
      </trkpt>
      <trkpt lat="31.326480000000004" lon="35.27716">
        <ele>313</ele>
        <time>2025-12-11T09:09:51Z</time>
      </trkpt>
      <trkpt lat="31.32673" lon="35.277210000000004">
        <ele>313</ele>
        <time>2025-12-11T09:09:52Z</time>
      </trkpt>
      <trkpt lat="31.327060000000003" lon="35.277190000000004">
        <ele>313</ele>
        <time>2025-12-11T09:09:53Z</time>
      </trkpt>
      <trkpt lat="31.327310000000004" lon="35.277120000000004">
        <ele>310</ele>
        <time>2025-12-11T09:09:54Z</time>
      </trkpt>
      <trkpt lat="31.327630000000003" lon="35.277080000000005">
        <ele>310</ele>
        <time>2025-12-11T09:09:55Z</time>
      </trkpt>
      <trkpt lat="31.32775" lon="35.27716">
        <ele>310</ele>
        <time>2025-12-11T09:09:56Z</time>
      </trkpt>
      <trkpt lat="31.328260000000004" lon="35.277260000000005">
        <ele>309</ele>
        <time>2025-12-11T09:09:57Z</time>
      </trkpt>
      <trkpt lat="31.32869" lon="35.277300000000004">
        <ele>306</ele>
        <time>2025-12-11T09:09:58Z</time>
      </trkpt>
      <trkpt lat="31.3289" lon="35.27734">
        <ele>306</ele>
        <time>2025-12-11T09:09:59Z</time>
      </trkpt>
      <trkpt lat="31.329020000000003" lon="35.27743">
        <ele>306</ele>
        <time>2025-12-11T09:10:00Z</time>
      </trkpt>
      <trkpt lat="31.329210000000003" lon="35.27772">
        <ele>306</ele>
        <time>2025-12-11T09:10:01Z</time>
      </trkpt>
      <trkpt lat="31.32935" lon="35.27776">
        <ele>306</ele>
        <time>2025-12-11T09:10:02Z</time>
      </trkpt>
      <trkpt lat="31.329710000000002" lon="35.27778">
        <ele>306</ele>
        <time>2025-12-11T09:10:03Z</time>
      </trkpt>
      <trkpt lat="31.329940000000004" lon="35.277840000000005">
        <ele>305</ele>
        <time>2025-12-11T09:10:04Z</time>
      </trkpt>
      <trkpt lat="31.329940000000004" lon="35.277840000000005">
        <ele>305</ele>
        <time>2025-12-11T09:10:05Z</time>
      </trkpt>
      <trkpt lat="31.330180000000002" lon="35.277950000000004">
        <ele>304</ele>
        <time>2025-12-11T09:10:06Z</time>
      </trkpt>
      <trkpt lat="31.330360000000002" lon="35.27806">
        <ele>304</ele>
        <time>2025-12-11T09:10:07Z</time>
      </trkpt>
      <trkpt lat="31.330520000000003" lon="35.27825">
        <ele>302</ele>
        <time>2025-12-11T09:10:08Z</time>
      </trkpt>
      <trkpt lat="31.330600000000004" lon="35.2783">
        <ele>295</ele>
        <time>2025-12-11T09:10:09Z</time>
      </trkpt>
      <trkpt lat="31.330700000000004" lon="35.278310000000005">
        <ele>295</ele>
        <time>2025-12-11T09:10:10Z</time>
      </trkpt>
      <trkpt lat="31.330810000000003" lon="35.278290000000005">
        <ele>295</ele>
        <time>2025-12-11T09:10:11Z</time>
      </trkpt>
      <trkpt lat="31.33106" lon="35.278150000000004">
        <ele>295</ele>
        <time>2025-12-11T09:10:12Z</time>
      </trkpt>
      <trkpt lat="31.331170000000004" lon="35.278130000000004">
        <ele>295</ele>
        <time>2025-12-11T09:10:13Z</time>
      </trkpt>
      <trkpt lat="31.331290000000003" lon="35.27807">
        <ele>302</ele>
        <time>2025-12-11T09:10:14Z</time>
      </trkpt>
      <trkpt lat="31.33133" lon="35.27808">
        <ele>302</ele>
        <time>2025-12-11T09:10:15Z</time>
      </trkpt>
      <extensions>
        <RoutingType xmlns="">Hike</RoutingType>
      </extensions>
    </trkseg>
    <trkseg>
      <trkpt lat="31.33133" lon="35.27808">
        <ele>302</ele>
        <time>2025-12-11T09:10:15Z</time>
      </trkpt>
      <trkpt lat="31.331390000000003" lon="35.27814">
        <ele>289</ele>
        <time>2025-12-11T09:10:16Z</time>
      </trkpt>
      <trkpt lat="31.331350000000004" lon="35.278310000000005">
        <ele>295</ele>
        <time>2025-12-11T09:10:17Z</time>
      </trkpt>
      <trkpt lat="31.331270000000004" lon="35.27846">
        <ele>295</ele>
        <time>2025-12-11T09:10:18Z</time>
      </trkpt>
      <extensions>
        <RoutingType xmlns="">Hike</RoutingType>
      </extensions>
    </trkseg>
  </trk>
</gpx>
