<?xml version="1.0" encoding="UTF-8" standalone="yes"?>
<gpx xmlns="http://www.topografix.com/GPX/1/1" xmlns:xsi="http://www.w3.org/2001/XMLSchema-instance" version="1.1" creator="IsraelHikingMap" xsi:schemaLocation="http://www.topografix.com/GPX/1/1 http://www.topografix.com/GPX/1/1/gpx.xsd">
  <metadata>
    <bounds maxlat="30.279007" maxlon="35.01451" minlat="30.04791" minlon="35.001285"></bounds>
  </metadata>
  <trk>
    <name>49 - נחל צחור לצומת שיזפון</name>
    <desc>🏞️ ערבה
🥾 נחל צחור, צומת שיזפון
⛺ לילה: צומת שיזפון</desc>
    <trkseg>
      <trkpt lat="30.279007" lon="35.001285">
        <ele>252.3</ele>
      </trkpt>
      <trkpt lat="30.279007" lon="35.001285">
        <ele>252.3</ele>
      </trkpt>
      <extensions>
        <RoutingType xmlns="">Hike</RoutingType>
      </extensions>
    </trkseg>
    <trkseg>
      <trkpt lat="30.279007" lon="35.001285">
        <ele>252.3</ele>
      </trkpt>
      <trkpt lat="30.278078" lon="35.00167">
        <ele>253.88865729076642</ele>
      </trkpt>
      <trkpt lat="30.277986" lon="35.00171">
        <ele>254.32145691074916</ele>
      </trkpt>
      <trkpt lat="30.277344" lon="35.001946">
        <ele>255.90361127479525</ele>
      </trkpt>
      <trkpt lat="30.276565" lon="35.002313">
        <ele>256.4176229195787</ele>
      </trkpt>
      <trkpt lat="30.276036" lon="35.002508">
        <ele>257.8157627701054</ele>
      </trkpt>
      <trkpt lat="30.275425" lon="35.00281">
        <ele>261.93483765799584</ele>
      </trkpt>
      <trkpt lat="30.275152" lon="35.002905">
        <ele>264.66019454167827</ele>
      </trkpt>
      <trkpt lat="30.274971" lon="35.002994">
        <ele>265.89925522978797</ele>
      </trkpt>
      <trkpt lat="30.274826" lon="35.003116">
        <ele>267.2101614642181</ele>
      </trkpt>
      <trkpt lat="30.274764" lon="35.003198">
        <ele>267.9078891190451</ele>
      </trkpt>
      <trkpt lat="30.274668" lon="35.003502">
        <ele>271.06919467621657</ele>
      </trkpt>
      <trkpt lat="30.274594" lon="35.003811">
        <ele>271.2785538148611</ele>
      </trkpt>
      <trkpt lat="30.274498" lon="35.004001">
        <ele>270.36253195068736</ele>
      </trkpt>
      <trkpt lat="30.274434" lon="35.00408">
        <ele>270.09499836179424</ele>
      </trkpt>
      <trkpt lat="30.274283" lon="35.004212">
        <ele>271.076774135257</ele>
      </trkpt>
      <trkpt lat="30.274198" lon="35.004256">
        <ele>271.55991645092007</ele>
      </trkpt>
      <trkpt lat="30.273953" lon="35.004428">
        <ele>272.7823811590119</ele>
      </trkpt>
      <trkpt lat="30.27343" lon="35.004695">
        <ele>273.0947363931712</ele>
      </trkpt>
      <trkpt lat="30.272924" lon="35.004992">
        <ele>273.76154397240805</ele>
      </trkpt>
      <trkpt lat="30.271724" lon="35.005654">
        <ele>278.99727345329404</ele>
      </trkpt>
      <trkpt lat="30.271381" lon="35.005875">
        <ele>279.82332104089426</ele>
      </trkpt>
      <trkpt lat="30.270849" lon="35.00615">
        <ele>280.4061413817959</ele>
      </trkpt>
      <trkpt lat="30.270091" lon="35.006603">
        <ele>282.5103005685371</ele>
      </trkpt>
      <trkpt lat="30.269153" lon="35.007117">
        <ele>282.70533333112496</ele>
      </trkpt>
      <trkpt lat="30.2689" lon="35.007273">
        <ele>283.80181850538224</ele>
      </trkpt>
      <trkpt lat="30.268892" lon="35.007277">
        <ele>283.8082782318111</ele>
      </trkpt>
      <extensions>
        <RoutingType xmlns="">Hike</RoutingType>
      </extensions>
    </trkseg>
    <trkseg>
      <trkpt lat="30.268890000000003" lon="35.007270000000005">
        <ele>283</ele>
        <time>2022-01-11T09:18:52Z</time>
      </trkpt>
      <trkpt lat="30.26856" lon="35.00743">
        <ele>285.45701757183997</ele>
        <time>2022-01-11T09:18:53Z</time>
      </trkpt>
      <trkpt lat="30.26856" lon="35.00743">
        <ele>285.45701757183997</ele>
        <time>2022-01-11T09:18:54Z</time>
      </trkpt>
      <trkpt lat="30.26856" lon="35.00743">
        <ele>283</ele>
        <time>2022-01-11T09:18:55Z</time>
      </trkpt>
      <trkpt lat="30.26856" lon="35.00743">
        <ele>285.45701757183997</ele>
        <time>2022-01-11T09:18:56Z</time>
      </trkpt>
      <trkpt lat="30.26856" lon="35.00743">
        <ele>285.45701757183997</ele>
        <time>2022-01-11T09:18:57Z</time>
      </trkpt>
      <trkpt lat="30.268310000000003" lon="35.007600000000004">
        <ele>288</ele>
        <time>2022-01-11T09:18:58Z</time>
      </trkpt>
      <trkpt lat="30.26704" lon="35.008320000000005">
        <ele>289</ele>
        <time>2022-01-11T09:18:59Z</time>
      </trkpt>
      <trkpt lat="30.265950000000004" lon="35.00898">
        <ele>290</ele>
        <time>2022-01-11T09:19:00Z</time>
      </trkpt>
      <trkpt lat="30.26509" lon="35.009460000000004">
        <ele>295</ele>
        <time>2022-01-11T09:19:01Z</time>
      </trkpt>
      <trkpt lat="30.264170000000004" lon="35.01006">
        <ele>292.58434790268075</ele>
        <time>2022-01-11T09:19:02Z</time>
      </trkpt>
      <trkpt lat="30.264170000000004" lon="35.01006">
        <ele>292.58434790268075</ele>
        <time>2022-01-11T09:19:03Z</time>
      </trkpt>
      <trkpt lat="30.264170000000004" lon="35.01006">
        <ele>294</ele>
        <time>2022-01-11T09:19:04Z</time>
      </trkpt>
      <trkpt lat="30.264170000000004" lon="35.01006">
        <ele>292.58434790268075</ele>
        <time>2022-01-11T09:19:05Z</time>
      </trkpt>
      <trkpt lat="30.264170000000004" lon="35.01006">
        <ele>292.58434790268075</ele>
        <time>2022-01-11T09:19:06Z</time>
      </trkpt>
      <trkpt lat="30.263810000000003" lon="35.01023">
        <ele>297</ele>
        <time>2022-01-11T09:19:07Z</time>
      </trkpt>
      <trkpt lat="30.263180000000002" lon="35.010560000000005">
        <ele>297</ele>
        <time>2022-01-11T09:19:08Z</time>
      </trkpt>
      <trkpt lat="30.263" lon="35.01064">
        <ele>295</ele>
        <time>2022-01-11T09:19:09Z</time>
      </trkpt>
      <trkpt lat="30.262390000000003" lon="35.011010000000006">
        <ele>292</ele>
        <time>2022-01-11T09:19:10Z</time>
      </trkpt>
      <trkpt lat="30.261180000000003" lon="35.01165">
        <ele>289.79885128066303</ele>
        <time>2022-01-11T09:19:11Z</time>
      </trkpt>
      <trkpt lat="30.261180000000003" lon="35.01165">
        <ele>289.79885128066303</ele>
        <time>2022-01-11T09:19:12Z</time>
      </trkpt>
      <trkpt lat="30.261180000000003" lon="35.01165">
        <ele>288</ele>
        <time>2022-01-11T09:19:13Z</time>
      </trkpt>
      <trkpt lat="30.261180000000003" lon="35.01165">
        <ele>289.79885128066303</ele>
        <time>2022-01-11T09:19:14Z</time>
      </trkpt>
      <trkpt lat="30.261180000000003" lon="35.01165">
        <ele>289.79885128066303</ele>
        <time>2022-01-11T09:19:15Z</time>
      </trkpt>
      <trkpt lat="30.260740000000002" lon="35.01187">
        <ele>287</ele>
        <time>2022-01-11T09:19:16Z</time>
      </trkpt>
      <trkpt lat="30.26066" lon="35.01193">
        <ele>287</ele>
        <time>2022-01-11T09:19:17Z</time>
      </trkpt>
      <trkpt lat="30.26038" lon="35.012080000000005">
        <ele>286</ele>
        <time>2022-01-11T09:19:18Z</time>
      </trkpt>
      <trkpt lat="30.259680000000003" lon="35.01243">
        <ele>287</ele>
        <time>2022-01-11T09:19:19Z</time>
      </trkpt>
      <trkpt lat="30.259140000000002" lon="35.012730000000005">
        <ele>282.62644290346054</ele>
        <time>2022-01-11T09:19:20Z</time>
      </trkpt>
      <trkpt lat="30.259140000000002" lon="35.012730000000005">
        <ele>282.62644290346054</ele>
        <time>2022-01-11T09:19:21Z</time>
      </trkpt>
      <trkpt lat="30.259140000000002" lon="35.012730000000005">
        <ele>284</ele>
        <time>2022-01-11T09:19:22Z</time>
      </trkpt>
      <trkpt lat="30.259140000000002" lon="35.012730000000005">
        <ele>282.62644290346054</ele>
        <time>2022-01-11T09:19:23Z</time>
      </trkpt>
      <trkpt lat="30.259140000000002" lon="35.012730000000005">
        <ele>282.62644290346054</ele>
        <time>2022-01-11T09:19:24Z</time>
      </trkpt>
      <trkpt lat="30.25869" lon="35.0129">
        <ele>285</ele>
        <time>2022-01-11T09:19:25Z</time>
      </trkpt>
      <trkpt lat="30.258650000000003" lon="35.012910000000005">
        <ele>285</ele>
        <time>2022-01-11T09:19:26Z</time>
      </trkpt>
      <trkpt lat="30.258650000000003" lon="35.012910000000005">
        <ele>285</ele>
        <time>2022-01-11T09:19:27Z</time>
      </trkpt>
      <trkpt lat="30.2585" lon="35.01292">
        <ele>285</ele>
        <time>2022-01-11T09:19:28Z</time>
      </trkpt>
      <trkpt lat="30.25739" lon="35.0127">
        <ele>279.6789060428242</ele>
        <time>2022-01-11T09:19:29Z</time>
      </trkpt>
      <trkpt lat="30.25739" lon="35.0127">
        <ele>279.6789060428242</ele>
        <time>2022-01-11T09:19:30Z</time>
      </trkpt>
      <trkpt lat="30.25739" lon="35.0127">
        <ele>281</ele>
        <time>2022-01-11T09:19:31Z</time>
      </trkpt>
      <trkpt lat="30.25739" lon="35.0127">
        <ele>279.6789060428242</ele>
        <time>2022-01-11T09:19:32Z</time>
      </trkpt>
      <trkpt lat="30.25739" lon="35.0127">
        <ele>279.6789060428242</ele>
        <time>2022-01-11T09:19:33Z</time>
      </trkpt>
      <trkpt lat="30.25711" lon="35.012660000000004">
        <ele>282</ele>
        <time>2022-01-11T09:19:34Z</time>
      </trkpt>
      <trkpt lat="30.25625" lon="35.012510000000006">
        <ele>281</ele>
        <time>2022-01-11T09:19:35Z</time>
      </trkpt>
      <trkpt lat="30.25597" lon="35.012440000000005">
        <ele>285</ele>
        <time>2022-01-11T09:19:36Z</time>
      </trkpt>
      <trkpt lat="30.25568" lon="35.01241">
        <ele>285</ele>
        <time>2022-01-11T09:19:37Z</time>
      </trkpt>
      <trkpt lat="30.254720000000002" lon="35.01223">
        <ele>282.82183602501414</ele>
        <time>2022-01-11T09:19:38Z</time>
      </trkpt>
      <trkpt lat="30.254720000000002" lon="35.01223">
        <ele>282.82183602501414</ele>
        <time>2022-01-11T09:19:39Z</time>
      </trkpt>
      <trkpt lat="30.254720000000002" lon="35.01223">
        <ele>282</ele>
        <time>2022-01-11T09:19:40Z</time>
      </trkpt>
      <trkpt lat="30.254720000000002" lon="35.01223">
        <ele>282.82183602501414</ele>
        <time>2022-01-11T09:19:41Z</time>
      </trkpt>
      <trkpt lat="30.254720000000002" lon="35.01223">
        <ele>282.82183602501414</ele>
        <time>2022-01-11T09:19:42Z</time>
      </trkpt>
      <trkpt lat="30.25438" lon="35.01223">
        <ele>283</ele>
        <time>2022-01-11T09:19:43Z</time>
      </trkpt>
      <trkpt lat="30.25438" lon="35.01223">
        <ele>283</ele>
        <time>2022-01-11T09:19:44Z</time>
      </trkpt>
      <trkpt lat="30.25363" lon="35.01236">
        <ele>284</ele>
        <time>2022-01-11T09:19:45Z</time>
      </trkpt>
      <trkpt lat="30.25324" lon="35.01241">
        <ele>284</ele>
        <time>2022-01-11T09:19:46Z</time>
      </trkpt>
      <trkpt lat="30.252840000000003" lon="35.01243">
        <ele>279.20239674062776</ele>
        <time>2022-01-11T09:19:47Z</time>
      </trkpt>
      <trkpt lat="30.252840000000003" lon="35.01243">
        <ele>279.20239674062776</ele>
        <time>2022-01-11T09:19:48Z</time>
      </trkpt>
      <trkpt lat="30.252840000000003" lon="35.01243">
        <ele>278</ele>
        <time>2022-01-11T09:19:49Z</time>
      </trkpt>
      <trkpt lat="30.252840000000003" lon="35.01243">
        <ele>279.20239674062776</ele>
        <time>2022-01-11T09:19:50Z</time>
      </trkpt>
      <trkpt lat="30.252840000000003" lon="35.01243">
        <ele>279.20239674062776</ele>
        <time>2022-01-11T09:19:51Z</time>
      </trkpt>
      <trkpt lat="30.252460000000003" lon="35.012510000000006">
        <ele>280</ele>
        <time>2022-01-11T09:19:52Z</time>
      </trkpt>
      <trkpt lat="30.251580000000004" lon="35.01265">
        <ele>278</ele>
        <time>2022-01-11T09:19:53Z</time>
      </trkpt>
      <trkpt lat="30.25062" lon="35.01277">
        <ele>280</ele>
        <time>2022-01-11T09:19:54Z</time>
      </trkpt>
      <trkpt lat="30.250040000000002" lon="35.01287">
        <ele>280</ele>
        <time>2022-01-11T09:19:55Z</time>
      </trkpt>
      <trkpt lat="30.24848" lon="35.01308">
        <ele>278.6979177257366</ele>
        <time>2022-01-11T09:19:56Z</time>
      </trkpt>
      <extensions>
        <RoutingType xmlns="">Hike</RoutingType>
      </extensions>
    </trkseg>
    <trkseg>
      <trkpt lat="30.24848" lon="35.01308">
        <ele>278.6979177257366</ele>
        <time>2022-01-11T09:19:56Z</time>
      </trkpt>
      <trkpt lat="30.24848" lon="35.01308">
        <ele>278.6979177257366</ele>
        <time>2022-01-11T09:19:57Z</time>
      </trkpt>
      <trkpt lat="30.24848" lon="35.01308">
        <ele>279</ele>
        <time>2022-01-11T09:19:58Z</time>
      </trkpt>
      <trkpt lat="30.24848" lon="35.01308">
        <ele>278.6979177257366</ele>
        <time>2022-01-11T09:19:59Z</time>
      </trkpt>
      <trkpt lat="30.24848" lon="35.01308">
        <ele>278.6979177257366</ele>
        <time>2022-01-11T09:20:00Z</time>
      </trkpt>
      <trkpt lat="30.24791" lon="35.013180000000006">
        <ele>275</ele>
        <time>2022-01-11T09:20:01Z</time>
      </trkpt>
      <trkpt lat="30.24414" lon="35.01371">
        <ele>277</ele>
        <time>2022-01-11T09:20:02Z</time>
      </trkpt>
      <trkpt lat="30.243840000000002" lon="35.013760000000005">
        <ele>275</ele>
        <time>2022-01-11T09:20:03Z</time>
      </trkpt>
      <trkpt lat="30.24377" lon="35.01379">
        <ele>275</ele>
        <time>2022-01-11T09:20:04Z</time>
      </trkpt>
      <trkpt lat="30.243650000000002" lon="35.013780000000004">
        <ele>273.48499026545323</ele>
        <time>2022-01-11T09:20:05Z</time>
      </trkpt>
      <trkpt lat="30.243650000000002" lon="35.013780000000004">
        <ele>273.48499026545323</ele>
        <time>2022-01-11T09:20:06Z</time>
      </trkpt>
      <trkpt lat="30.243650000000002" lon="35.013780000000004">
        <ele>275</ele>
        <time>2022-01-11T09:20:07Z</time>
      </trkpt>
      <trkpt lat="30.243650000000002" lon="35.013780000000004">
        <ele>273.48499026545323</ele>
        <time>2022-01-11T09:20:08Z</time>
      </trkpt>
      <trkpt lat="30.243650000000002" lon="35.013780000000004">
        <ele>273.48499026545323</ele>
        <time>2022-01-11T09:20:09Z</time>
      </trkpt>
      <trkpt lat="30.243180000000002" lon="35.01384">
        <ele>275</ele>
        <time>2022-01-11T09:20:10Z</time>
      </trkpt>
      <trkpt lat="30.24208" lon="35.01404">
        <ele>276.5</ele>
        <time>2022-01-11T09:20:11Z</time>
      </trkpt>
      <trkpt lat="30.24208" lon="35.01404">
        <ele>276.5</ele>
        <time>2022-01-11T09:20:12Z</time>
      </trkpt>
      <trkpt lat="30.241650000000003" lon="35.014120000000005">
        <ele>278</ele>
        <time>2022-01-11T09:20:13Z</time>
      </trkpt>
      <trkpt lat="30.240540000000003" lon="35.01438">
        <ele>282.66743472311646</ele>
        <time>2022-01-11T09:20:14Z</time>
      </trkpt>
      <trkpt lat="30.240540000000003" lon="35.01438">
        <ele>282.66743472311646</ele>
        <time>2022-01-11T09:20:15Z</time>
      </trkpt>
      <trkpt lat="30.240540000000003" lon="35.01438">
        <ele>288</ele>
        <time>2022-01-11T09:20:16Z</time>
      </trkpt>
      <trkpt lat="30.240540000000003" lon="35.01438">
        <ele>282.66743472311646</ele>
        <time>2022-01-11T09:20:17Z</time>
      </trkpt>
      <trkpt lat="30.240540000000003" lon="35.01438">
        <ele>282.66743472311646</ele>
        <time>2022-01-11T09:20:18Z</time>
      </trkpt>
      <trkpt lat="30.239800000000002" lon="35.014500000000005">
        <ele>288</ele>
        <time>2022-01-11T09:20:19Z</time>
      </trkpt>
      <trkpt lat="30.239120000000003" lon="35.01451">
        <ele>287</ele>
        <time>2022-01-11T09:20:20Z</time>
      </trkpt>
      <trkpt lat="30.237890000000004" lon="35.014480000000006">
        <ele>284</ele>
        <time>2022-01-11T09:20:21Z</time>
      </trkpt>
      <trkpt lat="30.237240000000003" lon="35.014480000000006">
        <ele>282</ele>
        <time>2022-01-11T09:20:22Z</time>
      </trkpt>
      <trkpt lat="30.236940000000004" lon="35.014450000000004">
        <ele>280.8922287716996</ele>
        <time>2022-01-11T09:20:23Z</time>
      </trkpt>
      <trkpt lat="30.236940000000004" lon="35.014450000000004">
        <ele>280.8922287716996</ele>
        <time>2022-01-11T09:20:24Z</time>
      </trkpt>
      <trkpt lat="30.236940000000004" lon="35.014450000000004">
        <ele>282</ele>
        <time>2022-01-11T09:20:25Z</time>
      </trkpt>
      <trkpt lat="30.236940000000004" lon="35.014450000000004">
        <ele>280.8922287716996</ele>
        <time>2022-01-11T09:20:26Z</time>
      </trkpt>
      <trkpt lat="30.236940000000004" lon="35.014450000000004">
        <ele>280.8922287716996</ele>
        <time>2022-01-11T09:20:27Z</time>
      </trkpt>
      <trkpt lat="30.236470000000004" lon="35.01446">
        <ele>282</ele>
        <time>2022-01-11T09:20:28Z</time>
      </trkpt>
      <trkpt lat="30.23599" lon="35.01444">
        <ele>281</ele>
        <time>2022-01-11T09:20:29Z</time>
      </trkpt>
      <trkpt lat="30.23552" lon="35.014450000000004">
        <ele>280</ele>
        <time>2022-01-11T09:20:30Z</time>
      </trkpt>
      <trkpt lat="30.23449" lon="35.01442">
        <ele>280</ele>
        <time>2022-01-11T09:20:31Z</time>
      </trkpt>
      <trkpt lat="30.2343" lon="35.014430000000004">
        <ele>276.5840921361133</ele>
        <time>2022-01-11T09:20:32Z</time>
      </trkpt>
      <trkpt lat="30.2343" lon="35.014430000000004">
        <ele>276.5840921361133</ele>
        <time>2022-01-11T09:20:33Z</time>
      </trkpt>
      <trkpt lat="30.2343" lon="35.014430000000004">
        <ele>280</ele>
        <time>2022-01-11T09:20:34Z</time>
      </trkpt>
      <trkpt lat="30.2343" lon="35.014430000000004">
        <ele>276.5840921361133</ele>
        <time>2022-01-11T09:20:35Z</time>
      </trkpt>
      <trkpt lat="30.2343" lon="35.014430000000004">
        <ele>276.5840921361133</ele>
        <time>2022-01-11T09:20:36Z</time>
      </trkpt>
      <trkpt lat="30.2342" lon="35.014410000000005">
        <ele>280</ele>
        <time>2022-01-11T09:20:37Z</time>
      </trkpt>
      <trkpt lat="30.233590000000003" lon="35.01442">
        <ele>281</ele>
        <time>2022-01-11T09:20:38Z</time>
      </trkpt>
      <trkpt lat="30.233590000000003" lon="35.01442">
        <ele>281</ele>
        <time>2022-01-11T09:20:39Z</time>
      </trkpt>
      <trkpt lat="30.23232" lon="35.01438">
        <ele>292</ele>
        <time>2022-01-11T09:20:40Z</time>
      </trkpt>
      <trkpt lat="30.23148" lon="35.01431">
        <ele>288.8244885837616</ele>
        <time>2022-01-11T09:20:41Z</time>
      </trkpt>
      <trkpt lat="30.23148" lon="35.01431">
        <ele>288.8244885837616</ele>
        <time>2022-01-11T09:20:42Z</time>
      </trkpt>
      <trkpt lat="30.23148" lon="35.01431">
        <ele>290</ele>
        <time>2022-01-11T09:20:43Z</time>
      </trkpt>
      <trkpt lat="30.23148" lon="35.01431">
        <ele>288.8244885837616</ele>
        <time>2022-01-11T09:20:44Z</time>
      </trkpt>
      <trkpt lat="30.23148" lon="35.01431">
        <ele>288.8244885837616</ele>
        <time>2022-01-11T09:20:45Z</time>
      </trkpt>
      <trkpt lat="30.23026" lon="35.01417">
        <ele>287</ele>
        <time>2022-01-11T09:20:46Z</time>
      </trkpt>
      <trkpt lat="30.22951" lon="35.01411">
        <ele>285</ele>
        <time>2022-01-11T09:20:47Z</time>
      </trkpt>
      <trkpt lat="30.228890000000003" lon="35.01409">
        <ele>285</ele>
        <time>2022-01-11T09:20:48Z</time>
      </trkpt>
      <trkpt lat="30.228310000000004" lon="35.01402">
        <ele>285</ele>
        <time>2022-01-11T09:20:49Z</time>
      </trkpt>
      <trkpt lat="30.226990000000004" lon="35.0139">
        <ele>281</ele>
        <time>2022-01-11T09:20:50Z</time>
      </trkpt>
      <trkpt lat="30.226990000000004" lon="35.0139">
        <ele>281</ele>
        <time>2022-01-11T09:20:51Z</time>
      </trkpt>
      <trkpt lat="30.226990000000004" lon="35.0139">
        <ele>284</ele>
        <time>2022-01-11T09:20:52Z</time>
      </trkpt>
      <trkpt lat="30.226990000000004" lon="35.0139">
        <ele>281</ele>
        <time>2022-01-11T09:20:53Z</time>
      </trkpt>
      <trkpt lat="30.226990000000004" lon="35.0139">
        <ele>281</ele>
        <time>2022-01-11T09:20:54Z</time>
      </trkpt>
      <trkpt lat="30.226900000000004" lon="35.01388">
        <ele>284</ele>
        <time>2022-01-11T09:20:55Z</time>
      </trkpt>
      <trkpt lat="30.22594" lon="35.013780000000004">
        <ele>283</ele>
        <time>2022-01-11T09:20:56Z</time>
      </trkpt>
      <trkpt lat="30.225640000000002" lon="35.013760000000005">
        <ele>283</ele>
        <time>2022-01-11T09:20:57Z</time>
      </trkpt>
      <trkpt lat="30.224600000000002" lon="35.013650000000005">
        <ele>284</ele>
        <time>2022-01-11T09:20:58Z</time>
      </trkpt>
      <trkpt lat="30.223940000000002" lon="35.013600000000004">
        <ele>285.86417525379346</ele>
        <time>2022-01-11T09:20:59Z</time>
      </trkpt>
      <trkpt lat="30.223940000000002" lon="35.013600000000004">
        <ele>285.86417525379346</ele>
        <time>2022-01-11T09:21:00Z</time>
      </trkpt>
      <extensions>
        <RoutingType xmlns="">Hike</RoutingType>
      </extensions>
    </trkseg>
    <trkseg>
      <trkpt lat="30.223940000000002" lon="35.013600000000004">
        <ele>285.86417525379346</ele>
        <time>2022-01-11T09:21:00Z</time>
      </trkpt>
      <trkpt lat="30.223940000000002" lon="35.013600000000004">
        <ele>287</ele>
        <time>2022-01-11T09:21:01Z</time>
      </trkpt>
      <trkpt lat="30.223940000000002" lon="35.013600000000004">
        <ele>285.86417525379346</ele>
        <time>2022-01-11T09:21:02Z</time>
      </trkpt>
      <trkpt lat="30.223940000000002" lon="35.013600000000004">
        <ele>285.86417525379346</ele>
        <time>2022-01-11T09:21:03Z</time>
      </trkpt>
      <trkpt lat="30.222420000000003" lon="35.01342">
        <ele>290</ele>
        <time>2022-01-11T09:21:04Z</time>
      </trkpt>
      <trkpt lat="30.221660000000004" lon="35.01335">
        <ele>294</ele>
        <time>2022-01-11T09:21:05Z</time>
      </trkpt>
      <trkpt lat="30.221180000000004" lon="35.01333">
        <ele>299</ele>
        <time>2022-01-11T09:21:06Z</time>
      </trkpt>
      <trkpt lat="30.22021" lon="35.013220000000004">
        <ele>315</ele>
        <time>2022-01-11T09:21:07Z</time>
      </trkpt>
      <trkpt lat="30.219810000000003" lon="35.013200000000005">
        <ele>298.57914244971965</ele>
        <time>2022-01-11T09:21:08Z</time>
      </trkpt>
      <trkpt lat="30.219810000000003" lon="35.013200000000005">
        <ele>298.57914244971965</ele>
        <time>2022-01-11T09:21:09Z</time>
      </trkpt>
      <trkpt lat="30.219810000000003" lon="35.013200000000005">
        <ele>307</ele>
        <time>2022-01-11T09:21:10Z</time>
      </trkpt>
      <trkpt lat="30.219810000000003" lon="35.013200000000005">
        <ele>298.57914244971965</ele>
        <time>2022-01-11T09:21:11Z</time>
      </trkpt>
      <trkpt lat="30.219810000000003" lon="35.013200000000005">
        <ele>298.57914244971965</ele>
        <time>2022-01-11T09:21:12Z</time>
      </trkpt>
      <trkpt lat="30.219530000000002" lon="35.013110000000005">
        <ele>307</ele>
        <time>2022-01-11T09:21:13Z</time>
      </trkpt>
      <trkpt lat="30.219530000000002" lon="35.013110000000005">
        <ele>307</ele>
        <time>2022-01-11T09:21:14Z</time>
      </trkpt>
      <trkpt lat="30.21927" lon="35.01296">
        <ele>307</ele>
        <time>2022-01-11T09:21:15Z</time>
      </trkpt>
      <trkpt lat="30.218770000000003" lon="35.01263">
        <ele>304</ele>
        <time>2022-01-11T09:21:16Z</time>
      </trkpt>
      <trkpt lat="30.216800000000003" lon="35.011410000000005">
        <ele>297.2451503120087</ele>
        <time>2022-01-11T09:21:17Z</time>
      </trkpt>
      <trkpt lat="30.216800000000003" lon="35.011410000000005">
        <ele>297.2451503120087</ele>
        <time>2022-01-11T09:21:18Z</time>
      </trkpt>
      <trkpt lat="30.216800000000003" lon="35.011410000000005">
        <ele>295</ele>
        <time>2022-01-11T09:21:19Z</time>
      </trkpt>
      <trkpt lat="30.216800000000003" lon="35.011410000000005">
        <ele>297.2451503120087</ele>
        <time>2022-01-11T09:21:20Z</time>
      </trkpt>
      <trkpt lat="30.216800000000003" lon="35.011410000000005">
        <ele>297.2451503120087</ele>
        <time>2022-01-11T09:21:21Z</time>
      </trkpt>
      <trkpt lat="30.216540000000002" lon="35.011280000000006">
        <ele>295</ele>
        <time>2022-01-11T09:21:22Z</time>
      </trkpt>
      <trkpt lat="30.216260000000002" lon="35.0112">
        <ele>295</ele>
        <time>2022-01-11T09:21:23Z</time>
      </trkpt>
      <trkpt lat="30.214510000000004" lon="35.01091">
        <ele>292</ele>
        <time>2022-01-11T09:21:24Z</time>
      </trkpt>
      <trkpt lat="30.21356" lon="35.010720000000006">
        <ele>290</ele>
        <time>2022-01-11T09:21:25Z</time>
      </trkpt>
      <trkpt lat="30.210530000000002" lon="35.01021">
        <ele>287.23821131680415</ele>
        <time>2022-01-11T09:21:26Z</time>
      </trkpt>
      <trkpt lat="30.210530000000002" lon="35.01021">
        <ele>287.23821131680415</ele>
        <time>2022-01-11T09:21:27Z</time>
      </trkpt>
      <trkpt lat="30.210530000000002" lon="35.01021">
        <ele>285</ele>
        <time>2022-01-11T09:21:28Z</time>
      </trkpt>
      <trkpt lat="30.210530000000002" lon="35.01021">
        <ele>287.23821131680415</ele>
        <time>2022-01-11T09:21:29Z</time>
      </trkpt>
      <trkpt lat="30.210530000000002" lon="35.01021">
        <ele>287.23821131680415</ele>
        <time>2022-01-11T09:21:30Z</time>
      </trkpt>
      <trkpt lat="30.210530000000002" lon="35.01021">
        <ele>285</ele>
        <time>2022-01-11T09:21:31Z</time>
      </trkpt>
      <trkpt lat="30.210060000000002" lon="35.010110000000005">
        <ele>285</ele>
        <time>2022-01-11T09:21:32Z</time>
      </trkpt>
      <trkpt lat="30.209310000000002" lon="35.010000000000005">
        <ele>286</ele>
        <time>2022-01-11T09:21:33Z</time>
      </trkpt>
      <trkpt lat="30.207590000000003" lon="35.00972">
        <ele>285</ele>
        <time>2022-01-11T09:21:34Z</time>
      </trkpt>
      <trkpt lat="30.207300000000004" lon="35.00965">
        <ele>286.4861636988288</ele>
        <time>2022-01-11T09:21:35Z</time>
      </trkpt>
      <trkpt lat="30.207300000000004" lon="35.00965">
        <ele>286.4861636988288</ele>
        <time>2022-01-11T09:21:36Z</time>
      </trkpt>
      <trkpt lat="30.207300000000004" lon="35.00965">
        <ele>287</ele>
        <time>2022-01-11T09:21:37Z</time>
      </trkpt>
      <trkpt lat="30.207300000000004" lon="35.00965">
        <ele>286.4861636988288</ele>
        <time>2022-01-11T09:21:38Z</time>
      </trkpt>
      <trkpt lat="30.207300000000004" lon="35.00965">
        <ele>286.4861636988288</ele>
        <time>2022-01-11T09:21:39Z</time>
      </trkpt>
      <trkpt lat="30.205740000000002" lon="35.00938">
        <ele>283</ele>
        <time>2022-01-11T09:21:40Z</time>
      </trkpt>
      <trkpt lat="30.204400000000003" lon="35.009130000000006">
        <ele>287</ele>
        <time>2022-01-11T09:21:41Z</time>
      </trkpt>
      <trkpt lat="30.203730000000004" lon="35.00903">
        <ele>283</ele>
        <time>2022-01-11T09:21:42Z</time>
      </trkpt>
      <trkpt lat="30.203540000000004" lon="35.00898">
        <ele>283</ele>
        <time>2022-01-11T09:21:43Z</time>
      </trkpt>
      <trkpt lat="30.202790000000004" lon="35.008840000000006">
        <ele>280.96971334229</ele>
        <time>2022-01-11T09:21:44Z</time>
      </trkpt>
      <trkpt lat="30.202790000000004" lon="35.008840000000006">
        <ele>280.96971334229</ele>
        <time>2022-01-11T09:21:45Z</time>
      </trkpt>
      <trkpt lat="30.202790000000004" lon="35.008840000000006">
        <ele>283</ele>
        <time>2022-01-11T09:21:46Z</time>
      </trkpt>
      <trkpt lat="30.202790000000004" lon="35.008840000000006">
        <ele>280.96971334229</ele>
        <time>2022-01-11T09:21:47Z</time>
      </trkpt>
      <trkpt lat="30.202790000000004" lon="35.008840000000006">
        <ele>280.96971334229</ele>
        <time>2022-01-11T09:21:48Z</time>
      </trkpt>
      <trkpt lat="30.202220000000004" lon="35.00878">
        <ele>283</ele>
        <time>2022-01-11T09:21:49Z</time>
      </trkpt>
      <trkpt lat="30.20212" lon="35.00876">
        <ele>283</ele>
        <time>2022-01-11T09:21:50Z</time>
      </trkpt>
      <trkpt lat="30.20191" lon="35.00869">
        <ele>283</ele>
        <time>2022-01-11T09:21:51Z</time>
      </trkpt>
      <trkpt lat="30.20172" lon="35.008660000000006">
        <ele>283</ele>
        <time>2022-01-11T09:21:52Z</time>
      </trkpt>
      <trkpt lat="30.201560000000004" lon="35.008610000000004">
        <ele>281.4673315555556</ele>
        <time>2022-01-11T09:21:53Z</time>
      </trkpt>
      <trkpt lat="30.201560000000004" lon="35.008610000000004">
        <ele>281.4673315555556</ele>
        <time>2022-01-11T09:21:54Z</time>
      </trkpt>
      <trkpt lat="30.201560000000004" lon="35.008610000000004">
        <ele>283</ele>
        <time>2022-01-11T09:21:55Z</time>
      </trkpt>
      <trkpt lat="30.201560000000004" lon="35.008610000000004">
        <ele>281.4673315555556</ele>
        <time>2022-01-11T09:21:56Z</time>
      </trkpt>
      <trkpt lat="30.201560000000004" lon="35.008610000000004">
        <ele>281.4673315555556</ele>
        <time>2022-01-11T09:21:57Z</time>
      </trkpt>
      <trkpt lat="30.2005" lon="35.00846">
        <ele>280</ele>
        <time>2022-01-11T09:21:58Z</time>
      </trkpt>
      <trkpt lat="30.200060000000004" lon="35.00826">
        <ele>283</ele>
        <time>2022-01-11T09:21:59Z</time>
      </trkpt>
      <trkpt lat="30.199790000000004" lon="35.00818">
        <ele>283</ele>
        <time>2022-01-11T09:22:00Z</time>
      </trkpt>
      <trkpt lat="30.199600000000004" lon="35.00818">
        <ele>283</ele>
        <time>2022-01-11T09:22:01Z</time>
      </trkpt>
      <trkpt lat="30.199130000000004" lon="35.008120000000005">
        <ele>283</ele>
        <time>2022-01-11T09:22:02Z</time>
      </trkpt>
      <trkpt lat="30.199130000000004" lon="35.008120000000005">
        <ele>283</ele>
        <time>2022-01-11T09:22:03Z</time>
      </trkpt>
      <trkpt lat="30.199130000000004" lon="35.008120000000005">
        <ele>283</ele>
        <time>2022-01-11T09:22:04Z</time>
      </trkpt>
      <extensions>
        <RoutingType xmlns="">Hike</RoutingType>
      </extensions>
    </trkseg>
    <trkseg>
      <trkpt lat="30.19913" lon="35.008128">
        <ele>283.4</ele>
      </trkpt>
      <trkpt lat="30.198841" lon="35.008138">
        <ele>284.7996806191014</ele>
      </trkpt>
      <trkpt lat="30.198452" lon="35.008089">
        <ele>282.56039336974015</ele>
      </trkpt>
      <trkpt lat="30.197588" lon="35.007916">
        <ele>280.8823850111849</ele>
      </trkpt>
      <trkpt lat="30.196851" lon="35.00779">
        <ele>281.9066736641854</ele>
      </trkpt>
      <trkpt lat="30.196389" lon="35.007689">
        <ele>283.2312842283442</ele>
      </trkpt>
      <trkpt lat="30.194801" lon="35.007393">
        <ele>287</ele>
      </trkpt>
      <trkpt lat="30.194134" lon="35.007299">
        <ele>287.63703473942564</ele>
      </trkpt>
      <trkpt lat="30.194041" lon="35.00728">
        <ele>287.82352853557944</ele>
      </trkpt>
      <trkpt lat="30.193973" lon="35.007246">
        <ele>287.90589991444375</ele>
      </trkpt>
      <trkpt lat="30.193838" lon="35.007107">
        <ele>288.11369842683104</ele>
      </trkpt>
      <trkpt lat="30.193519" lon="35.006849">
        <ele>288.7465457262768</ele>
      </trkpt>
      <trkpt lat="30.193236" lon="35.006809">
        <ele>288.06892742815074</ele>
      </trkpt>
      <trkpt lat="30.192964" lon="35.006682">
        <ele>287.15625385878974</ele>
      </trkpt>
      <trkpt lat="30.192873" lon="35.00666">
        <ele>287.01842328545087</ele>
      </trkpt>
      <trkpt lat="30.192787" lon="35.006678">
        <ele>287.1667248191707</ele>
      </trkpt>
      <trkpt lat="30.192535" lon="35.006825">
        <ele>287.6971758903463</ele>
      </trkpt>
      <trkpt lat="30.192457" lon="35.006896">
        <ele>287.8075340092386</ele>
      </trkpt>
      <trkpt lat="30.19234" lon="35.007072">
        <ele>288.26279584739945</ele>
      </trkpt>
      <trkpt lat="30.192123" lon="35.007271">
        <ele>288.88588827738766</ele>
      </trkpt>
      <trkpt lat="30.19186" lon="35.007402">
        <ele>289.3435285663295</ele>
      </trkpt>
      <trkpt lat="30.191569" lon="35.007415">
        <ele>289.186865294386</ele>
      </trkpt>
      <trkpt lat="30.191379" lon="35.007403">
        <ele>288.2215911609659</ele>
      </trkpt>
      <trkpt lat="30.191187" lon="35.007451">
        <ele>286.69368996380433</ele>
      </trkpt>
      <trkpt lat="30.19101" lon="35.007526">
        <ele>285.4360891242725</ele>
      </trkpt>
      <trkpt lat="30.190449" lon="35.007656">
        <ele>284.31771820416736</ele>
      </trkpt>
      <trkpt lat="30.190292" lon="35.00774">
        <ele>283.8360473347716</ele>
      </trkpt>
      <trkpt lat="30.190215" lon="35.007698">
        <ele>283.52051753638887</ele>
      </trkpt>
      <trkpt lat="30.19014" lon="35.007627">
        <ele>283.3138673093285</ele>
      </trkpt>
      <trkpt lat="30.19005" lon="35.007593">
        <ele>283.34895919450554</ele>
      </trkpt>
      <trkpt lat="30.189958" lon="35.007597">
        <ele>283.38308304358384</ele>
      </trkpt>
      <trkpt lat="30.18969" lon="35.00767">
        <ele>284.9323984619289</ele>
      </trkpt>
      <trkpt lat="30.189325" lon="35.007702">
        <ele>285.5127252613813</ele>
      </trkpt>
      <trkpt lat="30.189232" lon="35.007729">
        <ele>285.19287224081995</ele>
      </trkpt>
      <trkpt lat="30.189148" lon="35.007774">
        <ele>284.8840774334631</ele>
      </trkpt>
      <trkpt lat="30.18906" lon="35.007748">
        <ele>284.6054232859271</ele>
      </trkpt>
      <trkpt lat="30.188819" lon="35.007614">
        <ele>284.14057748545827</ele>
      </trkpt>
      <trkpt lat="30.188722" lon="35.007603">
        <ele>284.3573295035562</ele>
      </trkpt>
      <trkpt lat="30.188243" lon="35.007618">
        <ele>287.29186829715763</ele>
      </trkpt>
      <trkpt lat="30.187293" lon="35.007685">
        <ele>288.15033934219787</ele>
      </trkpt>
      <trkpt lat="30.186252" lon="35.00778">
        <ele>289.83883993316624</ele>
      </trkpt>
      <trkpt lat="30.185112" lon="35.007847">
        <ele>289.39930953811506</ele>
      </trkpt>
      <trkpt lat="30.184625" lon="35.007855">
        <ele>287.4941260280898</ele>
      </trkpt>
      <trkpt lat="30.183864" lon="35.007923">
        <ele>289.352380352808</ele>
      </trkpt>
      <trkpt lat="30.181846" lon="35.008048">
        <ele>291.86184086040686</ele>
      </trkpt>
      <trkpt lat="30.181656" lon="35.008076">
        <ele>290.5129818223494</ele>
      </trkpt>
      <trkpt lat="30.179835" lon="35.008201">
        <ele>295.2209968727654</ele>
      </trkpt>
      <trkpt lat="30.179061" lon="35.008269">
        <ele>295.4316375451512</ele>
      </trkpt>
      <trkpt lat="30.177239" lon="35.008361">
        <ele>299.95331258909584</ele>
      </trkpt>
      <trkpt lat="30.176306" lon="35.00844">
        <ele>300.87093636806566</ele>
      </trkpt>
      <trkpt lat="30.176024" lon="35.00848">
        <ele>302.4062597638685</ele>
      </trkpt>
      <trkpt lat="30.175269" lon="35.00851">
        <ele>304.6553968522154</ele>
      </trkpt>
      <trkpt lat="30.173496" lon="35.008504">
        <ele>306.23719159525365</ele>
      </trkpt>
      <trkpt lat="30.173105" lon="35.008503">
        <ele>305.3401112833502</ele>
      </trkpt>
      <trkpt lat="30.155936" lon="35.00957">
        <ele>309.13386410466376</ele>
      </trkpt>
      <trkpt lat="30.15407" lon="35.00973">
        <ele>309.0805898270848</ele>
      </trkpt>
      <trkpt lat="30.15055" lon="35.009836">
        <ele>305.3549429547993</ele>
      </trkpt>
      <trkpt lat="30.146605" lon="35.009783">
        <ele>302.68264672683915</ele>
      </trkpt>
      <trkpt lat="30.139406" lon="35.009037">
        <ele>315.38129348397695</ele>
      </trkpt>
      <trkpt lat="30.134121" lon="35.008278">
        <ele>324.2770336770679</ele>
      </trkpt>
      <trkpt lat="30.132986" lon="35.008115">
        <ele>324.754572961225</ele>
      </trkpt>
      <trkpt lat="30.125358" lon="35.007019">
        <ele>332.7689679550987</ele>
      </trkpt>
      <trkpt lat="30.120559" lon="35.006243">
        <ele>336.49312439735286</ele>
      </trkpt>
      <trkpt lat="30.1182" lon="35.005862">
        <ele>336.13074081994904</ele>
      </trkpt>
      <trkpt lat="30.115254" lon="35.005386">
        <ele>329.9922287015591</ele>
      </trkpt>
      <trkpt lat="30.110111" lon="35.005023">
        <ele>341.9744812906513</ele>
      </trkpt>
      <trkpt lat="30.106987" lon="35.005011">
        <ele>346.0306471194437</ele>
      </trkpt>
      <trkpt lat="30.106722" lon="35.005001">
        <ele>346.14121210386037</ele>
      </trkpt>
      <trkpt lat="30.102086" lon="35.004985">
        <ele>350.4660737989963</ele>
      </trkpt>
      <trkpt lat="30.099941" lon="35.004973">
        <ele>353.243820126041</ele>
      </trkpt>
      <trkpt lat="30.097828" lon="35.004962">
        <ele>354.90640406902446</ele>
      </trkpt>
      <trkpt lat="30.080704" lon="35.00478">
        <ele>376.9256668024171</ele>
      </trkpt>
      <trkpt lat="30.076227" lon="35.005083">
        <ele>383.64159585213923</ele>
      </trkpt>
      <trkpt lat="30.063013" lon="35.007636">
        <ele>377.29033718070787</ele>
      </trkpt>
      <trkpt lat="30.055263" lon="35.009134">
        <ele>384.78415931637613</ele>
      </trkpt>
      <trkpt lat="30.054824" lon="35.009219">
        <ele>387.0338256658837</ele>
      </trkpt>
      <trkpt lat="30.052418" lon="35.009786">
        <ele>406.4793800619412</ele>
      </trkpt>
      <trkpt lat="30.051049" lon="35.00971">
        <ele>412.6357083298237</ele>
      </trkpt>
      <trkpt lat="30.050437" lon="35.00959">
        <ele>413.7467286025237</ele>
      </trkpt>
      <trkpt lat="30.050044" lon="35.009513">
        <ele>414.6401638412081</ele>
      </trkpt>
      <trkpt lat="30.049217" lon="35.009738">
        <ele>411.5534391408316</ele>
      </trkpt>
      <trkpt lat="30.048218" lon="35.010268">
        <ele>402.39442170747094</ele>
      </trkpt>
      <trkpt lat="30.04791" lon="35.010422">
        <ele>399.87590757240065</ele>
      </trkpt>
      <extensions>
        <RoutingType xmlns="">Hike</RoutingType>
      </extensions>
    </trkseg>
  </trk>
</gpx>
