<?xml version="1.0" encoding="UTF-8" standalone="yes"?>
<gpx xmlns="http://www.topografix.com/GPX/1/1" xmlns:xsi="http://www.w3.org/2001/XMLSchema-instance" version="1.1" creator="IsraelHikingMap" xsi:schemaLocation="http://www.topografix.com/GPX/1/1 http://www.topografix.com/GPX/1/1/gpx.xsd">
  <metadata>
    <bounds maxlat="29.627250000000004" maxlon="34.94091" minlat="29.587806" minlon="34.881586"></bounds>
  </metadata>
  <trk>
    <name>54 - שחורת להר יהורם</name>
    <desc>🏞️ קושי: בינוני | הרי אילת
🥾 קניון שחורת, הר שלמה, עין נטפים,הר יהורם
⛺ לילה: הר יהורם</desc>
    <trkseg>
      <trkpt lat="29.621240000000004" lon="34.94091">
        <ele>168.67847881036468</ele>
        <time>2022-01-09T08:42:51Z</time>
      </trkpt>
      <trkpt lat="29.621240000000004" lon="34.94091">
        <ele>168.67847881036468</ele>
        <time>2022-01-09T08:42:51Z</time>
      </trkpt>
      <extensions>
        <RoutingType xmlns="">Hike</RoutingType>
      </extensions>
    </trkseg>
    <trkseg>
      <trkpt lat="29.621240000000004" lon="34.94091">
        <ele>168.67847881036468</ele>
        <time>2022-01-09T08:42:51Z</time>
      </trkpt>
      <trkpt lat="29.621240000000004" lon="34.94091">
        <ele>168.67847881036468</ele>
        <time>2022-01-09T08:42:52Z</time>
      </trkpt>
      <trkpt lat="29.621240000000004" lon="34.94091">
        <ele>168.67847881036468</ele>
        <time>2022-01-09T08:42:53Z</time>
      </trkpt>
      <trkpt lat="29.621240000000004" lon="34.94091">
        <ele>172</ele>
        <time>2022-01-09T08:42:54Z</time>
      </trkpt>
      <trkpt lat="29.62111" lon="34.940340000000006">
        <ele>176</ele>
        <time>2022-01-09T08:42:55Z</time>
      </trkpt>
      <trkpt lat="29.621010000000002" lon="34.940000000000005">
        <ele>175</ele>
        <time>2022-01-09T08:42:56Z</time>
      </trkpt>
      <trkpt lat="29.620730000000002" lon="34.93923">
        <ele>175</ele>
        <time>2022-01-09T08:42:57Z</time>
      </trkpt>
      <trkpt lat="29.62065" lon="34.938860000000005">
        <ele>178</ele>
        <time>2022-01-09T08:42:58Z</time>
      </trkpt>
      <trkpt lat="29.620610000000003" lon="34.93854">
        <ele>178</ele>
        <time>2022-01-09T08:42:59Z</time>
      </trkpt>
      <trkpt lat="29.620610000000003" lon="34.93854">
        <ele>174.28336203185148</ele>
        <time>2022-01-09T08:43:00Z</time>
      </trkpt>
      <trkpt lat="29.620610000000003" lon="34.93854">
        <ele>174.28336203185148</ele>
        <time>2022-01-09T08:43:01Z</time>
      </trkpt>
      <trkpt lat="29.620620000000002" lon="34.938300000000005">
        <ele>179</ele>
        <time>2022-01-09T08:43:02Z</time>
      </trkpt>
      <trkpt lat="29.620530000000002" lon="34.937720000000006">
        <ele>179</ele>
        <time>2022-01-09T08:43:03Z</time>
      </trkpt>
      <trkpt lat="29.620520000000003" lon="34.9375">
        <ele>184</ele>
        <time>2022-01-09T08:43:04Z</time>
      </trkpt>
      <trkpt lat="29.620440000000002" lon="34.937160000000006">
        <ele>184</ele>
        <time>2022-01-09T08:43:05Z</time>
      </trkpt>
      <trkpt lat="29.62046" lon="34.93703">
        <ele>184</ele>
        <time>2022-01-09T08:43:06Z</time>
      </trkpt>
      <trkpt lat="29.620510000000003" lon="34.93683">
        <ele>184</ele>
        <time>2022-01-09T08:43:07Z</time>
      </trkpt>
      <trkpt lat="29.620510000000003" lon="34.936690000000006">
        <ele>190</ele>
        <time>2022-01-09T08:43:08Z</time>
      </trkpt>
      <trkpt lat="29.620510000000003" lon="34.936690000000006">
        <ele>180.33894543804857</ele>
        <time>2022-01-09T08:43:09Z</time>
      </trkpt>
      <trkpt lat="29.620510000000003" lon="34.936690000000006">
        <ele>180.33894543804857</ele>
        <time>2022-01-09T08:43:10Z</time>
      </trkpt>
      <trkpt lat="29.620490000000004" lon="34.93661">
        <ele>190</ele>
        <time>2022-01-09T08:43:11Z</time>
      </trkpt>
      <trkpt lat="29.620350000000002" lon="34.93632">
        <ele>188</ele>
        <time>2022-01-09T08:43:12Z</time>
      </trkpt>
      <trkpt lat="29.620350000000002" lon="34.93632">
        <ele>181.37772326510012</ele>
        <time>2022-01-09T08:43:13Z</time>
      </trkpt>
      <trkpt lat="29.620350000000002" lon="34.93632">
        <ele>188</ele>
        <time>2022-01-09T08:43:14Z</time>
      </trkpt>
      <trkpt lat="29.62018" lon="34.935970000000005">
        <ele>186</ele>
        <time>2022-01-09T08:43:15Z</time>
      </trkpt>
      <trkpt lat="29.62009" lon="34.93583">
        <ele>188</ele>
        <time>2022-01-09T08:43:16Z</time>
      </trkpt>
      <trkpt lat="29.619970000000002" lon="34.93574">
        <ele>188</ele>
        <time>2022-01-09T08:43:17Z</time>
      </trkpt>
      <trkpt lat="29.619970000000002" lon="34.93574">
        <ele>183.8531208826746</ele>
        <time>2022-01-09T08:43:18Z</time>
      </trkpt>
      <trkpt lat="29.619970000000002" lon="34.93574">
        <ele>183.8531208826746</ele>
        <time>2022-01-09T08:43:19Z</time>
      </trkpt>
      <trkpt lat="29.619740000000004" lon="34.935500000000005">
        <ele>188</ele>
        <time>2022-01-09T08:43:20Z</time>
      </trkpt>
      <trkpt lat="29.61942" lon="34.93497">
        <ele>197</ele>
        <time>2022-01-09T08:43:21Z</time>
      </trkpt>
      <trkpt lat="29.619360000000004" lon="34.9348">
        <ele>197</ele>
        <time>2022-01-09T08:43:22Z</time>
      </trkpt>
      <trkpt lat="29.619320000000002" lon="34.93451">
        <ele>197</ele>
        <time>2022-01-09T08:43:23Z</time>
      </trkpt>
      <trkpt lat="29.619320000000002" lon="34.93426">
        <ele>197</ele>
        <time>2022-01-09T08:43:24Z</time>
      </trkpt>
      <trkpt lat="29.61934" lon="34.93406">
        <ele>197</ele>
        <time>2022-01-09T08:43:25Z</time>
      </trkpt>
      <trkpt lat="29.61934" lon="34.93394">
        <ele>197</ele>
        <time>2022-01-09T08:43:26Z</time>
      </trkpt>
      <trkpt lat="29.61934" lon="34.93394">
        <ele>188.19124225731522</ele>
        <time>2022-01-09T08:43:27Z</time>
      </trkpt>
      <trkpt lat="29.61934" lon="34.93394">
        <ele>188.19124225731522</ele>
        <time>2022-01-09T08:43:28Z</time>
      </trkpt>
      <trkpt lat="29.619390000000003" lon="34.93363">
        <ele>197</ele>
        <time>2022-01-09T08:43:29Z</time>
      </trkpt>
      <trkpt lat="29.61943" lon="34.93316">
        <ele>199</ele>
        <time>2022-01-09T08:43:30Z</time>
      </trkpt>
      <trkpt lat="29.619450000000004" lon="34.932990000000004">
        <ele>199</ele>
        <time>2022-01-09T08:43:31Z</time>
      </trkpt>
      <trkpt lat="29.619450000000004" lon="34.932840000000006">
        <ele>199</ele>
        <time>2022-01-09T08:43:32Z</time>
      </trkpt>
      <trkpt lat="29.61942" lon="34.93256">
        <ele>199</ele>
        <time>2022-01-09T08:43:33Z</time>
      </trkpt>
      <trkpt lat="29.61935" lon="34.93231">
        <ele>209</ele>
        <time>2022-01-09T08:43:34Z</time>
      </trkpt>
      <trkpt lat="29.619200000000003" lon="34.93197">
        <ele>210.5</ele>
        <time>2022-01-09T08:43:35Z</time>
      </trkpt>
      <trkpt lat="29.619200000000003" lon="34.93197">
        <ele>200.40797340797465</ele>
        <time>2022-01-09T08:43:36Z</time>
      </trkpt>
      <trkpt lat="29.619200000000003" lon="34.93197">
        <ele>200.40797340797465</ele>
        <time>2022-01-09T08:43:37Z</time>
      </trkpt>
      <trkpt lat="29.619200000000003" lon="34.93197">
        <ele>200.40797340797465</ele>
        <time>2022-01-09T08:43:38Z</time>
      </trkpt>
      <trkpt lat="29.619200000000003" lon="34.93197">
        <ele>210.5</ele>
        <time>2022-01-09T08:43:39Z</time>
      </trkpt>
      <trkpt lat="29.619130000000002" lon="34.9317">
        <ele>212</ele>
        <time>2022-01-09T08:43:40Z</time>
      </trkpt>
      <trkpt lat="29.619110000000003" lon="34.931580000000004">
        <ele>212</ele>
        <time>2022-01-09T08:43:41Z</time>
      </trkpt>
      <trkpt lat="29.619120000000002" lon="34.931470000000004">
        <ele>212</ele>
        <time>2022-01-09T08:43:42Z</time>
      </trkpt>
      <trkpt lat="29.61915" lon="34.93137">
        <ele>212</ele>
        <time>2022-01-09T08:43:43Z</time>
      </trkpt>
      <trkpt lat="29.619260000000004" lon="34.931270000000005">
        <ele>212</ele>
        <time>2022-01-09T08:43:44Z</time>
      </trkpt>
      <trkpt lat="29.619260000000004" lon="34.931270000000005">
        <ele>196.01181634602221</ele>
        <time>2022-01-09T08:43:45Z</time>
      </trkpt>
      <trkpt lat="29.619260000000004" lon="34.931270000000005">
        <ele>196.01181634602221</ele>
        <time>2022-01-09T08:43:46Z</time>
      </trkpt>
      <trkpt lat="29.61933" lon="34.93104">
        <ele>212</ele>
        <time>2022-01-09T08:43:47Z</time>
      </trkpt>
      <trkpt lat="29.619450000000004" lon="34.930870000000006">
        <ele>222</ele>
        <time>2022-01-09T08:43:48Z</time>
      </trkpt>
      <trkpt lat="29.61971" lon="34.9307">
        <ele>212</ele>
        <time>2022-01-09T08:43:49Z</time>
      </trkpt>
      <trkpt lat="29.619860000000003" lon="34.930460000000004">
        <ele>212</ele>
        <time>2022-01-09T08:43:50Z</time>
      </trkpt>
      <trkpt lat="29.620410000000003" lon="34.92994">
        <ele>221</ele>
        <time>2022-01-09T08:43:51Z</time>
      </trkpt>
      <trkpt lat="29.62047" lon="34.929860000000005">
        <ele>221</ele>
        <time>2022-01-09T08:43:52Z</time>
      </trkpt>
      <trkpt lat="29.620490000000004" lon="34.92967">
        <ele>221</ele>
        <time>2022-01-09T08:43:53Z</time>
      </trkpt>
      <trkpt lat="29.620490000000004" lon="34.92967">
        <ele>206.87529374434925</ele>
        <time>2022-01-09T08:43:54Z</time>
      </trkpt>
      <trkpt lat="29.620490000000004" lon="34.92967">
        <ele>206.87529374434925</ele>
        <time>2022-01-09T08:43:55Z</time>
      </trkpt>
      <trkpt lat="29.620520000000003" lon="34.9296">
        <ele>221</ele>
        <time>2022-01-09T08:43:56Z</time>
      </trkpt>
      <trkpt lat="29.620810000000002" lon="34.9294">
        <ele>221</ele>
        <time>2022-01-09T08:43:57Z</time>
      </trkpt>
      <trkpt lat="29.620990000000003" lon="34.92934">
        <ele>221</ele>
        <time>2022-01-09T08:43:58Z</time>
      </trkpt>
      <trkpt lat="29.621140000000004" lon="34.92925">
        <ele>221</ele>
        <time>2022-01-09T08:43:59Z</time>
      </trkpt>
      <trkpt lat="29.621370000000002" lon="34.92915">
        <ele>229</ele>
        <time>2022-01-09T08:44:00Z</time>
      </trkpt>
      <trkpt lat="29.62167" lon="34.92911">
        <ele>229</ele>
        <time>2022-01-09T08:44:01Z</time>
      </trkpt>
      <trkpt lat="29.621820000000003" lon="34.929120000000005">
        <ele>229</ele>
        <time>2022-01-09T08:44:02Z</time>
      </trkpt>
      <trkpt lat="29.621820000000003" lon="34.929120000000005">
        <ele>214.79795945651261</ele>
        <time>2022-01-09T08:44:03Z</time>
      </trkpt>
      <trkpt lat="29.621820000000003" lon="34.929120000000005">
        <ele>214.79795945651261</ele>
        <time>2022-01-09T08:44:04Z</time>
      </trkpt>
      <trkpt lat="29.621920000000003" lon="34.929080000000006">
        <ele>227</ele>
        <time>2022-01-09T08:44:05Z</time>
      </trkpt>
      <trkpt lat="29.621920000000003" lon="34.929080000000006">
        <ele>215.8253623669288</ele>
        <time>2022-01-09T08:44:06Z</time>
      </trkpt>
      <trkpt lat="29.621920000000003" lon="34.929080000000006">
        <ele>227</ele>
        <time>2022-01-09T08:44:07Z</time>
      </trkpt>
      <trkpt lat="29.622130000000002" lon="34.928960000000004">
        <ele>225</ele>
        <time>2022-01-09T08:44:08Z</time>
      </trkpt>
      <extensions>
        <RoutingType xmlns="">Hike</RoutingType>
      </extensions>
    </trkseg>
    <trkseg>
      <trkpt lat="29.622130000000002" lon="34.928960000000004">
        <ele>225</ele>
        <time>2022-01-09T08:44:08Z</time>
      </trkpt>
      <trkpt lat="29.622200000000003" lon="34.928940000000004">
        <ele>225</ele>
        <time>2022-01-09T08:44:09Z</time>
      </trkpt>
      <trkpt lat="29.62233" lon="34.928960000000004">
        <ele>225</ele>
        <time>2022-01-09T08:44:10Z</time>
      </trkpt>
      <trkpt lat="29.62244" lon="34.929010000000005">
        <ele>225</ele>
        <time>2022-01-09T08:44:11Z</time>
      </trkpt>
      <trkpt lat="29.62244" lon="34.929010000000005">
        <ele>217.55250738724135</ele>
        <time>2022-01-09T08:44:12Z</time>
      </trkpt>
      <trkpt lat="29.62244" lon="34.929010000000005">
        <ele>217.55250738724135</ele>
        <time>2022-01-09T08:44:13Z</time>
      </trkpt>
      <trkpt lat="29.622640000000004" lon="34.92902">
        <ele>225</ele>
        <time>2022-01-09T08:44:14Z</time>
      </trkpt>
      <trkpt lat="29.623020000000004" lon="34.928940000000004">
        <ele>235</ele>
        <time>2022-01-09T08:44:15Z</time>
      </trkpt>
      <trkpt lat="29.623240000000003" lon="34.928830000000005">
        <ele>235</ele>
        <time>2022-01-09T08:44:16Z</time>
      </trkpt>
      <trkpt lat="29.623420000000003" lon="34.92879">
        <ele>235</ele>
        <time>2022-01-09T08:44:17Z</time>
      </trkpt>
      <trkpt lat="29.623490000000004" lon="34.928760000000004">
        <ele>235</ele>
        <time>2022-01-09T08:44:18Z</time>
      </trkpt>
      <trkpt lat="29.62356" lon="34.928670000000004">
        <ele>235</ele>
        <time>2022-01-09T08:44:19Z</time>
      </trkpt>
      <trkpt lat="29.623620000000003" lon="34.928490000000004">
        <ele>235</ele>
        <time>2022-01-09T08:44:20Z</time>
      </trkpt>
      <trkpt lat="29.623620000000003" lon="34.928490000000004">
        <ele>226.35614171570012</ele>
        <time>2022-01-09T08:44:21Z</time>
      </trkpt>
      <trkpt lat="29.623620000000003" lon="34.928490000000004">
        <ele>226.35614171570012</ele>
        <time>2022-01-09T08:44:22Z</time>
      </trkpt>
      <trkpt lat="29.623670000000004" lon="34.928050000000006">
        <ele>249</ele>
        <time>2022-01-09T08:44:23Z</time>
      </trkpt>
      <trkpt lat="29.623690000000003" lon="34.92799">
        <ele>249</ele>
        <time>2022-01-09T08:44:24Z</time>
      </trkpt>
      <trkpt lat="29.62374" lon="34.927910000000004">
        <ele>249</ele>
        <time>2022-01-09T08:44:25Z</time>
      </trkpt>
      <trkpt lat="29.624070000000003" lon="34.92775">
        <ele>249</ele>
        <time>2022-01-09T08:44:26Z</time>
      </trkpt>
      <trkpt lat="29.624160000000003" lon="34.9277">
        <ele>249</ele>
        <time>2022-01-09T08:44:27Z</time>
      </trkpt>
      <trkpt lat="29.62421" lon="34.927640000000004">
        <ele>249</ele>
        <time>2022-01-09T08:44:28Z</time>
      </trkpt>
      <trkpt lat="29.624240000000004" lon="34.92754">
        <ele>258</ele>
        <time>2022-01-09T08:44:29Z</time>
      </trkpt>
      <trkpt lat="29.624240000000004" lon="34.92754">
        <ele>238.84516761380743</ele>
        <time>2022-01-09T08:44:30Z</time>
      </trkpt>
      <trkpt lat="29.624240000000004" lon="34.92754">
        <ele>238.84516761380743</ele>
        <time>2022-01-09T08:44:31Z</time>
      </trkpt>
      <trkpt lat="29.62423" lon="34.92736">
        <ele>258</ele>
        <time>2022-01-09T08:44:32Z</time>
      </trkpt>
      <trkpt lat="29.624330000000004" lon="34.92718">
        <ele>258</ele>
        <time>2022-01-09T08:44:33Z</time>
      </trkpt>
      <trkpt lat="29.624360000000003" lon="34.927080000000004">
        <ele>258</ele>
        <time>2022-01-09T08:44:34Z</time>
      </trkpt>
      <trkpt lat="29.624390000000002" lon="34.926880000000004">
        <ele>258</ele>
        <time>2022-01-09T08:44:35Z</time>
      </trkpt>
      <trkpt lat="29.624380000000002" lon="34.92681">
        <ele>258</ele>
        <time>2022-01-09T08:44:36Z</time>
      </trkpt>
      <trkpt lat="29.624350000000003" lon="34.926700000000004">
        <ele>277</ele>
        <time>2022-01-09T08:44:37Z</time>
      </trkpt>
      <trkpt lat="29.624350000000003" lon="34.92663">
        <ele>277</ele>
        <time>2022-01-09T08:44:38Z</time>
      </trkpt>
      <trkpt lat="29.624350000000003" lon="34.92663">
        <ele>247.32263535824274</ele>
        <time>2022-01-09T08:44:39Z</time>
      </trkpt>
      <trkpt lat="29.624350000000003" lon="34.92663">
        <ele>247.32263535824274</ele>
        <time>2022-01-09T08:44:40Z</time>
      </trkpt>
      <trkpt lat="29.6244" lon="34.92651">
        <ele>277</ele>
        <time>2022-01-09T08:44:41Z</time>
      </trkpt>
      <trkpt lat="29.6245" lon="34.92636">
        <ele>271</ele>
        <time>2022-01-09T08:44:42Z</time>
      </trkpt>
      <trkpt lat="29.62458" lon="34.926300000000005">
        <ele>271</ele>
        <time>2022-01-09T08:44:43Z</time>
      </trkpt>
      <trkpt lat="29.624650000000003" lon="34.926300000000005">
        <ele>271</ele>
        <time>2022-01-09T08:44:44Z</time>
      </trkpt>
      <trkpt lat="29.624830000000003" lon="34.92636">
        <ele>271</ele>
        <time>2022-01-09T08:44:45Z</time>
      </trkpt>
      <trkpt lat="29.625040000000002" lon="34.92656">
        <ele>271</ele>
        <time>2022-01-09T08:44:46Z</time>
      </trkpt>
      <trkpt lat="29.625140000000002" lon="34.926730000000006">
        <ele>275</ele>
        <time>2022-01-09T08:44:47Z</time>
      </trkpt>
      <trkpt lat="29.625140000000002" lon="34.926730000000006">
        <ele>254.3190935955763</ele>
        <time>2022-01-09T08:44:48Z</time>
      </trkpt>
      <trkpt lat="29.625140000000002" lon="34.926730000000006">
        <ele>254.3190935955763</ele>
        <time>2022-01-09T08:44:49Z</time>
      </trkpt>
      <trkpt lat="29.625220000000002" lon="34.92678">
        <ele>275</ele>
        <time>2022-01-09T08:44:50Z</time>
      </trkpt>
      <trkpt lat="29.625290000000003" lon="34.92678">
        <ele>275</ele>
        <time>2022-01-09T08:44:51Z</time>
      </trkpt>
      <trkpt lat="29.62553" lon="34.92672">
        <ele>276</ele>
        <time>2022-01-09T08:44:52Z</time>
      </trkpt>
      <trkpt lat="29.62563" lon="34.92665">
        <ele>276</ele>
        <time>2022-01-09T08:44:53Z</time>
      </trkpt>
      <trkpt lat="29.625860000000003" lon="34.92643">
        <ele>276</ele>
        <time>2022-01-09T08:44:54Z</time>
      </trkpt>
      <trkpt lat="29.625940000000003" lon="34.92631">
        <ele>276</ele>
        <time>2022-01-09T08:44:55Z</time>
      </trkpt>
      <trkpt lat="29.626060000000003" lon="34.92616">
        <ele>276</ele>
        <time>2022-01-09T08:44:56Z</time>
      </trkpt>
      <trkpt lat="29.626060000000003" lon="34.92616">
        <ele>262.20689646627113</ele>
        <time>2022-01-09T08:44:57Z</time>
      </trkpt>
      <trkpt lat="29.626060000000003" lon="34.92616">
        <ele>262.20689646627113</ele>
        <time>2022-01-09T08:44:58Z</time>
      </trkpt>
      <trkpt lat="29.626060000000003" lon="34.92616">
        <ele>262.20689646627113</ele>
        <time>2022-01-09T08:44:59Z</time>
      </trkpt>
      <trkpt lat="29.626060000000003" lon="34.92616">
        <ele>276</ele>
        <time>2022-01-09T08:45:00Z</time>
      </trkpt>
      <trkpt lat="29.626320000000003" lon="34.92597">
        <ele>290</ele>
        <time>2022-01-09T08:45:01Z</time>
      </trkpt>
      <trkpt lat="29.62637" lon="34.92591">
        <ele>290</ele>
        <time>2022-01-09T08:45:02Z</time>
      </trkpt>
      <trkpt lat="29.62639" lon="34.92584">
        <ele>289</ele>
        <time>2022-01-09T08:45:03Z</time>
      </trkpt>
      <trkpt lat="29.62639" lon="34.92564">
        <ele>289</ele>
        <time>2022-01-09T08:45:04Z</time>
      </trkpt>
      <trkpt lat="29.626360000000002" lon="34.92551">
        <ele>289</ele>
        <time>2022-01-09T08:45:05Z</time>
      </trkpt>
      <trkpt lat="29.626360000000002" lon="34.92551">
        <ele>264.52790950527356</ele>
        <time>2022-01-09T08:45:06Z</time>
      </trkpt>
      <trkpt lat="29.626360000000002" lon="34.92551">
        <ele>264.52790950527356</ele>
        <time>2022-01-09T08:45:07Z</time>
      </trkpt>
      <trkpt lat="29.626220000000004" lon="34.92528">
        <ele>289</ele>
        <time>2022-01-09T08:45:08Z</time>
      </trkpt>
      <trkpt lat="29.626220000000004" lon="34.92522">
        <ele>289</ele>
        <time>2022-01-09T08:45:09Z</time>
      </trkpt>
      <trkpt lat="29.62628" lon="34.92515">
        <ele>289</ele>
        <time>2022-01-09T08:45:10Z</time>
      </trkpt>
      <trkpt lat="29.62646" lon="34.925110000000004">
        <ele>289</ele>
        <time>2022-01-09T08:45:11Z</time>
      </trkpt>
      <trkpt lat="29.626590000000004" lon="34.92504">
        <ele>282</ele>
        <time>2022-01-09T08:45:12Z</time>
      </trkpt>
      <trkpt lat="29.626680000000004" lon="34.92503">
        <ele>282</ele>
        <time>2022-01-09T08:45:13Z</time>
      </trkpt>
      <trkpt lat="29.626770000000004" lon="34.925070000000005">
        <ele>289</ele>
        <time>2022-01-09T08:45:14Z</time>
      </trkpt>
      <trkpt lat="29.626770000000004" lon="34.925070000000005">
        <ele>269.06648184502023</ele>
        <time>2022-01-09T08:45:15Z</time>
      </trkpt>
      <trkpt lat="29.626770000000004" lon="34.925070000000005">
        <ele>269.06648184502023</ele>
        <time>2022-01-09T08:45:16Z</time>
      </trkpt>
      <trkpt lat="29.626880000000003" lon="34.92508">
        <ele>289</ele>
        <time>2022-01-09T08:45:17Z</time>
      </trkpt>
      <trkpt lat="29.62693" lon="34.92503">
        <ele>282</ele>
        <time>2022-01-09T08:45:18Z</time>
      </trkpt>
      <trkpt lat="29.626960000000004" lon="34.924980000000005">
        <ele>282</ele>
        <time>2022-01-09T08:45:19Z</time>
      </trkpt>
      <trkpt lat="29.627000000000002" lon="34.924760000000006">
        <ele>284</ele>
        <time>2022-01-09T08:45:20Z</time>
      </trkpt>
      <trkpt lat="29.62713" lon="34.924530000000004">
        <ele>284</ele>
        <time>2022-01-09T08:45:21Z</time>
      </trkpt>
      <trkpt lat="29.62713" lon="34.924530000000004">
        <ele>269.63388017769364</ele>
        <time>2022-01-09T08:45:22Z</time>
      </trkpt>
      <trkpt lat="29.62713" lon="34.924530000000004">
        <ele>284</ele>
        <time>2022-01-09T08:45:23Z</time>
      </trkpt>
      <trkpt lat="29.62713" lon="34.924530000000004">
        <ele>269.63388017769364</ele>
        <time>2022-01-09T08:45:24Z</time>
      </trkpt>
      <trkpt lat="29.62713" lon="34.924530000000004">
        <ele>269.63388017769364</ele>
        <time>2022-01-09T08:45:25Z</time>
      </trkpt>
      <extensions>
        <RoutingType xmlns="">Hike</RoutingType>
      </extensions>
    </trkseg>
    <trkseg>
      <trkpt lat="29.62713" lon="34.924530000000004">
        <ele>269.63388017769364</ele>
        <time>2022-01-09T08:45:25Z</time>
      </trkpt>
      <trkpt lat="29.627240000000004" lon="34.924220000000005">
        <ele>277</ele>
        <time>2022-01-09T08:45:26Z</time>
      </trkpt>
      <trkpt lat="29.627250000000004" lon="34.92398">
        <ele>277</ele>
        <time>2022-01-09T08:45:27Z</time>
      </trkpt>
      <trkpt lat="29.62712" lon="34.92391">
        <ele>277</ele>
        <time>2022-01-09T08:45:28Z</time>
      </trkpt>
      <trkpt lat="29.627080000000003" lon="34.923840000000006">
        <ele>277</ele>
        <time>2022-01-09T08:45:29Z</time>
      </trkpt>
      <trkpt lat="29.62702" lon="34.923790000000004">
        <ele>277</ele>
        <time>2022-01-09T08:45:30Z</time>
      </trkpt>
      <trkpt lat="29.62685" lon="34.92376">
        <ele>279</ele>
        <time>2022-01-09T08:45:31Z</time>
      </trkpt>
      <trkpt lat="29.626820000000002" lon="34.923730000000006">
        <ele>279</ele>
        <time>2022-01-09T08:45:32Z</time>
      </trkpt>
      <trkpt lat="29.626820000000002" lon="34.923730000000006">
        <ele>272.89352240461426</ele>
        <time>2022-01-09T08:45:33Z</time>
      </trkpt>
      <trkpt lat="29.626820000000002" lon="34.923730000000006">
        <ele>272.89352240461426</ele>
        <time>2022-01-09T08:45:34Z</time>
      </trkpt>
      <trkpt lat="29.62676" lon="34.92358">
        <ele>279</ele>
        <time>2022-01-09T08:45:35Z</time>
      </trkpt>
      <trkpt lat="29.626710000000003" lon="34.92351">
        <ele>279</ele>
        <time>2022-01-09T08:45:36Z</time>
      </trkpt>
      <trkpt lat="29.626610000000003" lon="34.923460000000006">
        <ele>279</ele>
        <time>2022-01-09T08:45:37Z</time>
      </trkpt>
      <trkpt lat="29.62647" lon="34.92334">
        <ele>279</ele>
        <time>2022-01-09T08:45:38Z</time>
      </trkpt>
      <trkpt lat="29.62628" lon="34.923260000000006">
        <ele>279</ele>
        <time>2022-01-09T08:45:39Z</time>
      </trkpt>
      <trkpt lat="29.62628" lon="34.923260000000006">
        <ele>286.81625753537986</ele>
        <time>2022-01-09T08:45:40Z</time>
      </trkpt>
      <trkpt lat="29.62628" lon="34.923260000000006">
        <ele>279</ele>
        <time>2022-01-09T08:45:41Z</time>
      </trkpt>
      <trkpt lat="29.62628" lon="34.923260000000006">
        <ele>286.81625753537986</ele>
        <time>2022-01-09T08:45:42Z</time>
      </trkpt>
      <trkpt lat="29.62628" lon="34.923260000000006">
        <ele>286.81625753537986</ele>
        <time>2022-01-09T08:45:43Z</time>
      </trkpt>
      <trkpt lat="29.625890000000002" lon="34.922900000000006">
        <ele>293</ele>
        <time>2022-01-09T08:45:44Z</time>
      </trkpt>
      <trkpt lat="29.625830000000004" lon="34.92282">
        <ele>293</ele>
        <time>2022-01-09T08:45:45Z</time>
      </trkpt>
      <trkpt lat="29.6258" lon="34.92271">
        <ele>293</ele>
        <time>2022-01-09T08:45:46Z</time>
      </trkpt>
      <trkpt lat="29.625770000000003" lon="34.922520000000006">
        <ele>286</ele>
        <time>2022-01-09T08:45:47Z</time>
      </trkpt>
      <trkpt lat="29.62572" lon="34.922410000000006">
        <ele>286</ele>
        <time>2022-01-09T08:45:48Z</time>
      </trkpt>
      <trkpt lat="29.62554" lon="34.92231">
        <ele>286</ele>
        <time>2022-01-09T08:45:49Z</time>
      </trkpt>
      <trkpt lat="29.625460000000004" lon="34.92224">
        <ele>286</ele>
        <time>2022-01-09T08:45:50Z</time>
      </trkpt>
      <trkpt lat="29.625460000000004" lon="34.92224">
        <ele>286.4822226782712</ele>
        <time>2022-01-09T08:45:51Z</time>
      </trkpt>
      <trkpt lat="29.625460000000004" lon="34.92224">
        <ele>286.4822226782712</ele>
        <time>2022-01-09T08:45:52Z</time>
      </trkpt>
      <trkpt lat="29.625410000000002" lon="34.92222">
        <ele>286</ele>
        <time>2022-01-09T08:45:53Z</time>
      </trkpt>
      <trkpt lat="29.625370000000004" lon="34.92222">
        <ele>286</ele>
        <time>2022-01-09T08:45:54Z</time>
      </trkpt>
      <trkpt lat="29.62524" lon="34.922380000000004">
        <ele>303</ele>
        <time>2022-01-09T08:45:55Z</time>
      </trkpt>
      <trkpt lat="29.625190000000003" lon="34.922430000000006">
        <ele>303</ele>
        <time>2022-01-09T08:45:56Z</time>
      </trkpt>
      <trkpt lat="29.625130000000002" lon="34.922450000000005">
        <ele>303</ele>
        <time>2022-01-09T08:45:57Z</time>
      </trkpt>
      <trkpt lat="29.625040000000002" lon="34.92246">
        <ele>303</ele>
        <time>2022-01-09T08:45:58Z</time>
      </trkpt>
      <trkpt lat="29.624930000000003" lon="34.92242">
        <ele>303</ele>
        <time>2022-01-09T08:45:59Z</time>
      </trkpt>
      <trkpt lat="29.624930000000003" lon="34.92242">
        <ele>306.66045140638016</ele>
        <time>2022-01-09T08:46:00Z</time>
      </trkpt>
      <trkpt lat="29.624930000000003" lon="34.92242">
        <ele>306.66045140638016</ele>
        <time>2022-01-09T08:46:01Z</time>
      </trkpt>
      <trkpt lat="29.62488" lon="34.922430000000006">
        <ele>303</ele>
        <time>2022-01-09T08:46:02Z</time>
      </trkpt>
      <trkpt lat="29.62486" lon="34.92246">
        <ele>303</ele>
        <time>2022-01-09T08:46:03Z</time>
      </trkpt>
      <trkpt lat="29.624850000000002" lon="34.92269">
        <ele>325</ele>
        <time>2022-01-09T08:46:04Z</time>
      </trkpt>
      <trkpt lat="29.62479" lon="34.92275">
        <ele>325</ele>
        <time>2022-01-09T08:46:05Z</time>
      </trkpt>
      <trkpt lat="29.624660000000002" lon="34.92273">
        <ele>325</ele>
        <time>2022-01-09T08:46:06Z</time>
      </trkpt>
      <trkpt lat="29.62441" lon="34.9226">
        <ele>355</ele>
        <time>2022-01-09T08:46:07Z</time>
      </trkpt>
      <trkpt lat="29.624260000000003" lon="34.922560000000004">
        <ele>331</ele>
        <time>2022-01-09T08:46:08Z</time>
      </trkpt>
      <trkpt lat="29.624260000000003" lon="34.922560000000004">
        <ele>332.7529042351908</ele>
        <time>2022-01-09T08:46:09Z</time>
      </trkpt>
      <trkpt lat="29.624260000000003" lon="34.922560000000004">
        <ele>332.7529042351908</ele>
        <time>2022-01-09T08:46:10Z</time>
      </trkpt>
      <trkpt lat="29.62393" lon="34.9223">
        <ele>331</ele>
        <time>2022-01-09T08:46:11Z</time>
      </trkpt>
      <trkpt lat="29.623770000000004" lon="34.922200000000004">
        <ele>331</ele>
        <time>2022-01-09T08:46:12Z</time>
      </trkpt>
      <trkpt lat="29.62357" lon="34.92202">
        <ele>369</ele>
        <time>2022-01-09T08:46:13Z</time>
      </trkpt>
      <trkpt lat="29.62346" lon="34.92197">
        <ele>369</ele>
        <time>2022-01-09T08:46:14Z</time>
      </trkpt>
      <trkpt lat="29.622880000000002" lon="34.92174">
        <ele>369</ele>
        <time>2022-01-09T08:46:15Z</time>
      </trkpt>
      <trkpt lat="29.622510000000002" lon="34.921640000000004">
        <ele>372</ele>
        <time>2022-01-09T08:46:16Z</time>
      </trkpt>
      <trkpt lat="29.622130000000002" lon="34.921510000000005">
        <ele>372</ele>
        <time>2022-01-09T08:46:17Z</time>
      </trkpt>
      <trkpt lat="29.622130000000002" lon="34.921510000000005">
        <ele>380.59625581846103</ele>
        <time>2022-01-09T08:46:18Z</time>
      </trkpt>
      <trkpt lat="29.622130000000002" lon="34.921510000000005">
        <ele>380.59625581846103</ele>
        <time>2022-01-09T08:46:19Z</time>
      </trkpt>
      <trkpt lat="29.621980000000004" lon="34.92148">
        <ele>372</ele>
        <time>2022-01-09T08:46:20Z</time>
      </trkpt>
      <trkpt lat="29.62178" lon="34.92141">
        <ele>372</ele>
        <time>2022-01-09T08:46:21Z</time>
      </trkpt>
      <trkpt lat="29.621660000000002" lon="34.921350000000004">
        <ele>372</ele>
        <time>2022-01-09T08:46:22Z</time>
      </trkpt>
      <trkpt lat="29.621610000000004" lon="34.921290000000006">
        <ele>372</ele>
        <time>2022-01-09T08:46:23Z</time>
      </trkpt>
      <trkpt lat="29.62159" lon="34.92118">
        <ele>372</ele>
        <time>2022-01-09T08:46:24Z</time>
      </trkpt>
      <trkpt lat="29.621630000000003" lon="34.92103">
        <ele>372</ele>
        <time>2022-01-09T08:46:25Z</time>
      </trkpt>
      <trkpt lat="29.621630000000003" lon="34.92098">
        <ele>372</ele>
        <time>2022-01-09T08:46:26Z</time>
      </trkpt>
      <trkpt lat="29.621630000000003" lon="34.92098">
        <ele>407.17330487270374</ele>
        <time>2022-01-09T08:46:27Z</time>
      </trkpt>
      <trkpt lat="29.621630000000003" lon="34.92098">
        <ele>407.17330487270374</ele>
        <time>2022-01-09T08:46:28Z</time>
      </trkpt>
      <trkpt lat="29.6216" lon="34.92092">
        <ele>372</ele>
        <time>2022-01-09T08:46:29Z</time>
      </trkpt>
      <trkpt lat="29.621230000000004" lon="34.920500000000004">
        <ele>403</ele>
        <time>2022-01-09T08:46:30Z</time>
      </trkpt>
      <trkpt lat="29.620890000000003" lon="34.92016">
        <ele>402</ele>
        <time>2022-01-09T08:46:31Z</time>
      </trkpt>
      <trkpt lat="29.620480000000004" lon="34.91989">
        <ele>433</ele>
        <time>2022-01-09T08:46:32Z</time>
      </trkpt>
      <trkpt lat="29.620300000000004" lon="34.91982">
        <ele>444</ele>
        <time>2022-01-09T08:46:33Z</time>
      </trkpt>
      <trkpt lat="29.619940000000003" lon="34.919610000000006">
        <ele>444</ele>
        <time>2022-01-09T08:46:34Z</time>
      </trkpt>
      <trkpt lat="29.61971" lon="34.919610000000006">
        <ele>444</ele>
        <time>2022-01-09T08:46:35Z</time>
      </trkpt>
      <trkpt lat="29.61971" lon="34.919610000000006">
        <ele>456.2688250327163</ele>
        <time>2022-01-09T08:46:36Z</time>
      </trkpt>
      <trkpt lat="29.61971" lon="34.919610000000006">
        <ele>456.2688250327163</ele>
        <time>2022-01-09T08:46:37Z</time>
      </trkpt>
      <trkpt lat="29.61935" lon="34.9195">
        <ele>459</ele>
        <time>2022-01-09T08:46:38Z</time>
      </trkpt>
      <trkpt lat="29.619130000000002" lon="34.91951">
        <ele>459</ele>
        <time>2022-01-09T08:46:39Z</time>
      </trkpt>
      <trkpt lat="29.61895" lon="34.919450000000005">
        <ele>459</ele>
        <time>2022-01-09T08:46:40Z</time>
      </trkpt>
      <trkpt lat="29.618740000000003" lon="34.91931">
        <ele>459</ele>
        <time>2022-01-09T08:46:41Z</time>
      </trkpt>
      <trkpt lat="29.6186" lon="34.9193">
        <ele>455</ele>
        <time>2022-01-09T08:46:42Z</time>
      </trkpt>
      <extensions>
        <RoutingType xmlns="">Hike</RoutingType>
      </extensions>
    </trkseg>
    <trkseg>
      <trkpt lat="29.6186" lon="34.9193">
        <ele>455</ele>
        <time>2022-01-09T08:46:42Z</time>
      </trkpt>
      <trkpt lat="29.6184" lon="34.919200000000004">
        <ele>450</ele>
        <time>2022-01-09T08:46:43Z</time>
      </trkpt>
      <trkpt lat="29.6182" lon="34.91921">
        <ele>450</ele>
        <time>2022-01-09T08:46:44Z</time>
      </trkpt>
      <trkpt lat="29.6182" lon="34.91921">
        <ele>444.51923011652525</ele>
        <time>2022-01-09T08:46:45Z</time>
      </trkpt>
      <trkpt lat="29.6182" lon="34.91921">
        <ele>444.51923011652525</ele>
        <time>2022-01-09T08:46:46Z</time>
      </trkpt>
      <trkpt lat="29.61813" lon="34.91917">
        <ele>450</ele>
        <time>2022-01-09T08:46:47Z</time>
      </trkpt>
      <trkpt lat="29.618050000000004" lon="34.91908">
        <ele>450</ele>
        <time>2022-01-09T08:46:48Z</time>
      </trkpt>
      <trkpt lat="29.617990000000002" lon="34.91904">
        <ele>450</ele>
        <time>2022-01-09T08:46:49Z</time>
      </trkpt>
      <trkpt lat="29.61784" lon="34.919070000000005">
        <ele>450</ele>
        <time>2022-01-09T08:46:50Z</time>
      </trkpt>
      <trkpt lat="29.617790000000003" lon="34.91906">
        <ele>423</ele>
        <time>2022-01-09T08:46:51Z</time>
      </trkpt>
      <trkpt lat="29.61775" lon="34.91902">
        <ele>423</ele>
        <time>2022-01-09T08:46:52Z</time>
      </trkpt>
      <trkpt lat="29.617720000000002" lon="34.91895">
        <ele>423</ele>
        <time>2022-01-09T08:46:53Z</time>
      </trkpt>
      <trkpt lat="29.617720000000002" lon="34.91895">
        <ele>434.7929306166747</ele>
        <time>2022-01-09T08:46:54Z</time>
      </trkpt>
      <trkpt lat="29.617720000000002" lon="34.91895">
        <ele>434.7929306166747</ele>
        <time>2022-01-09T08:46:55Z</time>
      </trkpt>
      <trkpt lat="29.617710000000002" lon="34.918800000000005">
        <ele>423</ele>
        <time>2022-01-09T08:46:56Z</time>
      </trkpt>
      <trkpt lat="29.617680000000004" lon="34.918730000000004">
        <ele>423</ele>
        <time>2022-01-09T08:46:57Z</time>
      </trkpt>
      <trkpt lat="29.617530000000002" lon="34.91868">
        <ele>423</ele>
        <time>2022-01-09T08:46:58Z</time>
      </trkpt>
      <trkpt lat="29.61746" lon="34.918620000000004">
        <ele>423</ele>
        <time>2022-01-09T08:46:59Z</time>
      </trkpt>
      <trkpt lat="29.617410000000003" lon="34.918490000000006">
        <ele>423</ele>
        <time>2022-01-09T08:47:00Z</time>
      </trkpt>
      <trkpt lat="29.617340000000002" lon="34.918400000000005">
        <ele>423</ele>
        <time>2022-01-09T08:47:01Z</time>
      </trkpt>
      <trkpt lat="29.617130000000003" lon="34.918220000000005">
        <ele>432</ele>
        <time>2022-01-09T08:47:02Z</time>
      </trkpt>
      <trkpt lat="29.617130000000003" lon="34.918220000000005">
        <ele>423.4860512209066</ele>
        <time>2022-01-09T08:47:03Z</time>
      </trkpt>
      <trkpt lat="29.617130000000003" lon="34.918220000000005">
        <ele>423.4860512209066</ele>
        <time>2022-01-09T08:47:04Z</time>
      </trkpt>
      <trkpt lat="29.617060000000002" lon="34.918200000000006">
        <ele>432</ele>
        <time>2022-01-09T08:47:05Z</time>
      </trkpt>
      <trkpt lat="29.61681" lon="34.91823">
        <ele>408</ele>
        <time>2022-01-09T08:47:06Z</time>
      </trkpt>
      <trkpt lat="29.61681" lon="34.91823">
        <ele>414.0317743686028</ele>
        <time>2022-01-09T08:47:07Z</time>
      </trkpt>
      <trkpt lat="29.61681" lon="34.91823">
        <ele>408</ele>
        <time>2022-01-09T08:47:08Z</time>
      </trkpt>
      <trkpt lat="29.61671" lon="34.91821">
        <ele>408</ele>
        <time>2022-01-09T08:47:09Z</time>
      </trkpt>
      <trkpt lat="29.61663" lon="34.91817">
        <ele>408</ele>
        <time>2022-01-09T08:47:10Z</time>
      </trkpt>
      <trkpt lat="29.616550000000004" lon="34.918110000000006">
        <ele>408</ele>
        <time>2022-01-09T08:47:11Z</time>
      </trkpt>
      <trkpt lat="29.616550000000004" lon="34.918110000000006">
        <ele>408.5761570476819</ele>
        <time>2022-01-09T08:47:12Z</time>
      </trkpt>
      <trkpt lat="29.616550000000004" lon="34.918110000000006">
        <ele>408.5761570476819</ele>
        <time>2022-01-09T08:47:13Z</time>
      </trkpt>
      <trkpt lat="29.616480000000003" lon="34.91801">
        <ele>408</ele>
        <time>2022-01-09T08:47:14Z</time>
      </trkpt>
      <trkpt lat="29.616350000000004" lon="34.917790000000004">
        <ele>408</ele>
        <time>2022-01-09T08:47:15Z</time>
      </trkpt>
      <trkpt lat="29.61614" lon="34.917570000000005">
        <ele>387</ele>
        <time>2022-01-09T08:47:16Z</time>
      </trkpt>
      <trkpt lat="29.615820000000003" lon="34.91734">
        <ele>391</ele>
        <time>2022-01-09T08:47:17Z</time>
      </trkpt>
      <trkpt lat="29.615720000000003" lon="34.917280000000005">
        <ele>391</ele>
        <time>2022-01-09T08:47:18Z</time>
      </trkpt>
      <trkpt lat="29.6155" lon="34.917210000000004">
        <ele>391</ele>
        <time>2022-01-09T08:47:19Z</time>
      </trkpt>
      <trkpt lat="29.615260000000003" lon="34.91706">
        <ele>384</ele>
        <time>2022-01-09T08:47:20Z</time>
      </trkpt>
      <trkpt lat="29.615260000000003" lon="34.91706">
        <ele>392.62642741471257</ele>
        <time>2022-01-09T08:47:21Z</time>
      </trkpt>
      <trkpt lat="29.615260000000003" lon="34.91706">
        <ele>392.62642741471257</ele>
        <time>2022-01-09T08:47:22Z</time>
      </trkpt>
      <trkpt lat="29.615090000000002" lon="34.91689">
        <ele>384</ele>
        <time>2022-01-09T08:47:23Z</time>
      </trkpt>
      <trkpt lat="29.61502" lon="34.9168">
        <ele>384</ele>
        <time>2022-01-09T08:47:24Z</time>
      </trkpt>
      <trkpt lat="29.61492" lon="34.91662">
        <ele>374</ele>
        <time>2022-01-09T08:47:25Z</time>
      </trkpt>
      <trkpt lat="29.614770000000004" lon="34.916410000000006">
        <ele>374</ele>
        <time>2022-01-09T08:47:26Z</time>
      </trkpt>
      <trkpt lat="29.61465" lon="34.91631">
        <ele>374</ele>
        <time>2022-01-09T08:47:27Z</time>
      </trkpt>
      <trkpt lat="29.614330000000002" lon="34.9161">
        <ele>367</ele>
        <time>2022-01-09T08:47:28Z</time>
      </trkpt>
      <trkpt lat="29.614250000000002" lon="34.91601">
        <ele>367</ele>
        <time>2022-01-09T08:47:29Z</time>
      </trkpt>
      <trkpt lat="29.614250000000002" lon="34.91601">
        <ele>370.3583748374448</ele>
        <time>2022-01-09T08:47:30Z</time>
      </trkpt>
      <trkpt lat="29.614250000000002" lon="34.91601">
        <ele>370.3583748374448</ele>
        <time>2022-01-09T08:47:31Z</time>
      </trkpt>
      <trkpt lat="29.614140000000003" lon="34.91575">
        <ele>360</ele>
        <time>2022-01-09T08:47:32Z</time>
      </trkpt>
      <trkpt lat="29.614040000000003" lon="34.915350000000004">
        <ele>360</ele>
        <time>2022-01-09T08:47:33Z</time>
      </trkpt>
      <trkpt lat="29.61408" lon="34.91521">
        <ele>360</ele>
        <time>2022-01-09T08:47:34Z</time>
      </trkpt>
      <trkpt lat="29.614210000000003" lon="34.915000000000006">
        <ele>339</ele>
        <time>2022-01-09T08:47:35Z</time>
      </trkpt>
      <trkpt lat="29.614240000000002" lon="34.91492">
        <ele>339</ele>
        <time>2022-01-09T08:47:36Z</time>
      </trkpt>
      <trkpt lat="29.614240000000002" lon="34.914840000000005">
        <ele>339</ele>
        <time>2022-01-09T08:47:37Z</time>
      </trkpt>
      <trkpt lat="29.614210000000003" lon="34.914770000000004">
        <ele>339</ele>
        <time>2022-01-09T08:47:38Z</time>
      </trkpt>
      <trkpt lat="29.614210000000003" lon="34.914770000000004">
        <ele>333.38810547459553</ele>
        <time>2022-01-09T08:47:39Z</time>
      </trkpt>
      <trkpt lat="29.614210000000003" lon="34.914770000000004">
        <ele>333.38810547459553</ele>
        <time>2022-01-09T08:47:40Z</time>
      </trkpt>
      <trkpt lat="29.614150000000002" lon="34.914730000000006">
        <ele>339</ele>
        <time>2022-01-09T08:47:41Z</time>
      </trkpt>
      <trkpt lat="29.614020000000004" lon="34.91474">
        <ele>339</ele>
        <time>2022-01-09T08:47:42Z</time>
      </trkpt>
      <trkpt lat="29.6138" lon="34.91467">
        <ele>339</ele>
        <time>2022-01-09T08:47:43Z</time>
      </trkpt>
      <trkpt lat="29.61361" lon="34.91442">
        <ele>333</ele>
        <time>2022-01-09T08:47:44Z</time>
      </trkpt>
      <trkpt lat="29.613490000000002" lon="34.914320000000004">
        <ele>333</ele>
        <time>2022-01-09T08:47:45Z</time>
      </trkpt>
      <trkpt lat="29.613360000000004" lon="34.91424">
        <ele>333</ele>
        <time>2022-01-09T08:47:46Z</time>
      </trkpt>
      <trkpt lat="29.613170000000004" lon="34.91418">
        <ele>324</ele>
        <time>2022-01-09T08:47:47Z</time>
      </trkpt>
      <trkpt lat="29.613170000000004" lon="34.91418">
        <ele>320.58564737622527</ele>
        <time>2022-01-09T08:47:48Z</time>
      </trkpt>
      <trkpt lat="29.613170000000004" lon="34.91418">
        <ele>320.58564737622527</ele>
        <time>2022-01-09T08:47:49Z</time>
      </trkpt>
      <trkpt lat="29.612440000000003" lon="34.914100000000005">
        <ele>320</ele>
        <time>2022-01-09T08:47:50Z</time>
      </trkpt>
      <trkpt lat="29.612440000000003" lon="34.914100000000005">
        <ele>318.0296726075729</ele>
        <time>2022-01-09T08:47:51Z</time>
      </trkpt>
      <trkpt lat="29.612440000000003" lon="34.914100000000005">
        <ele>320</ele>
        <time>2022-01-09T08:47:52Z</time>
      </trkpt>
      <trkpt lat="29.612280000000002" lon="34.914060000000006">
        <ele>320</ele>
        <time>2022-01-09T08:47:53Z</time>
      </trkpt>
      <trkpt lat="29.612230000000004" lon="34.913990000000005">
        <ele>320</ele>
        <time>2022-01-09T08:47:54Z</time>
      </trkpt>
      <trkpt lat="29.612070000000003" lon="34.913700000000006">
        <ele>320</ele>
        <time>2022-01-09T08:47:55Z</time>
      </trkpt>
      <trkpt lat="29.612070000000003" lon="34.91362">
        <ele>320</ele>
        <time>2022-01-09T08:47:56Z</time>
      </trkpt>
      <trkpt lat="29.612070000000003" lon="34.91362">
        <ele>318.2110968888737</ele>
        <time>2022-01-09T08:47:57Z</time>
      </trkpt>
      <trkpt lat="29.612070000000003" lon="34.91362">
        <ele>318.2110968888737</ele>
        <time>2022-01-09T08:47:58Z</time>
      </trkpt>
      <trkpt lat="29.612040000000004" lon="34.91353">
        <ele>320</ele>
        <time>2022-01-09T08:47:59Z</time>
      </trkpt>
      <extensions>
        <RoutingType xmlns="">Hike</RoutingType>
      </extensions>
    </trkseg>
    <trkseg>
      <trkpt lat="29.612040000000004" lon="34.91353">
        <ele>320</ele>
        <time>2022-01-09T08:47:59Z</time>
      </trkpt>
      <trkpt lat="29.611900000000002" lon="34.913410000000006">
        <ele>319</ele>
        <time>2022-01-09T08:48:00Z</time>
      </trkpt>
      <trkpt lat="29.611660000000004" lon="34.913160000000005">
        <ele>320</ele>
        <time>2022-01-09T08:48:01Z</time>
      </trkpt>
      <trkpt lat="29.611590000000003" lon="34.91306">
        <ele>320</ele>
        <time>2022-01-09T08:48:02Z</time>
      </trkpt>
      <trkpt lat="29.611510000000003" lon="34.91299">
        <ele>320</ele>
        <time>2022-01-09T08:48:03Z</time>
      </trkpt>
      <trkpt lat="29.61136" lon="34.91295">
        <ele>320</ele>
        <time>2022-01-09T08:48:04Z</time>
      </trkpt>
      <trkpt lat="29.611310000000003" lon="34.912910000000004">
        <ele>320</ele>
        <time>2022-01-09T08:48:05Z</time>
      </trkpt>
      <trkpt lat="29.611310000000003" lon="34.912910000000004">
        <ele>322.06753194258727</ele>
        <time>2022-01-09T08:48:06Z</time>
      </trkpt>
      <trkpt lat="29.611310000000003" lon="34.912910000000004">
        <ele>322.06753194258727</ele>
        <time>2022-01-09T08:48:07Z</time>
      </trkpt>
      <trkpt lat="29.611230000000003" lon="34.91281">
        <ele>320</ele>
        <time>2022-01-09T08:48:08Z</time>
      </trkpt>
      <trkpt lat="29.61116" lon="34.912760000000006">
        <ele>320</ele>
        <time>2022-01-09T08:48:09Z</time>
      </trkpt>
      <trkpt lat="29.611030000000003" lon="34.912710000000004">
        <ele>330</ele>
        <time>2022-01-09T08:48:10Z</time>
      </trkpt>
      <trkpt lat="29.611" lon="34.912650000000006">
        <ele>330</ele>
        <time>2022-01-09T08:48:11Z</time>
      </trkpt>
      <trkpt lat="29.61099" lon="34.912560000000006">
        <ele>325</ele>
        <time>2022-01-09T08:48:12Z</time>
      </trkpt>
      <trkpt lat="29.610970000000002" lon="34.912510000000005">
        <ele>325</ele>
        <time>2022-01-09T08:48:13Z</time>
      </trkpt>
      <trkpt lat="29.6109" lon="34.912470000000006">
        <ele>325</ele>
        <time>2022-01-09T08:48:14Z</time>
      </trkpt>
      <trkpt lat="29.6109" lon="34.912470000000006">
        <ele>323.6408034860506</ele>
        <time>2022-01-09T08:48:15Z</time>
      </trkpt>
      <trkpt lat="29.6109" lon="34.912470000000006">
        <ele>323.6408034860506</ele>
        <time>2022-01-09T08:48:16Z</time>
      </trkpt>
      <trkpt lat="29.610750000000003" lon="34.91246">
        <ele>325</ele>
        <time>2022-01-09T08:48:17Z</time>
      </trkpt>
      <trkpt lat="29.61053" lon="34.912490000000005">
        <ele>325</ele>
        <time>2022-01-09T08:48:18Z</time>
      </trkpt>
      <trkpt lat="29.610100000000003" lon="34.91235">
        <ele>329</ele>
        <time>2022-01-09T08:48:19Z</time>
      </trkpt>
      <trkpt lat="29.60947" lon="34.912240000000004">
        <ele>336</ele>
        <time>2022-01-09T08:48:20Z</time>
      </trkpt>
      <trkpt lat="29.6092" lon="34.91216">
        <ele>336</ele>
        <time>2022-01-09T08:48:21Z</time>
      </trkpt>
      <trkpt lat="29.60911" lon="34.9121">
        <ele>336</ele>
        <time>2022-01-09T08:48:22Z</time>
      </trkpt>
      <trkpt lat="29.608960000000003" lon="34.911950000000004">
        <ele>336</ele>
        <time>2022-01-09T08:48:23Z</time>
      </trkpt>
      <trkpt lat="29.608960000000003" lon="34.911950000000004">
        <ele>331.6111855865589</ele>
        <time>2022-01-09T08:48:24Z</time>
      </trkpt>
      <trkpt lat="29.608960000000003" lon="34.911950000000004">
        <ele>331.6111855865589</ele>
        <time>2022-01-09T08:48:25Z</time>
      </trkpt>
      <trkpt lat="29.608800000000002" lon="34.911860000000004">
        <ele>336</ele>
        <time>2022-01-09T08:48:26Z</time>
      </trkpt>
      <trkpt lat="29.608680000000003" lon="34.91176">
        <ele>336</ele>
        <time>2022-01-09T08:48:27Z</time>
      </trkpt>
      <trkpt lat="29.608500000000003" lon="34.91176">
        <ele>347</ele>
        <time>2022-01-09T08:48:28Z</time>
      </trkpt>
      <trkpt lat="29.608420000000002" lon="34.91171">
        <ele>334</ele>
        <time>2022-01-09T08:48:29Z</time>
      </trkpt>
      <trkpt lat="29.608380000000004" lon="34.911590000000004">
        <ele>334</ele>
        <time>2022-01-09T08:48:30Z</time>
      </trkpt>
      <trkpt lat="29.60835" lon="34.911530000000006">
        <ele>334</ele>
        <time>2022-01-09T08:48:31Z</time>
      </trkpt>
      <trkpt lat="29.608300000000003" lon="34.911500000000004">
        <ele>334</ele>
        <time>2022-01-09T08:48:32Z</time>
      </trkpt>
      <trkpt lat="29.608300000000003" lon="34.911500000000004">
        <ele>334.662083336045</ele>
        <time>2022-01-09T08:48:33Z</time>
      </trkpt>
      <trkpt lat="29.608300000000003" lon="34.911500000000004">
        <ele>334.662083336045</ele>
        <time>2022-01-09T08:48:34Z</time>
      </trkpt>
      <trkpt lat="29.608220000000003" lon="34.91149">
        <ele>334</ele>
        <time>2022-01-09T08:48:35Z</time>
      </trkpt>
      <trkpt lat="29.608010000000004" lon="34.91151">
        <ele>334</ele>
        <time>2022-01-09T08:48:36Z</time>
      </trkpt>
      <trkpt lat="29.607640000000004" lon="34.911350000000006">
        <ele>343</ele>
        <time>2022-01-09T08:48:37Z</time>
      </trkpt>
      <trkpt lat="29.607480000000002" lon="34.91124">
        <ele>343</ele>
        <time>2022-01-09T08:48:38Z</time>
      </trkpt>
      <trkpt lat="29.607400000000002" lon="34.91113">
        <ele>343</ele>
        <time>2022-01-09T08:48:39Z</time>
      </trkpt>
      <trkpt lat="29.607280000000003" lon="34.91093">
        <ele>343</ele>
        <time>2022-01-09T08:48:40Z</time>
      </trkpt>
      <trkpt lat="29.60723" lon="34.910880000000006">
        <ele>338</ele>
        <time>2022-01-09T08:48:41Z</time>
      </trkpt>
      <trkpt lat="29.60723" lon="34.910880000000006">
        <ele>339.70269814714896</ele>
        <time>2022-01-09T08:48:42Z</time>
      </trkpt>
      <trkpt lat="29.60723" lon="34.910880000000006">
        <ele>339.70269814714896</ele>
        <time>2022-01-09T08:48:43Z</time>
      </trkpt>
      <trkpt lat="29.60694" lon="34.91067">
        <ele>347</ele>
        <time>2022-01-09T08:48:44Z</time>
      </trkpt>
      <trkpt lat="29.60686" lon="34.910630000000005">
        <ele>347</ele>
        <time>2022-01-09T08:48:45Z</time>
      </trkpt>
      <trkpt lat="29.60656" lon="34.91057">
        <ele>347</ele>
        <time>2022-01-09T08:48:46Z</time>
      </trkpt>
      <trkpt lat="29.60639" lon="34.910500000000006">
        <ele>347</ele>
        <time>2022-01-09T08:48:47Z</time>
      </trkpt>
      <trkpt lat="29.6061" lon="34.910320000000006">
        <ele>351</ele>
        <time>2022-01-09T08:48:48Z</time>
      </trkpt>
      <trkpt lat="29.60574" lon="34.910030000000006">
        <ele>348</ele>
        <time>2022-01-09T08:48:49Z</time>
      </trkpt>
      <trkpt lat="29.605620000000002" lon="34.90995">
        <ele>348</ele>
        <time>2022-01-09T08:48:50Z</time>
      </trkpt>
      <trkpt lat="29.605620000000002" lon="34.90995">
        <ele>349.63715179578867</ele>
        <time>2022-01-09T08:48:51Z</time>
      </trkpt>
      <trkpt lat="29.605620000000002" lon="34.90995">
        <ele>349.63715179578867</ele>
        <time>2022-01-09T08:48:52Z</time>
      </trkpt>
      <trkpt lat="29.605430000000002" lon="34.909870000000005">
        <ele>348</ele>
        <time>2022-01-09T08:48:53Z</time>
      </trkpt>
      <trkpt lat="29.605020000000003" lon="34.90961">
        <ele>353</ele>
        <time>2022-01-09T08:48:54Z</time>
      </trkpt>
      <trkpt lat="29.604930000000003" lon="34.90954">
        <ele>353</ele>
        <time>2022-01-09T08:48:55Z</time>
      </trkpt>
      <trkpt lat="29.60471" lon="34.909310000000005">
        <ele>353</ele>
        <time>2022-01-09T08:48:56Z</time>
      </trkpt>
      <trkpt lat="29.604580000000002" lon="34.90923">
        <ele>352</ele>
        <time>2022-01-09T08:48:57Z</time>
      </trkpt>
      <trkpt lat="29.604180000000003" lon="34.90888">
        <ele>355</ele>
        <time>2022-01-09T08:48:58Z</time>
      </trkpt>
      <trkpt lat="29.603920000000002" lon="34.90863">
        <ele>355</ele>
        <time>2022-01-09T08:48:59Z</time>
      </trkpt>
      <trkpt lat="29.603920000000002" lon="34.90863">
        <ele>360.30102527427766</ele>
        <time>2022-01-09T08:49:00Z</time>
      </trkpt>
      <trkpt lat="29.603920000000002" lon="34.90863">
        <ele>360.30102527427766</ele>
        <time>2022-01-09T08:49:01Z</time>
      </trkpt>
      <trkpt lat="29.60368" lon="34.90843">
        <ele>355</ele>
        <time>2022-01-09T08:49:02Z</time>
      </trkpt>
      <trkpt lat="29.603320000000004" lon="34.908100000000005">
        <ele>361</ele>
        <time>2022-01-09T08:49:03Z</time>
      </trkpt>
      <trkpt lat="29.60329" lon="34.90805">
        <ele>361</ele>
        <time>2022-01-09T08:49:04Z</time>
      </trkpt>
      <trkpt lat="29.60329" lon="34.90805">
        <ele>362.75959119176196</ele>
        <time>2022-01-09T08:49:05Z</time>
      </trkpt>
      <trkpt lat="29.60329" lon="34.90805">
        <ele>361</ele>
        <time>2022-01-09T08:49:06Z</time>
      </trkpt>
      <trkpt lat="29.603320000000004" lon="34.908100000000005">
        <ele>361</ele>
        <time>2022-01-09T08:49:07Z</time>
      </trkpt>
      <trkpt lat="29.60319" lon="34.908060000000006">
        <ele>361</ele>
        <time>2022-01-09T08:49:08Z</time>
      </trkpt>
      <trkpt lat="29.60319" lon="34.908060000000006">
        <ele>363.59129058747243</ele>
        <time>2022-01-09T08:49:09Z</time>
      </trkpt>
      <trkpt lat="29.60319" lon="34.908060000000006">
        <ele>363.59129058747243</ele>
        <time>2022-01-09T08:49:10Z</time>
      </trkpt>
      <trkpt lat="29.602950000000003" lon="34.90805">
        <ele>361</ele>
        <time>2022-01-09T08:49:11Z</time>
      </trkpt>
      <trkpt lat="29.602680000000003" lon="34.908060000000006">
        <ele>362</ele>
        <time>2022-01-09T08:49:12Z</time>
      </trkpt>
      <trkpt lat="29.602430000000002" lon="34.90804">
        <ele>362</ele>
        <time>2022-01-09T08:49:13Z</time>
      </trkpt>
      <trkpt lat="29.60217" lon="34.90807">
        <ele>362</ele>
        <time>2022-01-09T08:49:14Z</time>
      </trkpt>
      <trkpt lat="29.6018" lon="34.908060000000006">
        <ele>367</ele>
        <time>2022-01-09T08:49:15Z</time>
      </trkpt>
      <trkpt lat="29.601470000000003" lon="34.908120000000004">
        <ele>367</ele>
        <time>2022-01-09T08:49:16Z</time>
      </trkpt>
      <extensions>
        <RoutingType xmlns="">Hike</RoutingType>
      </extensions>
    </trkseg>
    <trkseg>
      <trkpt lat="29.601470000000003" lon="34.908120000000004">
        <ele>367</ele>
        <time>2022-01-09T08:49:16Z</time>
      </trkpt>
      <trkpt lat="29.601370000000003" lon="34.908120000000004">
        <ele>367</ele>
        <time>2022-01-09T08:49:17Z</time>
      </trkpt>
      <trkpt lat="29.601370000000003" lon="34.908120000000004">
        <ele>369.3910225913741</ele>
        <time>2022-01-09T08:49:18Z</time>
      </trkpt>
      <trkpt lat="29.601370000000003" lon="34.908120000000004">
        <ele>369.3910225913741</ele>
        <time>2022-01-09T08:49:19Z</time>
      </trkpt>
      <trkpt lat="29.60114" lon="34.90807">
        <ele>376</ele>
        <time>2022-01-09T08:49:20Z</time>
      </trkpt>
      <trkpt lat="29.600910000000002" lon="34.907970000000006">
        <ele>376</ele>
        <time>2022-01-09T08:49:21Z</time>
      </trkpt>
      <trkpt lat="29.60057" lon="34.90778">
        <ele>376</ele>
        <time>2022-01-09T08:49:22Z</time>
      </trkpt>
      <trkpt lat="29.600500000000004" lon="34.90771">
        <ele>376</ele>
        <time>2022-01-09T08:49:23Z</time>
      </trkpt>
      <trkpt lat="29.600420000000003" lon="34.90766">
        <ele>376</ele>
        <time>2022-01-09T08:49:24Z</time>
      </trkpt>
      <trkpt lat="29.600320000000004" lon="34.90764">
        <ele>398</ele>
        <time>2022-01-09T08:49:25Z</time>
      </trkpt>
      <trkpt lat="29.600130000000004" lon="34.907540000000004">
        <ele>388</ele>
        <time>2022-01-09T08:49:26Z</time>
      </trkpt>
      <trkpt lat="29.600130000000004" lon="34.907540000000004">
        <ele>382.5959963408968</ele>
        <time>2022-01-09T08:49:27Z</time>
      </trkpt>
      <trkpt lat="29.600130000000004" lon="34.907540000000004">
        <ele>382.5959963408968</ele>
        <time>2022-01-09T08:49:28Z</time>
      </trkpt>
      <trkpt lat="29.599960000000003" lon="34.90749">
        <ele>388</ele>
        <time>2022-01-09T08:49:29Z</time>
      </trkpt>
      <trkpt lat="29.599790000000002" lon="34.90738">
        <ele>388</ele>
        <time>2022-01-09T08:49:30Z</time>
      </trkpt>
      <trkpt lat="29.599420000000002" lon="34.907180000000004">
        <ele>378</ele>
        <time>2022-01-09T08:49:31Z</time>
      </trkpt>
      <trkpt lat="29.599140000000002" lon="34.90719">
        <ele>378</ele>
        <time>2022-01-09T08:49:32Z</time>
      </trkpt>
      <trkpt lat="29.59898" lon="34.907160000000005">
        <ele>378</ele>
        <time>2022-01-09T08:49:33Z</time>
      </trkpt>
      <trkpt lat="29.59878" lon="34.9071">
        <ele>378</ele>
        <time>2022-01-09T08:49:34Z</time>
      </trkpt>
      <trkpt lat="29.598650000000003" lon="34.907030000000006">
        <ele>376</ele>
        <time>2022-01-09T08:49:35Z</time>
      </trkpt>
      <trkpt lat="29.598650000000003" lon="34.907030000000006">
        <ele>364.50172138469213</ele>
        <time>2022-01-09T08:49:36Z</time>
      </trkpt>
      <trkpt lat="29.598650000000003" lon="34.907030000000006">
        <ele>364.50172138469213</ele>
        <time>2022-01-09T08:49:37Z</time>
      </trkpt>
      <trkpt lat="29.59842" lon="34.906980000000004">
        <ele>376</ele>
        <time>2022-01-09T08:49:38Z</time>
      </trkpt>
      <trkpt lat="29.598150000000004" lon="34.906870000000005">
        <ele>376</ele>
        <time>2022-01-09T08:49:39Z</time>
      </trkpt>
      <trkpt lat="29.59795" lon="34.90684">
        <ele>376</ele>
        <time>2022-01-09T08:49:40Z</time>
      </trkpt>
      <trkpt lat="29.597870000000004" lon="34.906780000000005">
        <ele>376</ele>
        <time>2022-01-09T08:49:41Z</time>
      </trkpt>
      <trkpt lat="29.597800000000003" lon="34.90675">
        <ele>377</ele>
        <time>2022-01-09T08:49:42Z</time>
      </trkpt>
      <trkpt lat="29.597550000000002" lon="34.90675">
        <ele>377</ele>
        <time>2022-01-09T08:49:43Z</time>
      </trkpt>
      <trkpt lat="29.597440000000002" lon="34.90672">
        <ele>356</ele>
        <time>2022-01-09T08:49:44Z</time>
      </trkpt>
      <trkpt lat="29.597440000000002" lon="34.90672">
        <ele>354.041432891725</ele>
        <time>2022-01-09T08:49:45Z</time>
      </trkpt>
      <trkpt lat="29.597440000000002" lon="34.90672">
        <ele>354.041432891725</ele>
        <time>2022-01-09T08:49:46Z</time>
      </trkpt>
      <trkpt lat="29.59711" lon="34.906490000000005">
        <ele>356</ele>
        <time>2022-01-09T08:49:47Z</time>
      </trkpt>
      <trkpt lat="29.597040000000003" lon="34.906490000000005">
        <ele>356</ele>
        <time>2022-01-09T08:49:48Z</time>
      </trkpt>
      <trkpt lat="29.596880000000002" lon="34.90663">
        <ele>349</ele>
        <time>2022-01-09T08:49:49Z</time>
      </trkpt>
      <trkpt lat="29.5968" lon="34.906670000000005">
        <ele>349</ele>
        <time>2022-01-09T08:49:50Z</time>
      </trkpt>
      <trkpt lat="29.59643" lon="34.906740000000006">
        <ele>349</ele>
        <time>2022-01-09T08:49:51Z</time>
      </trkpt>
      <trkpt lat="29.59615" lon="34.906740000000006">
        <ele>360</ele>
        <time>2022-01-09T08:49:52Z</time>
      </trkpt>
      <trkpt lat="29.596090000000004" lon="34.90677">
        <ele>360</ele>
        <time>2022-01-09T08:49:53Z</time>
      </trkpt>
      <trkpt lat="29.596090000000004" lon="34.90677">
        <ele>337.32077413751813</ele>
        <time>2022-01-09T08:49:54Z</time>
      </trkpt>
      <trkpt lat="29.596090000000004" lon="34.90677">
        <ele>337.32077413751813</ele>
        <time>2022-01-09T08:49:55Z</time>
      </trkpt>
      <trkpt lat="29.596020000000003" lon="34.90693">
        <ele>360</ele>
        <time>2022-01-09T08:49:56Z</time>
      </trkpt>
      <trkpt lat="29.59598" lon="34.90695">
        <ele>360</ele>
        <time>2022-01-09T08:49:57Z</time>
      </trkpt>
      <trkpt lat="29.595910000000003" lon="34.906960000000005">
        <ele>360</ele>
        <time>2022-01-09T08:49:58Z</time>
      </trkpt>
      <trkpt lat="29.595460000000003" lon="34.90683">
        <ele>360</ele>
        <time>2022-01-09T08:49:59Z</time>
      </trkpt>
      <trkpt lat="29.595360000000003" lon="34.90682">
        <ele>360</ele>
        <time>2022-01-09T08:50:00Z</time>
      </trkpt>
      <trkpt lat="29.5953" lon="34.90686">
        <ele>329</ele>
        <time>2022-01-09T08:50:01Z</time>
      </trkpt>
      <trkpt lat="29.595070000000003" lon="34.907070000000004">
        <ele>329</ele>
        <time>2022-01-09T08:50:02Z</time>
      </trkpt>
      <trkpt lat="29.595070000000003" lon="34.907070000000004">
        <ele>327.15793475077555</ele>
        <time>2022-01-09T08:50:03Z</time>
      </trkpt>
      <trkpt lat="29.595070000000003" lon="34.907070000000004">
        <ele>327.15793475077555</ele>
        <time>2022-01-09T08:50:04Z</time>
      </trkpt>
      <trkpt lat="29.59503" lon="34.90713">
        <ele>329</ele>
        <time>2022-01-09T08:50:05Z</time>
      </trkpt>
      <trkpt lat="29.595000000000002" lon="34.90722">
        <ele>329</ele>
        <time>2022-01-09T08:50:06Z</time>
      </trkpt>
      <trkpt lat="29.594980000000003" lon="34.90751">
        <ele>329</ele>
        <time>2022-01-09T08:50:07Z</time>
      </trkpt>
      <trkpt lat="29.594860000000004" lon="34.907450000000004">
        <ele>329</ele>
        <time>2022-01-09T08:50:08Z</time>
      </trkpt>
      <trkpt lat="29.594860000000004" lon="34.907450000000004">
        <ele>324.34198830471</ele>
        <time>2022-01-09T08:50:09Z</time>
      </trkpt>
      <trkpt lat="29.594860000000004" lon="34.907450000000004">
        <ele>329</ele>
        <time>2022-01-09T08:50:10Z</time>
      </trkpt>
      <trkpt lat="29.594690000000003" lon="34.90731">
        <ele>329</ele>
        <time>2022-01-09T08:50:11Z</time>
      </trkpt>
      <trkpt lat="29.594690000000003" lon="34.90731">
        <ele>324.89220288946024</ele>
        <time>2022-01-09T08:50:12Z</time>
      </trkpt>
      <trkpt lat="29.594690000000003" lon="34.90731">
        <ele>324.89220288946024</ele>
        <time>2022-01-09T08:50:13Z</time>
      </trkpt>
      <trkpt lat="29.594640000000002" lon="34.907140000000005">
        <ele>329</ele>
        <time>2022-01-09T08:50:14Z</time>
      </trkpt>
      <trkpt lat="29.59467" lon="34.90704">
        <ele>329</ele>
        <time>2022-01-09T08:50:15Z</time>
      </trkpt>
      <trkpt lat="29.59467" lon="34.90697">
        <ele>329</ele>
        <time>2022-01-09T08:50:16Z</time>
      </trkpt>
      <trkpt lat="29.594590000000004" lon="34.906870000000005">
        <ele>329</ele>
        <time>2022-01-09T08:50:17Z</time>
      </trkpt>
      <trkpt lat="29.594130000000003" lon="34.9065">
        <ele>336</ele>
        <time>2022-01-09T08:50:18Z</time>
      </trkpt>
      <trkpt lat="29.5939" lon="34.90617">
        <ele>336</ele>
        <time>2022-01-09T08:50:19Z</time>
      </trkpt>
      <trkpt lat="29.593750000000004" lon="34.905750000000005">
        <ele>341</ele>
        <time>2022-01-09T08:50:20Z</time>
      </trkpt>
      <trkpt lat="29.593750000000004" lon="34.905750000000005">
        <ele>330.12800913630053</ele>
        <time>2022-01-09T08:50:21Z</time>
      </trkpt>
      <trkpt lat="29.593750000000004" lon="34.905750000000005">
        <ele>330.12800913630053</ele>
        <time>2022-01-09T08:50:22Z</time>
      </trkpt>
      <trkpt lat="29.593750000000004" lon="34.90538">
        <ele>341</ele>
        <time>2022-01-09T08:50:23Z</time>
      </trkpt>
      <trkpt lat="29.5938" lon="34.905240000000006">
        <ele>341</ele>
        <time>2022-01-09T08:50:24Z</time>
      </trkpt>
      <trkpt lat="29.593870000000003" lon="34.90513">
        <ele>341</ele>
        <time>2022-01-09T08:50:25Z</time>
      </trkpt>
      <trkpt lat="29.593980000000002" lon="34.905080000000005">
        <ele>341</ele>
        <time>2022-01-09T08:50:26Z</time>
      </trkpt>
      <trkpt lat="29.5941" lon="34.905100000000004">
        <ele>341</ele>
        <time>2022-01-09T08:50:27Z</time>
      </trkpt>
      <trkpt lat="29.5941" lon="34.905100000000004">
        <ele>331.18958758232327</ele>
        <time>2022-01-09T08:50:28Z</time>
      </trkpt>
      <trkpt lat="29.5941" lon="34.905100000000004">
        <ele>341</ele>
        <time>2022-01-09T08:50:29Z</time>
      </trkpt>
      <trkpt lat="29.5941" lon="34.905100000000004">
        <ele>331.18958758232327</ele>
        <time>2022-01-09T08:50:30Z</time>
      </trkpt>
      <trkpt lat="29.5941" lon="34.905100000000004">
        <ele>331.18958758232327</ele>
        <time>2022-01-09T08:50:31Z</time>
      </trkpt>
      <trkpt lat="29.594230000000003" lon="34.90513">
        <ele>341</ele>
        <time>2022-01-09T08:50:32Z</time>
      </trkpt>
      <trkpt lat="29.59428" lon="34.905210000000004">
        <ele>341</ele>
        <time>2022-01-09T08:50:33Z</time>
      </trkpt>
      <extensions>
        <RoutingType xmlns="">Hike</RoutingType>
      </extensions>
    </trkseg>
    <trkseg>
      <trkpt lat="29.59428" lon="34.905210000000004">
        <ele>341</ele>
        <time>2022-01-09T08:50:33Z</time>
      </trkpt>
      <trkpt lat="29.59436" lon="34.90527">
        <ele>341</ele>
        <time>2022-01-09T08:50:34Z</time>
      </trkpt>
      <trkpt lat="29.594500000000004" lon="34.905280000000005">
        <ele>341</ele>
        <time>2022-01-09T08:50:35Z</time>
      </trkpt>
      <trkpt lat="29.59475" lon="34.90514">
        <ele>360</ele>
        <time>2022-01-09T08:50:36Z</time>
      </trkpt>
      <trkpt lat="29.59483" lon="34.905010000000004">
        <ele>349</ele>
        <time>2022-01-09T08:50:37Z</time>
      </trkpt>
      <trkpt lat="29.594860000000004" lon="34.904830000000004">
        <ele>349</ele>
        <time>2022-01-09T08:50:38Z</time>
      </trkpt>
      <trkpt lat="29.594860000000004" lon="34.904830000000004">
        <ele>333.74477725248715</ele>
        <time>2022-01-09T08:50:39Z</time>
      </trkpt>
      <trkpt lat="29.594860000000004" lon="34.904830000000004">
        <ele>333.74477725248715</ele>
        <time>2022-01-09T08:50:40Z</time>
      </trkpt>
      <trkpt lat="29.594680000000004" lon="34.90428">
        <ele>349</ele>
        <time>2022-01-09T08:50:41Z</time>
      </trkpt>
      <trkpt lat="29.59474" lon="34.904030000000006">
        <ele>344</ele>
        <time>2022-01-09T08:50:42Z</time>
      </trkpt>
      <trkpt lat="29.594790000000003" lon="34.90401">
        <ele>344</ele>
        <time>2022-01-09T08:50:43Z</time>
      </trkpt>
      <trkpt lat="29.594870000000004" lon="34.903870000000005">
        <ele>344</ele>
        <time>2022-01-09T08:50:44Z</time>
      </trkpt>
      <trkpt lat="29.594990000000003" lon="34.90375">
        <ele>344</ele>
        <time>2022-01-09T08:50:45Z</time>
      </trkpt>
      <trkpt lat="29.595070000000003" lon="34.90361">
        <ele>344</ele>
        <time>2022-01-09T08:50:46Z</time>
      </trkpt>
      <trkpt lat="29.595070000000003" lon="34.903490000000005">
        <ele>344</ele>
        <time>2022-01-09T08:50:47Z</time>
      </trkpt>
      <trkpt lat="29.595070000000003" lon="34.903490000000005">
        <ele>337.12024094406706</ele>
        <time>2022-01-09T08:50:48Z</time>
      </trkpt>
      <trkpt lat="29.595070000000003" lon="34.903490000000005">
        <ele>337.12024094406706</ele>
        <time>2022-01-09T08:50:49Z</time>
      </trkpt>
      <trkpt lat="29.59502" lon="34.903360000000006">
        <ele>345</ele>
        <time>2022-01-09T08:50:50Z</time>
      </trkpt>
      <trkpt lat="29.594900000000003" lon="34.90319">
        <ele>345</ele>
        <time>2022-01-09T08:50:51Z</time>
      </trkpt>
      <trkpt lat="29.594620000000003" lon="34.9029">
        <ele>345</ele>
        <time>2022-01-09T08:50:52Z</time>
      </trkpt>
      <trkpt lat="29.594580000000004" lon="34.902800000000006">
        <ele>345</ele>
        <time>2022-01-09T08:50:53Z</time>
      </trkpt>
      <trkpt lat="29.594520000000003" lon="34.90247">
        <ele>353</ele>
        <time>2022-01-09T08:50:54Z</time>
      </trkpt>
      <trkpt lat="29.594500000000004" lon="34.902120000000004">
        <ele>352</ele>
        <time>2022-01-09T08:50:55Z</time>
      </trkpt>
      <trkpt lat="29.594500000000004" lon="34.902120000000004">
        <ele>339.5411224734942</ele>
        <time>2022-01-09T08:50:56Z</time>
      </trkpt>
      <trkpt lat="29.594500000000004" lon="34.902120000000004">
        <ele>339.5411224734942</ele>
        <time>2022-01-09T08:50:57Z</time>
      </trkpt>
      <trkpt lat="29.594500000000004" lon="34.902120000000004">
        <ele>339.5411224734942</ele>
        <time>2022-01-09T08:50:58Z</time>
      </trkpt>
      <trkpt lat="29.594500000000004" lon="34.902120000000004">
        <ele>352</ele>
        <time>2022-01-09T08:50:59Z</time>
      </trkpt>
      <trkpt lat="29.594490000000004" lon="34.90189">
        <ele>351</ele>
        <time>2022-01-09T08:51:00Z</time>
      </trkpt>
      <trkpt lat="29.594530000000002" lon="34.9016">
        <ele>357</ele>
        <time>2022-01-09T08:51:01Z</time>
      </trkpt>
      <trkpt lat="29.594590000000004" lon="34.9014">
        <ele>357</ele>
        <time>2022-01-09T08:51:02Z</time>
      </trkpt>
      <trkpt lat="29.59466" lon="34.90124">
        <ele>357</ele>
        <time>2022-01-09T08:51:03Z</time>
      </trkpt>
      <trkpt lat="29.594710000000003" lon="34.90117">
        <ele>357</ele>
        <time>2022-01-09T08:51:04Z</time>
      </trkpt>
      <trkpt lat="29.594780000000004" lon="34.901140000000005">
        <ele>357</ele>
        <time>2022-01-09T08:51:05Z</time>
      </trkpt>
      <trkpt lat="29.594780000000004" lon="34.901140000000005">
        <ele>343.6446453076066</ele>
        <time>2022-01-09T08:51:06Z</time>
      </trkpt>
      <trkpt lat="29.594780000000004" lon="34.901140000000005">
        <ele>343.6446453076066</ele>
        <time>2022-01-09T08:51:07Z</time>
      </trkpt>
      <trkpt lat="29.594900000000003" lon="34.901160000000004">
        <ele>357</ele>
        <time>2022-01-09T08:51:08Z</time>
      </trkpt>
      <trkpt lat="29.594960000000004" lon="34.901160000000004">
        <ele>357</ele>
        <time>2022-01-09T08:51:09Z</time>
      </trkpt>
      <trkpt lat="29.59502" lon="34.90111">
        <ele>357</ele>
        <time>2022-01-09T08:51:10Z</time>
      </trkpt>
      <trkpt lat="29.595370000000003" lon="34.900650000000006">
        <ele>389</ele>
        <time>2022-01-09T08:51:11Z</time>
      </trkpt>
      <trkpt lat="29.595470000000002" lon="34.90048">
        <ele>389</ele>
        <time>2022-01-09T08:51:12Z</time>
      </trkpt>
      <trkpt lat="29.595540000000003" lon="34.90044">
        <ele>389</ele>
        <time>2022-01-09T08:51:13Z</time>
      </trkpt>
      <trkpt lat="29.59558" lon="34.90045">
        <ele>389</ele>
        <time>2022-01-09T08:51:14Z</time>
      </trkpt>
      <trkpt lat="29.59558" lon="34.90045">
        <ele>384.9602147499976</ele>
        <time>2022-01-09T08:51:15Z</time>
      </trkpt>
      <trkpt lat="29.59558" lon="34.90045">
        <ele>384.9602147499976</ele>
        <time>2022-01-09T08:51:16Z</time>
      </trkpt>
      <trkpt lat="29.595710000000004" lon="34.90054">
        <ele>389</ele>
        <time>2022-01-09T08:51:17Z</time>
      </trkpt>
      <trkpt lat="29.59579" lon="34.90052">
        <ele>389</ele>
        <time>2022-01-09T08:51:18Z</time>
      </trkpt>
      <trkpt lat="29.595850000000002" lon="34.90048">
        <ele>389</ele>
        <time>2022-01-09T08:51:19Z</time>
      </trkpt>
      <trkpt lat="29.596190000000004" lon="34.89997">
        <ele>405</ele>
        <time>2022-01-09T08:51:20Z</time>
      </trkpt>
      <trkpt lat="29.596280000000004" lon="34.89979">
        <ele>405</ele>
        <time>2022-01-09T08:51:21Z</time>
      </trkpt>
      <trkpt lat="29.596420000000002" lon="34.89941">
        <ele>405</ele>
        <time>2022-01-09T08:51:22Z</time>
      </trkpt>
      <trkpt lat="29.59654" lon="34.899280000000005">
        <ele>405</ele>
        <time>2022-01-09T08:51:23Z</time>
      </trkpt>
      <trkpt lat="29.59654" lon="34.899280000000005">
        <ele>414.79846031006514</ele>
        <time>2022-01-09T08:51:24Z</time>
      </trkpt>
      <trkpt lat="29.59654" lon="34.899280000000005">
        <ele>414.79846031006514</ele>
        <time>2022-01-09T08:51:25Z</time>
      </trkpt>
      <trkpt lat="29.596680000000003" lon="34.899080000000005">
        <ele>412</ele>
        <time>2022-01-09T08:51:26Z</time>
      </trkpt>
      <trkpt lat="29.596960000000003" lon="34.898540000000004">
        <ele>412</ele>
        <time>2022-01-09T08:51:27Z</time>
      </trkpt>
      <trkpt lat="29.597350000000002" lon="34.89791">
        <ele>421</ele>
        <time>2022-01-09T08:51:28Z</time>
      </trkpt>
      <trkpt lat="29.59775" lon="34.89744">
        <ele>425</ele>
        <time>2022-01-09T08:51:29Z</time>
      </trkpt>
      <trkpt lat="29.597830000000002" lon="34.897310000000004">
        <ele>423</ele>
        <time>2022-01-09T08:51:30Z</time>
      </trkpt>
      <trkpt lat="29.597910000000002" lon="34.89712">
        <ele>423</ele>
        <time>2022-01-09T08:51:31Z</time>
      </trkpt>
      <trkpt lat="29.59804" lon="34.89699">
        <ele>428.5</ele>
        <time>2022-01-09T08:51:32Z</time>
      </trkpt>
      <trkpt lat="29.59804" lon="34.89699">
        <ele>427.0603189143609</ele>
        <time>2022-01-09T08:51:33Z</time>
      </trkpt>
      <trkpt lat="29.59804" lon="34.89699">
        <ele>427.0603189143609</ele>
        <time>2022-01-09T08:51:34Z</time>
      </trkpt>
      <trkpt lat="29.59804" lon="34.89699">
        <ele>427.0603189143609</ele>
        <time>2022-01-09T08:51:35Z</time>
      </trkpt>
      <trkpt lat="29.59804" lon="34.89699">
        <ele>428.5</ele>
        <time>2022-01-09T08:51:36Z</time>
      </trkpt>
      <trkpt lat="29.59832" lon="34.8967">
        <ele>434</ele>
        <time>2022-01-09T08:51:37Z</time>
      </trkpt>
      <trkpt lat="29.598540000000003" lon="34.896530000000006">
        <ele>434</ele>
        <time>2022-01-09T08:51:38Z</time>
      </trkpt>
      <trkpt lat="29.598580000000002" lon="34.89647">
        <ele>434</ele>
        <time>2022-01-09T08:51:39Z</time>
      </trkpt>
      <trkpt lat="29.598570000000002" lon="34.89636">
        <ele>434</ele>
        <time>2022-01-09T08:51:40Z</time>
      </trkpt>
      <trkpt lat="29.5985" lon="34.89616">
        <ele>434</ele>
        <time>2022-01-09T08:51:41Z</time>
      </trkpt>
      <trkpt lat="29.5985" lon="34.89616">
        <ele>446.39277016789106</ele>
        <time>2022-01-09T08:51:42Z</time>
      </trkpt>
      <trkpt lat="29.5985" lon="34.89616">
        <ele>446.39277016789106</ele>
        <time>2022-01-09T08:51:43Z</time>
      </trkpt>
      <trkpt lat="29.598460000000003" lon="34.89587">
        <ele>455</ele>
        <time>2022-01-09T08:51:44Z</time>
      </trkpt>
      <trkpt lat="29.598460000000003" lon="34.895790000000005">
        <ele>455</ele>
        <time>2022-01-09T08:51:45Z</time>
      </trkpt>
      <trkpt lat="29.598580000000002" lon="34.895300000000006">
        <ele>455</ele>
        <time>2022-01-09T08:51:46Z</time>
      </trkpt>
      <trkpt lat="29.598670000000002" lon="34.89488">
        <ele>449</ele>
        <time>2022-01-09T08:51:47Z</time>
      </trkpt>
      <trkpt lat="29.598740000000003" lon="34.894690000000004">
        <ele>449</ele>
        <time>2022-01-09T08:51:48Z</time>
      </trkpt>
      <trkpt lat="29.598770000000002" lon="34.894540000000006">
        <ele>449</ele>
        <time>2022-01-09T08:51:49Z</time>
      </trkpt>
      <trkpt lat="29.598940000000002" lon="34.89415">
        <ele>466</ele>
        <time>2022-01-09T08:51:50Z</time>
      </trkpt>
      <extensions>
        <RoutingType xmlns="">Hike</RoutingType>
      </extensions>
    </trkseg>
    <trkseg>
      <trkpt lat="29.598940000000002" lon="34.89415">
        <ele>466</ele>
        <time>2022-01-09T08:51:50Z</time>
      </trkpt>
      <trkpt lat="29.598940000000002" lon="34.89415">
        <ele>468.2699417799822</ele>
        <time>2022-01-09T08:51:51Z</time>
      </trkpt>
      <trkpt lat="29.598940000000002" lon="34.89415">
        <ele>468.2699417799822</ele>
        <time>2022-01-09T08:51:52Z</time>
      </trkpt>
      <trkpt lat="29.599120000000003" lon="34.89374">
        <ele>466</ele>
        <time>2022-01-09T08:51:53Z</time>
      </trkpt>
      <trkpt lat="29.599230000000002" lon="34.89359">
        <ele>466</ele>
        <time>2022-01-09T08:51:54Z</time>
      </trkpt>
      <trkpt lat="29.59926" lon="34.8935">
        <ele>466</ele>
        <time>2022-01-09T08:51:55Z</time>
      </trkpt>
      <trkpt lat="29.59925" lon="34.8933">
        <ele>463</ele>
        <time>2022-01-09T08:51:56Z</time>
      </trkpt>
      <trkpt lat="29.599270000000004" lon="34.89322">
        <ele>463</ele>
        <time>2022-01-09T08:51:57Z</time>
      </trkpt>
      <trkpt lat="29.59936" lon="34.893100000000004">
        <ele>463</ele>
        <time>2022-01-09T08:51:58Z</time>
      </trkpt>
      <trkpt lat="29.599500000000003" lon="34.89293">
        <ele>473</ele>
        <time>2022-01-09T08:51:59Z</time>
      </trkpt>
      <trkpt lat="29.599500000000003" lon="34.89293">
        <ele>462.0788333453683</ele>
        <time>2022-01-09T08:52:00Z</time>
      </trkpt>
      <trkpt lat="29.599500000000003" lon="34.89293">
        <ele>462.0788333453683</ele>
        <time>2022-01-09T08:52:01Z</time>
      </trkpt>
      <trkpt lat="29.599600000000002" lon="34.89273">
        <ele>473</ele>
        <time>2022-01-09T08:52:02Z</time>
      </trkpt>
      <trkpt lat="29.599690000000002" lon="34.89238">
        <ele>466</ele>
        <time>2022-01-09T08:52:03Z</time>
      </trkpt>
      <trkpt lat="29.599690000000002" lon="34.89227">
        <ele>466</ele>
        <time>2022-01-09T08:52:04Z</time>
      </trkpt>
      <trkpt lat="29.599660000000004" lon="34.892070000000004">
        <ele>466</ele>
        <time>2022-01-09T08:52:05Z</time>
      </trkpt>
      <trkpt lat="29.599660000000004" lon="34.89197">
        <ele>466</ele>
        <time>2022-01-09T08:52:06Z</time>
      </trkpt>
      <trkpt lat="29.59981" lon="34.891630000000006">
        <ele>458</ele>
        <time>2022-01-09T08:52:07Z</time>
      </trkpt>
      <trkpt lat="29.5999" lon="34.89148">
        <ele>458</ele>
        <time>2022-01-09T08:52:08Z</time>
      </trkpt>
      <trkpt lat="29.5999" lon="34.89148">
        <ele>452.1251087296494</ele>
        <time>2022-01-09T08:52:09Z</time>
      </trkpt>
      <trkpt lat="29.5999" lon="34.89148">
        <ele>452.1251087296494</ele>
        <time>2022-01-09T08:52:10Z</time>
      </trkpt>
      <trkpt lat="29.599940000000004" lon="34.89108">
        <ele>458</ele>
        <time>2022-01-09T08:52:11Z</time>
      </trkpt>
      <trkpt lat="29.599940000000004" lon="34.89108">
        <ele>453.5517612271043</ele>
        <time>2022-01-09T08:52:12Z</time>
      </trkpt>
      <trkpt lat="29.599940000000004" lon="34.89108">
        <ele>458</ele>
        <time>2022-01-09T08:52:13Z</time>
      </trkpt>
      <trkpt lat="29.59992" lon="34.890980000000006">
        <ele>458</ele>
        <time>2022-01-09T08:52:14Z</time>
      </trkpt>
      <trkpt lat="29.599870000000003" lon="34.89094">
        <ele>458</ele>
        <time>2022-01-09T08:52:15Z</time>
      </trkpt>
      <trkpt lat="29.59917" lon="34.890620000000006">
        <ele>467</ele>
        <time>2022-01-09T08:52:16Z</time>
      </trkpt>
      <trkpt lat="29.59896" lon="34.89045">
        <ele>467</ele>
        <time>2022-01-09T08:52:17Z</time>
      </trkpt>
      <trkpt lat="29.59896" lon="34.89045">
        <ele>466.14633591482914</ele>
        <time>2022-01-09T08:52:18Z</time>
      </trkpt>
      <trkpt lat="29.59896" lon="34.89045">
        <ele>466.14633591482914</ele>
        <time>2022-01-09T08:52:19Z</time>
      </trkpt>
      <trkpt lat="29.598840000000003" lon="34.890280000000004">
        <ele>467</ele>
        <time>2022-01-09T08:52:20Z</time>
      </trkpt>
      <trkpt lat="29.59878" lon="34.890260000000005">
        <ele>467</ele>
        <time>2022-01-09T08:52:21Z</time>
      </trkpt>
      <trkpt lat="29.598350000000003" lon="34.89029">
        <ele>473</ele>
        <time>2022-01-09T08:52:22Z</time>
      </trkpt>
      <trkpt lat="29.598240000000004" lon="34.890330000000006">
        <ele>473</ele>
        <time>2022-01-09T08:52:23Z</time>
      </trkpt>
      <trkpt lat="29.598170000000003" lon="34.890330000000006">
        <ele>473</ele>
        <time>2022-01-09T08:52:24Z</time>
      </trkpt>
      <trkpt lat="29.598080000000003" lon="34.890260000000005">
        <ele>473</ele>
        <time>2022-01-09T08:52:25Z</time>
      </trkpt>
      <trkpt lat="29.598000000000003" lon="34.890150000000006">
        <ele>473</ele>
        <time>2022-01-09T08:52:26Z</time>
      </trkpt>
      <trkpt lat="29.598000000000003" lon="34.890150000000006">
        <ele>472.64491112279336</ele>
        <time>2022-01-09T08:52:27Z</time>
      </trkpt>
      <trkpt lat="29.598000000000003" lon="34.890150000000006">
        <ele>472.64491112279336</ele>
        <time>2022-01-09T08:52:28Z</time>
      </trkpt>
      <trkpt lat="29.59793" lon="34.88987">
        <ele>479</ele>
        <time>2022-01-09T08:52:29Z</time>
      </trkpt>
      <trkpt lat="29.597830000000002" lon="34.88962">
        <ele>487</ele>
        <time>2022-01-09T08:52:30Z</time>
      </trkpt>
      <trkpt lat="29.597830000000002" lon="34.889320000000005">
        <ele>487</ele>
        <time>2022-01-09T08:52:31Z</time>
      </trkpt>
      <trkpt lat="29.597770000000004" lon="34.88891">
        <ele>487</ele>
        <time>2022-01-09T08:52:32Z</time>
      </trkpt>
      <trkpt lat="29.59767" lon="34.88864">
        <ele>487</ele>
        <time>2022-01-09T08:52:33Z</time>
      </trkpt>
      <trkpt lat="29.597530000000003" lon="34.887910000000005">
        <ele>489</ele>
        <time>2022-01-09T08:52:34Z</time>
      </trkpt>
      <trkpt lat="29.59737" lon="34.887510000000006">
        <ele>491</ele>
        <time>2022-01-09T08:52:35Z</time>
      </trkpt>
      <trkpt lat="29.59737" lon="34.887510000000006">
        <ele>479.3137267931798</ele>
        <time>2022-01-09T08:52:36Z</time>
      </trkpt>
      <trkpt lat="29.59737" lon="34.887510000000006">
        <ele>479.3137267931798</ele>
        <time>2022-01-09T08:52:37Z</time>
      </trkpt>
      <trkpt lat="29.59727" lon="34.88736">
        <ele>491</ele>
        <time>2022-01-09T08:52:38Z</time>
      </trkpt>
      <trkpt lat="29.596930000000004" lon="34.88674">
        <ele>492</ele>
        <time>2022-01-09T08:52:39Z</time>
      </trkpt>
      <trkpt lat="29.596890000000002" lon="34.88664">
        <ele>492</ele>
        <time>2022-01-09T08:52:40Z</time>
      </trkpt>
      <trkpt lat="29.596880000000002" lon="34.88658">
        <ele>492</ele>
        <time>2022-01-09T08:52:41Z</time>
      </trkpt>
      <trkpt lat="29.59691" lon="34.886430000000004">
        <ele>492</ele>
        <time>2022-01-09T08:52:42Z</time>
      </trkpt>
      <trkpt lat="29.597140000000003" lon="34.88577">
        <ele>493</ele>
        <time>2022-01-09T08:52:43Z</time>
      </trkpt>
      <trkpt lat="29.59738" lon="34.885380000000005">
        <ele>493</ele>
        <time>2022-01-09T08:52:44Z</time>
      </trkpt>
      <trkpt lat="29.59738" lon="34.885380000000005">
        <ele>480.644876542662</ele>
        <time>2022-01-09T08:52:45Z</time>
      </trkpt>
      <trkpt lat="29.59738" lon="34.885380000000005">
        <ele>480.644876542662</ele>
        <time>2022-01-09T08:52:46Z</time>
      </trkpt>
      <trkpt lat="29.59746" lon="34.885180000000005">
        <ele>493</ele>
        <time>2022-01-09T08:52:47Z</time>
      </trkpt>
      <trkpt lat="29.597490000000004" lon="34.885020000000004">
        <ele>489</ele>
        <time>2022-01-09T08:52:48Z</time>
      </trkpt>
      <trkpt lat="29.59757" lon="34.884710000000005">
        <ele>489</ele>
        <time>2022-01-09T08:52:49Z</time>
      </trkpt>
      <trkpt lat="29.59765" lon="34.88454">
        <ele>489</ele>
        <time>2022-01-09T08:52:50Z</time>
      </trkpt>
      <trkpt lat="29.597720000000002" lon="34.88429">
        <ele>489</ele>
        <time>2022-01-09T08:52:51Z</time>
      </trkpt>
      <trkpt lat="29.597730000000002" lon="34.884150000000005">
        <ele>495</ele>
        <time>2022-01-09T08:52:52Z</time>
      </trkpt>
      <trkpt lat="29.597700000000003" lon="34.883970000000005">
        <ele>495</ele>
        <time>2022-01-09T08:52:53Z</time>
      </trkpt>
      <trkpt lat="29.597700000000003" lon="34.883970000000005">
        <ele>486.6330246136939</ele>
        <time>2022-01-09T08:52:54Z</time>
      </trkpt>
      <trkpt lat="29.597700000000003" lon="34.883970000000005">
        <ele>486.6330246136939</ele>
        <time>2022-01-09T08:52:55Z</time>
      </trkpt>
      <trkpt lat="29.597640000000002" lon="34.88383">
        <ele>495</ele>
        <time>2022-01-09T08:52:56Z</time>
      </trkpt>
      <trkpt lat="29.597510000000003" lon="34.883660000000006">
        <ele>495</ele>
        <time>2022-01-09T08:52:57Z</time>
      </trkpt>
      <trkpt lat="29.597360000000002" lon="34.883390000000006">
        <ele>505</ele>
        <time>2022-01-09T08:52:58Z</time>
      </trkpt>
      <trkpt lat="29.597300000000004" lon="34.88322">
        <ele>505</ele>
        <time>2022-01-09T08:52:59Z</time>
      </trkpt>
      <trkpt lat="29.59729" lon="34.883120000000005">
        <ele>505</ele>
        <time>2022-01-09T08:53:00Z</time>
      </trkpt>
      <trkpt lat="29.597310000000004" lon="34.883050000000004">
        <ele>505</ele>
        <time>2022-01-09T08:53:01Z</time>
      </trkpt>
      <trkpt lat="29.59739" lon="34.88289">
        <ele>505</ele>
        <time>2022-01-09T08:53:02Z</time>
      </trkpt>
      <trkpt lat="29.59739" lon="34.88289">
        <ele>494.5455626497278</ele>
        <time>2022-01-09T08:53:03Z</time>
      </trkpt>
      <trkpt lat="29.59739" lon="34.88289">
        <ele>494.5455626497278</ele>
        <time>2022-01-09T08:53:04Z</time>
      </trkpt>
      <trkpt lat="29.597430000000003" lon="34.882690000000004">
        <ele>505</ele>
        <time>2022-01-09T08:53:05Z</time>
      </trkpt>
      <trkpt lat="29.597430000000003" lon="34.882540000000006">
        <ele>513</ele>
        <time>2022-01-09T08:53:06Z</time>
      </trkpt>
      <trkpt lat="29.59737" lon="34.88221">
        <ele>513</ele>
        <time>2022-01-09T08:53:07Z</time>
      </trkpt>
      <extensions>
        <RoutingType xmlns="">Hike</RoutingType>
      </extensions>
    </trkseg>
    <trkseg>
      <trkpt lat="29.597377" lon="34.882211">
        <ele>504.5</ele>
      </trkpt>
      <trkpt lat="29.59741" lon="34.881994">
        <ele>504.2160091994572</ele>
      </trkpt>
      <trkpt lat="29.597499" lon="34.881793">
        <ele>504.3621570769101</ele>
      </trkpt>
      <trkpt lat="29.597482" lon="34.881721">
        <ele>504.50642640098795</ele>
      </trkpt>
      <trkpt lat="29.597355" lon="34.881586">
        <ele>504.38162148890996</ele>
      </trkpt>
      <trkpt lat="29.597351" lon="34.881639">
        <ele>504.2101674024768</ele>
      </trkpt>
      <trkpt lat="29.597339" lon="34.881681">
        <ele>504.067686820119</ele>
      </trkpt>
      <trkpt lat="29.597335" lon="34.881739">
        <ele>503.8801735594221</ele>
      </trkpt>
      <trkpt lat="29.597305" lon="34.881787">
        <ele>503.73929439144354</ele>
      </trkpt>
      <trkpt lat="29.597253" lon="34.881796">
        <ele>504.47994572899944</ele>
      </trkpt>
      <trkpt lat="29.597226" lon="34.881841">
        <ele>505.14952831104824</ele>
      </trkpt>
      <trkpt lat="29.5972" lon="34.881906">
        <ele>506.0257689529741</ele>
      </trkpt>
      <trkpt lat="29.597233" lon="34.881914">
        <ele>506.5007777400209</ele>
      </trkpt>
      <trkpt lat="29.597248" lon="34.881928">
        <ele>506.77286695620586</ele>
      </trkpt>
      <trkpt lat="29.59725" lon="34.881954">
        <ele>507.09252997843794</ele>
      </trkpt>
      <trkpt lat="29.597233" lon="34.88197">
        <ele>507.40192933592544</ele>
      </trkpt>
      <trkpt lat="29.597192" lon="34.881983">
        <ele>509.8597235117944</ele>
      </trkpt>
      <trkpt lat="29.597136" lon="34.882007">
        <ele>513.8247093499067</ele>
      </trkpt>
      <trkpt lat="29.597095" lon="34.882041">
        <ele>517.1783236741963</ele>
      </trkpt>
      <trkpt lat="29.59706" lon="34.88208">
        <ele>520.4116258296369</ele>
      </trkpt>
      <trkpt lat="29.597037" lon="34.882128">
        <ele>523.5733425547801</ele>
      </trkpt>
      <trkpt lat="29.596997" lon="34.882175">
        <ele>526.4441355014495</ele>
      </trkpt>
      <trkpt lat="29.596968" lon="34.882211">
        <ele>527.9466749655372</ele>
      </trkpt>
      <trkpt lat="29.596954" lon="34.882232">
        <ele>528.7568703571914</ele>
      </trkpt>
      <trkpt lat="29.59696" lon="34.882284">
        <ele>530.3629286325868</ele>
      </trkpt>
      <trkpt lat="29.596919" lon="34.882305">
        <ele>531.943313812398</ele>
      </trkpt>
      <trkpt lat="29.596866" lon="34.882371">
        <ele>534.6939858192402</ele>
      </trkpt>
      <trkpt lat="29.596858" lon="34.882422">
        <ele>534.856399666837</ele>
      </trkpt>
      <trkpt lat="29.596859" lon="34.882477">
        <ele>534.8032105026894</ele>
      </trkpt>
      <trkpt lat="29.596879" lon="34.882533">
        <ele>534.7446768510632</ele>
      </trkpt>
      <trkpt lat="29.5969" lon="34.8826">
        <ele>534.6758168438122</ele>
      </trkpt>
      <trkpt lat="29.596903" lon="34.882651">
        <ele>534.6263940753665</ele>
      </trkpt>
      <trkpt lat="29.596889" lon="34.882698">
        <ele>534.9967521774638</ele>
      </trkpt>
      <trkpt lat="29.596868" lon="34.882665">
        <ele>535.7216244527335</ele>
      </trkpt>
      <trkpt lat="29.596864" lon="34.882588">
        <ele>537.0889481923997</ele>
      </trkpt>
      <trkpt lat="29.596833" lon="34.88254">
        <ele>538.1488069748071</ele>
      </trkpt>
      <trkpt lat="29.596805" lon="34.882544">
        <ele>538.7239944624164</ele>
      </trkpt>
      <trkpt lat="29.596796" lon="34.882612">
        <ele>539.9432361875109</ele>
      </trkpt>
      <trkpt lat="29.596782" lon="34.882665">
        <ele>540.7450788379098</ele>
      </trkpt>
      <trkpt lat="29.596757" lon="34.882677">
        <ele>541.176839371822</ele>
      </trkpt>
      <trkpt lat="29.596728" lon="34.882678">
        <ele>541.6392473323607</ele>
      </trkpt>
      <trkpt lat="29.59672" lon="34.882705">
        <ele>542.0345517456632</ele>
      </trkpt>
      <trkpt lat="29.59664" lon="34.882797">
        <ele>543.8376805580034</ele>
      </trkpt>
      <trkpt lat="29.596577" lon="34.882835">
        <ele>544.5993572810193</ele>
      </trkpt>
      <trkpt lat="29.596509" lon="34.882856">
        <ele>544.9908135009935</ele>
      </trkpt>
      <trkpt lat="29.596415" lon="34.882847">
        <ele>545.5152376467465</ele>
      </trkpt>
      <trkpt lat="29.596293" lon="34.882772">
        <ele>546.3612227661007</ele>
      </trkpt>
      <trkpt lat="29.595929" lon="34.882548">
        <ele>549.2728164442033</ele>
      </trkpt>
      <trkpt lat="29.595842" lon="34.882477">
        <ele>550.2454413334037</ele>
      </trkpt>
      <trkpt lat="29.595617" lon="34.88222">
        <ele>553.0929310696383</ele>
      </trkpt>
      <trkpt lat="29.595414" lon="34.882095">
        <ele>553.6735835474464</ele>
      </trkpt>
      <trkpt lat="29.595346" lon="34.882077">
        <ele>553.5184042902822</ele>
      </trkpt>
      <trkpt lat="29.59509" lon="34.882086">
        <ele>553.1581367189133</ele>
      </trkpt>
      <trkpt lat="29.594991" lon="34.88209">
        <ele>553.1214197539056</ele>
      </trkpt>
      <trkpt lat="29.594817" lon="34.882117">
        <ele>553.1436577257351</ele>
      </trkpt>
      <trkpt lat="29.594561" lon="34.882121">
        <ele>553.5855282050532</ele>
      </trkpt>
      <trkpt lat="29.594397" lon="34.882152">
        <ele>554.2026351065274</ele>
      </trkpt>
      <trkpt lat="29.594152" lon="34.882156">
        <ele>555.7465468981559</ele>
      </trkpt>
      <trkpt lat="29.593652" lon="34.882322">
        <ele>560.5869212074292</ele>
      </trkpt>
      <trkpt lat="29.593348" lon="34.882388">
        <ele>567.1120506018626</ele>
      </trkpt>
      <trkpt lat="29.593275" lon="34.882426">
        <ele>568.8093604812789</ele>
      </trkpt>
      <trkpt lat="29.593167" lon="34.88253">
        <ele>571.7853663270463</ele>
      </trkpt>
      <trkpt lat="29.593055" lon="34.882698">
        <ele>575.3336821767507</ele>
      </trkpt>
      <trkpt lat="29.593004" lon="34.882727">
        <ele>576.3880654101323</ele>
      </trkpt>
      <trkpt lat="29.592681" lon="34.882718">
        <ele>578.0790326297869</ele>
      </trkpt>
      <trkpt lat="29.592531" lon="34.882765">
        <ele>580.6927268234695</ele>
      </trkpt>
      <trkpt lat="29.592413" lon="34.882853">
        <ele>583.5597691494037</ele>
      </trkpt>
      <trkpt lat="29.59237" lon="34.882904">
        <ele>585.9715578368305</ele>
      </trkpt>
      <trkpt lat="29.592273" lon="34.883085">
        <ele>593.3038293397483</ele>
      </trkpt>
      <trkpt lat="29.592204" lon="34.883139">
        <ele>595.3812573339802</ele>
      </trkpt>
      <trkpt lat="29.591833" lon="34.88332">
        <ele>599.7259928540641</ele>
      </trkpt>
      <trkpt lat="29.591629" lon="34.883337">
        <ele>602.942625320583</ele>
      </trkpt>
      <trkpt lat="29.591541" lon="34.883376">
        <ele>605.2147287121804</ele>
      </trkpt>
      <trkpt lat="29.59133" lon="34.88358">
        <ele>612.1917704119862</ele>
      </trkpt>
      <trkpt lat="29.591248" lon="34.883616">
        <ele>613.6129580340039</ele>
      </trkpt>
      <trkpt lat="29.591015" lon="34.883598">
        <ele>615.3150455281714</ele>
      </trkpt>
      <trkpt lat="29.590865" lon="34.883617">
        <ele>617.4405262876224</ele>
      </trkpt>
      <trkpt lat="29.590797" lon="34.883604">
        <ele>618.4114295783611</ele>
      </trkpt>
      <trkpt lat="29.590741" lon="34.883577">
        <ele>619.2877437773452</ele>
      </trkpt>
      <trkpt lat="29.590604" lon="34.883465">
        <ele>621.842148738636</ele>
      </trkpt>
      <trkpt lat="29.590513" lon="34.883446">
        <ele>623.31247343663</ele>
      </trkpt>
      <trkpt lat="29.590434" lon="34.88346">
        <ele>625.0604646670376</ele>
      </trkpt>
      <trkpt lat="29.590296" lon="34.883525">
        <ele>628.3216194471848</ele>
      </trkpt>
      <trkpt lat="29.590039" lon="34.883703">
        <ele>635.2811979749277</ele>
      </trkpt>
      <trkpt lat="29.589885" lon="34.883776">
        <ele>638.31059765968</ele>
      </trkpt>
      <trkpt lat="29.589828" lon="34.883824">
        <ele>639.5937059639311</ele>
      </trkpt>
      <trkpt lat="29.589774" lon="34.883901">
        <ele>640.1024511713189</ele>
      </trkpt>
      <trkpt lat="29.589609" lon="34.884253">
        <ele>637.5705359602232</ele>
      </trkpt>
      <trkpt lat="29.589588" lon="34.884507">
        <ele>634.074673094478</ele>
      </trkpt>
      <trkpt lat="29.589522" lon="34.884759">
        <ele>630.9135096810727</ele>
      </trkpt>
      <trkpt lat="29.58936" lon="34.885016">
        <ele>628.3913448297459</ele>
      </trkpt>
      <trkpt lat="29.589216" lon="34.885204">
        <ele>626.5341098940974</ele>
      </trkpt>
      <trkpt lat="29.589126" lon="34.885456">
        <ele>624.2555975494963</ele>
      </trkpt>
      <trkpt lat="29.588931" lon="34.885875">
        <ele>620.7890547510439</ele>
      </trkpt>
      <trkpt lat="29.588752" lon="34.886022">
        <ele>619.4477083601156</ele>
      </trkpt>
      <trkpt lat="29.588571" lon="34.886024">
        <ele>618.6426199275919</ele>
      </trkpt>
      <trkpt lat="29.588464" lon="34.886006">
        <ele>618.1616403535648</ele>
      </trkpt>
      <trkpt lat="29.588418" lon="34.886011">
        <ele>617.9561297533376</ele>
      </trkpt>
      <trkpt lat="29.588357" lon="34.886021">
        <ele>617.6820711097689</ele>
      </trkpt>
      <trkpt lat="29.588286" lon="34.886007">
        <ele>617.3616686983787</ele>
      </trkpt>
      <trkpt lat="29.588215" lon="34.886022">
        <ele>616.9757374758478</ele>
      </trkpt>
      <trkpt lat="29.588037" lon="34.886022">
        <ele>615.9861026287014</ele>
      </trkpt>
      <trkpt lat="29.587962" lon="34.886022">
        <ele>615.5537297640428</ele>
      </trkpt>
      <trkpt lat="29.587822" lon="34.886123">
        <ele>614.5736158368549</ele>
      </trkpt>
      <trkpt lat="29.587806" lon="34.886025">
        <ele>614.1824240697557</ele>
      </trkpt>
      <extensions>
        <RoutingType xmlns="">Hike</RoutingType>
      </extensions>
    </trkseg>
  </trk>
</gpx>
