<?xml version="1.0" encoding="UTF-8" standalone="yes"?>
<gpx xmlns="http://www.topografix.com/GPX/1/1" xmlns:xsi="http://www.w3.org/2001/XMLSchema-instance" version="1.1" creator="IsraelHikingMap" xsi:schemaLocation="http://www.topografix.com/GPX/1/1 http://www.topografix.com/GPX/1/1/gpx.xsd">
  <metadata>
    <bounds maxlat="32.86258" maxlon="35.531620000000004" minlat="32.77282" minlon="35.48982"></bounds>
  </metadata>
  <trk>
    <name>8 - כינרת ליער שוויץ</name>
    <desc>🏞️ קושי: בינוני | גליל עליון
🥾 עין נון, מגדל, טבריה, יער שוויץ.
💦 טבילה: כינרת
⛺ לילה: יער שוויץ.
🛏️ מתקני לינה: חניון יער שוויץ — מי שתיה.
🛒 קניות בקרבת המסלול:
• מגדל — א׳-ה׳: 24/7 | ☎ 054-6345555 | מינימרקט על השביל
• מינימרקט מגדל — א׳-ה׳: 06:00-2300 | ו׳: 06:00-16:00 | שבת: סגור | ☎ 04-679-1086 | רחוב המייסדים, 500 מ' מהשביל
• כנרת — א׳-ה׳: 06:00-21:00 | ו׳: 06:00-18:00 | שבת: סגור | ☎ 04-6752041 | דרומית לכביש 767</desc>
    <trkseg>
      <trkpt lat="32.85651" lon="35.526830000000004">
        <ele>-198.5</ele>
        <time>2026-07-13T09:50:40Z</time>
      </trkpt>
      <trkpt lat="32.85651" lon="35.526830000000004">
        <ele>-198.5</ele>
        <time>2026-07-13T09:50:40Z</time>
      </trkpt>
      <extensions>
        <RoutingType xmlns="">Hike</RoutingType>
      </extensions>
    </trkseg>
    <trkseg>
      <trkpt lat="32.85651" lon="35.526830000000004">
        <ele>-198.5</ele>
        <time>2026-07-13T09:50:40Z</time>
      </trkpt>
      <trkpt lat="32.85656" lon="35.526700000000005">
        <ele>-198</ele>
        <time>2026-07-13T09:50:41Z</time>
      </trkpt>
      <trkpt lat="32.856640000000006" lon="35.526430000000005">
        <ele>-198</ele>
        <time>2026-07-13T09:50:42Z</time>
      </trkpt>
      <trkpt lat="32.85672" lon="35.526300000000006">
        <ele>-198</ele>
        <time>2026-07-13T09:50:43Z</time>
      </trkpt>
      <trkpt lat="32.85681" lon="35.526030000000006">
        <ele>-198</ele>
        <time>2026-07-13T09:50:44Z</time>
      </trkpt>
      <trkpt lat="32.856880000000004" lon="35.52591">
        <ele>-198</ele>
        <time>2026-07-13T09:50:45Z</time>
      </trkpt>
      <trkpt lat="32.85699" lon="35.52561">
        <ele>-198</ele>
        <time>2026-07-13T09:50:46Z</time>
      </trkpt>
      <trkpt lat="32.85701" lon="35.52541">
        <ele>-198</ele>
        <time>2026-07-13T09:50:47Z</time>
      </trkpt>
      <trkpt lat="32.85698" lon="35.52526">
        <ele>-196</ele>
        <time>2026-07-13T09:50:48Z</time>
      </trkpt>
      <trkpt lat="32.856880000000004" lon="35.525090000000006">
        <ele>-196</ele>
        <time>2026-07-13T09:50:49Z</time>
      </trkpt>
      <trkpt lat="32.856880000000004" lon="35.524930000000005">
        <ele>-196</ele>
        <time>2026-07-13T09:50:50Z</time>
      </trkpt>
      <trkpt lat="32.85701" lon="35.524420000000006">
        <ele>-195</ele>
        <time>2026-07-13T09:50:51Z</time>
      </trkpt>
      <trkpt lat="32.85691" lon="35.524210000000004">
        <ele>-195</ele>
        <time>2026-07-13T09:50:52Z</time>
      </trkpt>
      <trkpt lat="32.857110000000006" lon="35.52394">
        <ele>-195</ele>
        <time>2026-07-13T09:50:53Z</time>
      </trkpt>
      <trkpt lat="32.85721" lon="35.52384">
        <ele>-195</ele>
        <time>2026-07-13T09:50:54Z</time>
      </trkpt>
      <trkpt lat="32.857260000000004" lon="35.52375">
        <ele>-195</ele>
        <time>2026-07-13T09:50:55Z</time>
      </trkpt>
      <trkpt lat="32.85748" lon="35.52347">
        <ele>-195</ele>
        <time>2026-07-13T09:50:56Z</time>
      </trkpt>
      <trkpt lat="32.85754" lon="35.523430000000005">
        <ele>-195</ele>
        <time>2026-07-13T09:50:57Z</time>
      </trkpt>
      <trkpt lat="32.857800000000005" lon="35.52311">
        <ele>-195</ele>
        <time>2026-07-13T09:50:58Z</time>
      </trkpt>
      <trkpt lat="32.85784" lon="35.522980000000004">
        <ele>-195</ele>
        <time>2026-07-13T09:50:59Z</time>
      </trkpt>
      <trkpt lat="32.857980000000005" lon="35.522780000000004">
        <ele>-193</ele>
        <time>2026-07-13T09:51:00Z</time>
      </trkpt>
      <trkpt lat="32.858160000000005" lon="35.52259">
        <ele>-193</ele>
        <time>2026-07-13T09:51:01Z</time>
      </trkpt>
      <trkpt lat="32.85826" lon="35.52243">
        <ele>-193</ele>
        <time>2026-07-13T09:51:02Z</time>
      </trkpt>
      <trkpt lat="32.85853" lon="35.522090000000006">
        <ele>-193</ele>
        <time>2026-07-13T09:51:03Z</time>
      </trkpt>
      <trkpt lat="32.858670000000004" lon="35.52226">
        <ele>-193</ele>
        <time>2026-07-13T09:51:04Z</time>
      </trkpt>
      <trkpt lat="32.85886" lon="35.522380000000005">
        <ele>-193</ele>
        <time>2026-07-13T09:51:05Z</time>
      </trkpt>
      <trkpt lat="32.85891" lon="35.522470000000006">
        <ele>-193</ele>
        <time>2026-07-13T09:51:06Z</time>
      </trkpt>
      <trkpt lat="32.85906" lon="35.522470000000006">
        <ele>-193</ele>
        <time>2026-07-13T09:51:07Z</time>
      </trkpt>
      <trkpt lat="32.859260000000006" lon="35.522270000000006">
        <ele>-193</ele>
        <time>2026-07-13T09:51:08Z</time>
      </trkpt>
      <trkpt lat="32.85935" lon="35.522110000000005">
        <ele>-193</ele>
        <time>2026-07-13T09:51:09Z</time>
      </trkpt>
      <trkpt lat="32.85954" lon="35.52192">
        <ele>-189</ele>
        <time>2026-07-13T09:51:10Z</time>
      </trkpt>
      <trkpt lat="32.859660000000005" lon="35.52185">
        <ele>-189</ele>
        <time>2026-07-13T09:51:11Z</time>
      </trkpt>
      <trkpt lat="32.86012" lon="35.52167">
        <ele>-189</ele>
        <time>2026-07-13T09:51:12Z</time>
      </trkpt>
      <trkpt lat="32.8603" lon="35.521620000000006">
        <ele>-189</ele>
        <time>2026-07-13T09:51:13Z</time>
      </trkpt>
      <trkpt lat="32.860510000000005" lon="35.52161">
        <ele>-189</ele>
        <time>2026-07-13T09:51:14Z</time>
      </trkpt>
      <trkpt lat="32.86063" lon="35.52159">
        <ele>-189</ele>
        <time>2026-07-13T09:51:15Z</time>
      </trkpt>
      <trkpt lat="32.86074" lon="35.521530000000006">
        <ele>-189</ele>
        <time>2026-07-13T09:51:16Z</time>
      </trkpt>
      <trkpt lat="32.860780000000005" lon="35.52147">
        <ele>-189</ele>
        <time>2026-07-13T09:51:17Z</time>
      </trkpt>
      <trkpt lat="32.86084" lon="35.521260000000005">
        <ele>-189</ele>
        <time>2026-07-13T09:51:18Z</time>
      </trkpt>
      <trkpt lat="32.860890000000005" lon="35.520990000000005">
        <ele>-188</ele>
        <time>2026-07-13T09:51:19Z</time>
      </trkpt>
      <trkpt lat="32.860890000000005" lon="35.520790000000005">
        <ele>-188</ele>
        <time>2026-07-13T09:51:20Z</time>
      </trkpt>
      <trkpt lat="32.860890000000005" lon="35.520790000000005">
        <ele>-188</ele>
        <time>2026-07-13T09:51:21Z</time>
      </trkpt>
      <trkpt lat="32.860870000000006" lon="35.52049">
        <ele>-188</ele>
        <time>2026-07-13T09:51:22Z</time>
      </trkpt>
      <trkpt lat="32.86101" lon="35.519690000000004">
        <ele>-186</ele>
        <time>2026-07-13T09:51:23Z</time>
      </trkpt>
      <trkpt lat="32.86108" lon="35.51948">
        <ele>-184</ele>
        <time>2026-07-13T09:51:24Z</time>
      </trkpt>
      <trkpt lat="32.861200000000004" lon="35.51926">
        <ele>-184</ele>
        <time>2026-07-13T09:51:25Z</time>
      </trkpt>
      <trkpt lat="32.861270000000005" lon="35.51916">
        <ele>-184</ele>
        <time>2026-07-13T09:51:26Z</time>
      </trkpt>
      <trkpt lat="32.86144" lon="35.518980000000006">
        <ele>-184</ele>
        <time>2026-07-13T09:51:27Z</time>
      </trkpt>
      <trkpt lat="32.861520000000006" lon="35.518860000000004">
        <ele>-184</ele>
        <time>2026-07-13T09:51:28Z</time>
      </trkpt>
      <trkpt lat="32.861560000000004" lon="35.5187">
        <ele>-182</ele>
        <time>2026-07-13T09:51:29Z</time>
      </trkpt>
      <trkpt lat="32.861630000000005" lon="35.517990000000005">
        <ele>-182</ele>
        <time>2026-07-13T09:51:30Z</time>
      </trkpt>
      <trkpt lat="32.86187" lon="35.51709">
        <ele>-183</ele>
        <time>2026-07-13T09:51:31Z</time>
      </trkpt>
      <trkpt lat="32.862" lon="35.516490000000005">
        <ele>-181</ele>
        <time>2026-07-13T09:51:32Z</time>
      </trkpt>
      <trkpt lat="32.862030000000004" lon="35.516360000000006">
        <ele>-181</ele>
        <time>2026-07-13T09:51:33Z</time>
      </trkpt>
      <trkpt lat="32.86233" lon="35.515710000000006">
        <ele>-180</ele>
        <time>2026-07-13T09:51:34Z</time>
      </trkpt>
      <trkpt lat="32.862370000000006" lon="35.515570000000004">
        <ele>-180</ele>
        <time>2026-07-13T09:51:35Z</time>
      </trkpt>
      <trkpt lat="32.86243" lon="35.515280000000004">
        <ele>-179</ele>
        <time>2026-07-13T09:51:36Z</time>
      </trkpt>
      <trkpt lat="32.86256" lon="35.51483">
        <ele>-179</ele>
        <time>2026-07-13T09:51:37Z</time>
      </trkpt>
      <trkpt lat="32.86258" lon="35.514590000000005">
        <ele>-179</ele>
        <time>2026-07-13T09:51:38Z</time>
      </trkpt>
      <trkpt lat="32.86253" lon="35.514250000000004">
        <ele>-177</ele>
        <time>2026-07-13T09:51:39Z</time>
      </trkpt>
      <trkpt lat="32.86247" lon="35.514050000000005">
        <ele>-177</ele>
        <time>2026-07-13T09:51:40Z</time>
      </trkpt>
      <trkpt lat="32.862300000000005" lon="35.513720000000006">
        <ele>-175</ele>
        <time>2026-07-13T09:51:41Z</time>
      </trkpt>
      <extensions>
        <RoutingType xmlns="">Hike</RoutingType>
      </extensions>
    </trkseg>
    <trkseg>
      <trkpt lat="32.862300000000005" lon="35.513720000000006">
        <ele>-175</ele>
        <time>2026-07-13T09:51:41Z</time>
      </trkpt>
      <trkpt lat="32.86206" lon="35.51366">
        <ele>-175</ele>
        <time>2026-07-13T09:51:42Z</time>
      </trkpt>
      <trkpt lat="32.86195" lon="35.51355">
        <ele>-175</ele>
        <time>2026-07-13T09:51:43Z</time>
      </trkpt>
      <trkpt lat="32.861850000000004" lon="35.51341">
        <ele>-175</ele>
        <time>2026-07-13T09:51:44Z</time>
      </trkpt>
      <trkpt lat="32.86144" lon="35.5133">
        <ele>-173</ele>
        <time>2026-07-13T09:51:45Z</time>
      </trkpt>
      <trkpt lat="32.86112" lon="35.513070000000006">
        <ele>-173</ele>
        <time>2026-07-13T09:51:46Z</time>
      </trkpt>
      <trkpt lat="32.86094" lon="35.51296">
        <ele>-176</ele>
        <time>2026-07-13T09:51:47Z</time>
      </trkpt>
      <trkpt lat="32.860760000000006" lon="35.5129">
        <ele>-176</ele>
        <time>2026-07-13T09:51:48Z</time>
      </trkpt>
      <trkpt lat="32.860580000000006" lon="35.512840000000004">
        <ele>-163</ele>
        <time>2026-07-13T09:51:49Z</time>
      </trkpt>
      <trkpt lat="32.860290000000006" lon="35.51281">
        <ele>-163</ele>
        <time>2026-07-13T09:51:50Z</time>
      </trkpt>
      <trkpt lat="32.86008" lon="35.512820000000005">
        <ele>-166.5</ele>
        <time>2026-07-13T09:51:51Z</time>
      </trkpt>
      <trkpt lat="32.86008" lon="35.512820000000005">
        <ele>-166.5</ele>
        <time>2026-07-13T09:51:52Z</time>
      </trkpt>
      <trkpt lat="32.85982" lon="35.51285">
        <ele>-170</ele>
        <time>2026-07-13T09:51:53Z</time>
      </trkpt>
      <trkpt lat="32.85965" lon="35.51296">
        <ele>-178</ele>
        <time>2026-07-13T09:51:54Z</time>
      </trkpt>
      <trkpt lat="32.859460000000006" lon="35.513020000000004">
        <ele>-178</ele>
        <time>2026-07-13T09:51:55Z</time>
      </trkpt>
      <trkpt lat="32.859260000000006" lon="35.513000000000005">
        <ele>-183</ele>
        <time>2026-07-13T09:51:56Z</time>
      </trkpt>
      <trkpt lat="32.859080000000006" lon="35.51294">
        <ele>-183</ele>
        <time>2026-07-13T09:51:57Z</time>
      </trkpt>
      <trkpt lat="32.858900000000006" lon="35.51285">
        <ele>-176</ele>
        <time>2026-07-13T09:51:58Z</time>
      </trkpt>
      <trkpt lat="32.85813" lon="35.51238">
        <ele>-183</ele>
        <time>2026-07-13T09:51:59Z</time>
      </trkpt>
      <trkpt lat="32.85795" lon="35.5123">
        <ele>-183</ele>
        <time>2026-07-13T09:52:00Z</time>
      </trkpt>
      <trkpt lat="32.857670000000006" lon="35.512260000000005">
        <ele>-183</ele>
        <time>2026-07-13T09:52:01Z</time>
      </trkpt>
      <trkpt lat="32.857110000000006" lon="35.512130000000006">
        <ele>-185</ele>
        <time>2026-07-13T09:52:02Z</time>
      </trkpt>
      <trkpt lat="32.85665" lon="35.511970000000005">
        <ele>-181</ele>
        <time>2026-07-13T09:52:03Z</time>
      </trkpt>
      <trkpt lat="32.856260000000006" lon="35.51189">
        <ele>-181</ele>
        <time>2026-07-13T09:52:04Z</time>
      </trkpt>
      <trkpt lat="32.85597" lon="35.5118">
        <ele>-181</ele>
        <time>2026-07-13T09:52:05Z</time>
      </trkpt>
      <trkpt lat="32.85549" lon="35.511720000000004">
        <ele>-185</ele>
        <time>2026-07-13T09:52:06Z</time>
      </trkpt>
      <trkpt lat="32.8554" lon="35.51174">
        <ele>-185</ele>
        <time>2026-07-13T09:52:07Z</time>
      </trkpt>
      <trkpt lat="32.85506" lon="35.51193">
        <ele>-188</ele>
        <time>2026-07-13T09:52:08Z</time>
      </trkpt>
      <trkpt lat="32.85492" lon="35.51194">
        <ele>-188</ele>
        <time>2026-07-13T09:52:09Z</time>
      </trkpt>
      <trkpt lat="32.854690000000005" lon="35.51158">
        <ele>-188</ele>
        <time>2026-07-13T09:52:10Z</time>
      </trkpt>
      <trkpt lat="32.85448" lon="35.5114">
        <ele>-186.5</ele>
        <time>2026-07-13T09:52:11Z</time>
      </trkpt>
      <trkpt lat="32.85448" lon="35.5114">
        <ele>-186.5</ele>
        <time>2026-07-13T09:52:12Z</time>
      </trkpt>
      <trkpt lat="32.85421" lon="35.51117">
        <ele>-185</ele>
        <time>2026-07-13T09:52:13Z</time>
      </trkpt>
      <trkpt lat="32.853680000000004" lon="35.510810000000006">
        <ele>-185</ele>
        <time>2026-07-13T09:52:14Z</time>
      </trkpt>
      <trkpt lat="32.85314" lon="35.51052">
        <ele>-190</ele>
        <time>2026-07-13T09:52:15Z</time>
      </trkpt>
      <trkpt lat="32.852700000000006" lon="35.51026">
        <ele>-180</ele>
        <time>2026-07-13T09:52:16Z</time>
      </trkpt>
      <trkpt lat="32.85186" lon="35.50994">
        <ele>-187</ele>
        <time>2026-07-13T09:52:17Z</time>
      </trkpt>
      <trkpt lat="32.85159" lon="35.509800000000006">
        <ele>-189</ele>
        <time>2026-07-13T09:52:18Z</time>
      </trkpt>
      <trkpt lat="32.85141" lon="35.50968">
        <ele>-189</ele>
        <time>2026-07-13T09:52:19Z</time>
      </trkpt>
      <trkpt lat="32.851240000000004" lon="35.509600000000006">
        <ele>-189</ele>
        <time>2026-07-13T09:52:20Z</time>
      </trkpt>
      <trkpt lat="32.85094" lon="35.50954">
        <ele>-188</ele>
        <time>2026-07-13T09:52:21Z</time>
      </trkpt>
      <trkpt lat="32.850570000000005" lon="35.509530000000005">
        <ele>-188</ele>
        <time>2026-07-13T09:52:22Z</time>
      </trkpt>
      <trkpt lat="32.850480000000005" lon="35.50954">
        <ele>-188</ele>
        <time>2026-07-13T09:52:23Z</time>
      </trkpt>
      <trkpt lat="32.850280000000005" lon="35.509510000000006">
        <ele>-188</ele>
        <time>2026-07-13T09:52:24Z</time>
      </trkpt>
      <trkpt lat="32.849920000000004" lon="35.50939">
        <ele>-189</ele>
        <time>2026-07-13T09:52:25Z</time>
      </trkpt>
      <trkpt lat="32.84924" lon="35.5094">
        <ele>-188</ele>
        <time>2026-07-13T09:52:26Z</time>
      </trkpt>
      <trkpt lat="32.848760000000006" lon="35.50934">
        <ele>-188</ele>
        <time>2026-07-13T09:52:27Z</time>
      </trkpt>
      <trkpt lat="32.84868" lon="35.50934">
        <ele>-188</ele>
        <time>2026-07-13T09:52:28Z</time>
      </trkpt>
      <trkpt lat="32.848560000000006" lon="35.50938">
        <ele>-188</ele>
        <time>2026-07-13T09:52:29Z</time>
      </trkpt>
      <trkpt lat="32.84845" lon="35.50945">
        <ele>-188</ele>
        <time>2026-07-13T09:52:30Z</time>
      </trkpt>
      <trkpt lat="32.84837" lon="35.50947">
        <ele>-188</ele>
        <time>2026-07-13T09:52:31Z</time>
      </trkpt>
      <trkpt lat="32.84816" lon="35.509460000000004">
        <ele>-188</ele>
        <time>2026-07-13T09:52:32Z</time>
      </trkpt>
      <trkpt lat="32.84816" lon="35.509460000000004">
        <ele>-188</ele>
        <time>2026-07-13T09:52:33Z</time>
      </trkpt>
      <trkpt lat="32.84837" lon="35.50947">
        <ele>-188</ele>
        <time>2026-07-13T09:52:34Z</time>
      </trkpt>
      <trkpt lat="32.84845" lon="35.50945">
        <ele>-188</ele>
        <time>2026-07-13T09:52:35Z</time>
      </trkpt>
      <trkpt lat="32.848560000000006" lon="35.50938">
        <ele>-188</ele>
        <time>2026-07-13T09:52:36Z</time>
      </trkpt>
      <trkpt lat="32.84868" lon="35.50934">
        <ele>-188</ele>
        <time>2026-07-13T09:52:37Z</time>
      </trkpt>
      <trkpt lat="32.848760000000006" lon="35.50934">
        <ele>-188</ele>
        <time>2026-07-13T09:52:38Z</time>
      </trkpt>
      <trkpt lat="32.84924" lon="35.5094">
        <ele>-188</ele>
        <time>2026-07-13T09:52:39Z</time>
      </trkpt>
      <trkpt lat="32.849920000000004" lon="35.50939">
        <ele>-189</ele>
        <time>2026-07-13T09:52:40Z</time>
      </trkpt>
      <trkpt lat="32.850280000000005" lon="35.509510000000006">
        <ele>-188</ele>
        <time>2026-07-13T09:52:41Z</time>
      </trkpt>
      <trkpt lat="32.850030000000004" lon="35.50876">
        <ele>-189</ele>
        <time>2026-07-13T09:52:42Z</time>
      </trkpt>
      <extensions>
        <RoutingType xmlns="">Hike</RoutingType>
      </extensions>
    </trkseg>
    <trkseg>
      <trkpt lat="32.850030000000004" lon="35.50876">
        <ele>-189</ele>
        <time>2026-07-13T09:52:42Z</time>
      </trkpt>
      <trkpt lat="32.8496" lon="35.50844">
        <ele>-186</ele>
        <time>2026-07-13T09:52:43Z</time>
      </trkpt>
      <trkpt lat="32.8494" lon="35.50856">
        <ele>-186</ele>
        <time>2026-07-13T09:52:44Z</time>
      </trkpt>
      <trkpt lat="32.84908" lon="35.508610000000004">
        <ele>-185</ele>
        <time>2026-07-13T09:52:45Z</time>
      </trkpt>
      <trkpt lat="32.84873" lon="35.50862">
        <ele>-185</ele>
        <time>2026-07-13T09:52:46Z</time>
      </trkpt>
      <trkpt lat="32.84846" lon="35.50887">
        <ele>-188</ele>
        <time>2026-07-13T09:52:47Z</time>
      </trkpt>
      <trkpt lat="32.84807" lon="35.509060000000005">
        <ele>-188</ele>
        <time>2026-07-13T09:52:48Z</time>
      </trkpt>
      <trkpt lat="32.847680000000004" lon="35.50939">
        <ele>-188</ele>
        <time>2026-07-13T09:52:49Z</time>
      </trkpt>
      <trkpt lat="32.847500000000004" lon="35.509460000000004">
        <ele>-191</ele>
        <time>2026-07-13T09:52:50Z</time>
      </trkpt>
      <trkpt lat="32.84714" lon="35.50925">
        <ele>-191</ele>
        <time>2026-07-13T09:52:51Z</time>
      </trkpt>
      <trkpt lat="32.846180000000004" lon="35.5101">
        <ele>-192</ele>
        <time>2026-07-13T09:52:52Z</time>
      </trkpt>
      <trkpt lat="32.845800000000004" lon="35.510270000000006">
        <ele>-188</ele>
        <time>2026-07-13T09:52:53Z</time>
      </trkpt>
      <trkpt lat="32.84552" lon="35.51042">
        <ele>-194</ele>
        <time>2026-07-13T09:52:54Z</time>
      </trkpt>
      <trkpt lat="32.84543" lon="35.51046">
        <ele>-194</ele>
        <time>2026-07-13T09:52:55Z</time>
      </trkpt>
      <trkpt lat="32.845130000000005" lon="35.510470000000005">
        <ele>-194</ele>
        <time>2026-07-13T09:52:56Z</time>
      </trkpt>
      <trkpt lat="32.844840000000005" lon="35.510540000000006">
        <ele>-195</ele>
        <time>2026-07-13T09:52:57Z</time>
      </trkpt>
      <trkpt lat="32.84445" lon="35.510580000000004">
        <ele>-195</ele>
        <time>2026-07-13T09:52:58Z</time>
      </trkpt>
      <trkpt lat="32.84407" lon="35.510560000000005">
        <ele>-195</ele>
        <time>2026-07-13T09:52:59Z</time>
      </trkpt>
      <trkpt lat="32.84387" lon="35.510580000000004">
        <ele>-195</ele>
        <time>2026-07-13T09:53:00Z</time>
      </trkpt>
      <trkpt lat="32.8433" lon="35.510580000000004">
        <ele>-195</ele>
        <time>2026-07-13T09:53:01Z</time>
      </trkpt>
      <trkpt lat="32.842000000000006" lon="35.510490000000004">
        <ele>-198</ele>
        <time>2026-07-13T09:53:02Z</time>
      </trkpt>
      <trkpt lat="32.841820000000006" lon="35.51055">
        <ele>-198</ele>
        <time>2026-07-13T09:53:03Z</time>
      </trkpt>
      <trkpt lat="32.84189" lon="35.51057">
        <ele>-198</ele>
        <time>2026-07-13T09:53:04Z</time>
      </trkpt>
      <trkpt lat="32.84188" lon="35.51062">
        <ele>-198</ele>
        <time>2026-07-13T09:53:05Z</time>
      </trkpt>
      <trkpt lat="32.84176" lon="35.510780000000004">
        <ele>-201</ele>
        <time>2026-07-13T09:53:06Z</time>
      </trkpt>
      <trkpt lat="32.841710000000006" lon="35.510810000000006">
        <ele>-201</ele>
        <time>2026-07-13T09:53:07Z</time>
      </trkpt>
      <trkpt lat="32.84165" lon="35.510810000000006">
        <ele>-201</ele>
        <time>2026-07-13T09:53:08Z</time>
      </trkpt>
      <trkpt lat="32.841440000000006" lon="35.51066">
        <ele>-201</ele>
        <time>2026-07-13T09:53:09Z</time>
      </trkpt>
      <trkpt lat="32.841440000000006" lon="35.51066">
        <ele>-201</ele>
        <time>2026-07-13T09:53:10Z</time>
      </trkpt>
      <trkpt lat="32.84165" lon="35.510810000000006">
        <ele>-201</ele>
        <time>2026-07-13T09:53:11Z</time>
      </trkpt>
      <trkpt lat="32.841710000000006" lon="35.510810000000006">
        <ele>-201</ele>
        <time>2026-07-13T09:53:12Z</time>
      </trkpt>
      <trkpt lat="32.84176" lon="35.510780000000004">
        <ele>-201</ele>
        <time>2026-07-13T09:53:13Z</time>
      </trkpt>
      <trkpt lat="32.84188" lon="35.51062">
        <ele>-198</ele>
        <time>2026-07-13T09:53:14Z</time>
      </trkpt>
      <trkpt lat="32.84189" lon="35.51057">
        <ele>-198</ele>
        <time>2026-07-13T09:53:15Z</time>
      </trkpt>
      <trkpt lat="32.841210000000004" lon="35.510450000000006">
        <ele>-201</ele>
        <time>2026-07-13T09:53:16Z</time>
      </trkpt>
      <trkpt lat="32.840920000000004" lon="35.51044">
        <ele>-200</ele>
        <time>2026-07-13T09:53:17Z</time>
      </trkpt>
      <trkpt lat="32.84013" lon="35.51037">
        <ele>-192</ele>
        <time>2026-07-13T09:53:18Z</time>
      </trkpt>
      <trkpt lat="32.83963" lon="35.51037">
        <ele>-191</ele>
        <time>2026-07-13T09:53:19Z</time>
      </trkpt>
      <trkpt lat="32.83892" lon="35.51046">
        <ele>-202</ele>
        <time>2026-07-13T09:53:20Z</time>
      </trkpt>
      <trkpt lat="32.838710000000006" lon="35.51042">
        <ele>-202</ele>
        <time>2026-07-13T09:53:21Z</time>
      </trkpt>
      <trkpt lat="32.8385" lon="35.51041">
        <ele>-202</ele>
        <time>2026-07-13T09:53:22Z</time>
      </trkpt>
      <trkpt lat="32.83825" lon="35.51042">
        <ele>-200</ele>
        <time>2026-07-13T09:53:23Z</time>
      </trkpt>
      <trkpt lat="32.83802" lon="35.510360000000006">
        <ele>-188</ele>
        <time>2026-07-13T09:53:24Z</time>
      </trkpt>
      <trkpt lat="32.83787" lon="35.51028">
        <ele>-188</ele>
        <time>2026-07-13T09:53:25Z</time>
      </trkpt>
      <trkpt lat="32.83708" lon="35.509640000000005">
        <ele>-192</ele>
        <time>2026-07-13T09:53:26Z</time>
      </trkpt>
      <trkpt lat="32.837" lon="35.509600000000006">
        <ele>-192</ele>
        <time>2026-07-13T09:53:27Z</time>
      </trkpt>
      <trkpt lat="32.836670000000005" lon="35.50949">
        <ele>-193</ele>
        <time>2026-07-13T09:53:28Z</time>
      </trkpt>
      <trkpt lat="32.83668" lon="35.509550000000004">
        <ele>-193</ele>
        <time>2026-07-13T09:53:29Z</time>
      </trkpt>
      <trkpt lat="32.83663" lon="35.509660000000004">
        <ele>-199</ele>
        <time>2026-07-13T09:53:30Z</time>
      </trkpt>
      <trkpt lat="32.83662" lon="35.50979">
        <ele>-199</ele>
        <time>2026-07-13T09:53:31Z</time>
      </trkpt>
      <trkpt lat="32.836650000000006" lon="35.509890000000006">
        <ele>-199</ele>
        <time>2026-07-13T09:53:32Z</time>
      </trkpt>
      <trkpt lat="32.836710000000004" lon="35.509930000000004">
        <ele>-195.5</ele>
        <time>2026-07-13T09:53:33Z</time>
      </trkpt>
      <trkpt lat="32.83673" lon="35.50992">
        <ele>-198.0964132225846</ele>
        <time>2026-07-13T09:53:34Z</time>
      </trkpt>
      <trkpt lat="32.836670000000005" lon="35.50983">
        <ele>-199</ele>
        <time>2026-07-13T09:53:35Z</time>
      </trkpt>
      <trkpt lat="32.83663" lon="35.509710000000005">
        <ele>-199</ele>
        <time>2026-07-13T09:53:36Z</time>
      </trkpt>
      <trkpt lat="32.836560000000006" lon="35.509660000000004">
        <ele>-199</ele>
        <time>2026-07-13T09:53:37Z</time>
      </trkpt>
      <trkpt lat="32.83646" lon="35.509660000000004">
        <ele>-199</ele>
        <time>2026-07-13T09:53:38Z</time>
      </trkpt>
      <trkpt lat="32.836360000000006" lon="35.50967">
        <ele>-199</ele>
        <time>2026-07-13T09:53:39Z</time>
      </trkpt>
      <trkpt lat="32.836360000000006" lon="35.50967">
        <ele>-199.42232115150358</ele>
        <time>2026-07-13T09:53:40Z</time>
      </trkpt>
      <trkpt lat="32.8359" lon="35.50988">
        <ele>-199</ele>
        <time>2026-07-13T09:53:41Z</time>
      </trkpt>
      <trkpt lat="32.83494" lon="35.510130000000004">
        <ele>-199</ele>
        <time>2026-07-13T09:53:42Z</time>
      </trkpt>
      <trkpt lat="32.834140000000005" lon="35.510290000000005">
        <ele>-202</ele>
        <time>2026-07-13T09:53:43Z</time>
      </trkpt>
      <extensions>
        <RoutingType xmlns="">Hike</RoutingType>
      </extensions>
    </trkseg>
    <trkseg>
      <trkpt lat="32.834140000000005" lon="35.510290000000005">
        <ele>-202</ele>
        <time>2026-07-13T09:53:43Z</time>
      </trkpt>
      <trkpt lat="32.833890000000004" lon="35.5103">
        <ele>-202</ele>
        <time>2026-07-13T09:53:44Z</time>
      </trkpt>
      <trkpt lat="32.83395" lon="35.50981">
        <ele>-201</ele>
        <time>2026-07-13T09:53:45Z</time>
      </trkpt>
      <trkpt lat="32.83395" lon="35.50981">
        <ele>-201</ele>
        <time>2026-07-13T09:53:46Z</time>
      </trkpt>
      <trkpt lat="32.83395" lon="35.50981">
        <ele>-201</ele>
        <time>2026-07-13T09:53:47Z</time>
      </trkpt>
      <trkpt lat="32.834050000000005" lon="35.509040000000006">
        <ele>-200</ele>
        <time>2026-07-13T09:53:48Z</time>
      </trkpt>
      <trkpt lat="32.83406" lon="35.508570000000006">
        <ele>-197</ele>
        <time>2026-07-13T09:53:49Z</time>
      </trkpt>
      <trkpt lat="32.83429" lon="35.50643">
        <ele>-196</ele>
        <time>2026-07-13T09:53:50Z</time>
      </trkpt>
      <trkpt lat="32.834300000000006" lon="35.50609">
        <ele>-195</ele>
        <time>2026-07-13T09:53:51Z</time>
      </trkpt>
      <trkpt lat="32.834300000000006" lon="35.50609">
        <ele>-195.19791530042102</ele>
        <time>2026-07-13T09:53:52Z</time>
      </trkpt>
      <trkpt lat="32.834360000000004" lon="35.505500000000005">
        <ele>-195</ele>
        <time>2026-07-13T09:53:53Z</time>
      </trkpt>
      <trkpt lat="32.834340000000005" lon="35.50547">
        <ele>-195</ele>
        <time>2026-07-13T09:53:54Z</time>
      </trkpt>
      <trkpt lat="32.83424" lon="35.50544">
        <ele>-195</ele>
        <time>2026-07-13T09:53:55Z</time>
      </trkpt>
      <trkpt lat="32.833740000000006" lon="35.50545">
        <ele>-195</ele>
        <time>2026-07-13T09:53:56Z</time>
      </trkpt>
      <trkpt lat="32.83256" lon="35.505570000000006">
        <ele>-191</ele>
        <time>2026-07-13T09:53:57Z</time>
      </trkpt>
      <trkpt lat="32.83256" lon="35.505570000000006">
        <ele>-191.42568382676535</ele>
        <time>2026-07-13T09:53:58Z</time>
      </trkpt>
      <trkpt lat="32.83221" lon="35.50471">
        <ele>-191</ele>
        <time>2026-07-13T09:53:59Z</time>
      </trkpt>
      <trkpt lat="32.831920000000004" lon="35.50412">
        <ele>-188</ele>
        <time>2026-07-13T09:54:00Z</time>
      </trkpt>
      <trkpt lat="32.831810000000004" lon="35.503550000000004">
        <ele>-186</ele>
        <time>2026-07-13T09:54:01Z</time>
      </trkpt>
      <trkpt lat="32.83169" lon="35.50334">
        <ele>-185</ele>
        <time>2026-07-13T09:54:02Z</time>
      </trkpt>
      <trkpt lat="32.831520000000005" lon="35.50292">
        <ele>-185</ele>
        <time>2026-07-13T09:54:03Z</time>
      </trkpt>
      <trkpt lat="32.831520000000005" lon="35.50292">
        <ele>-184.87739785314616</ele>
        <time>2026-07-13T09:54:04Z</time>
      </trkpt>
      <trkpt lat="32.83133" lon="35.50235">
        <ele>-183</ele>
        <time>2026-07-13T09:54:05Z</time>
      </trkpt>
      <trkpt lat="32.83133" lon="35.50235">
        <ele>-183</ele>
        <time>2026-07-13T09:54:06Z</time>
      </trkpt>
      <trkpt lat="32.831230000000005" lon="35.502050000000004">
        <ele>-181</ele>
        <time>2026-07-13T09:54:07Z</time>
      </trkpt>
      <trkpt lat="32.83117" lon="35.501960000000004">
        <ele>-181</ele>
        <time>2026-07-13T09:54:08Z</time>
      </trkpt>
      <trkpt lat="32.83097" lon="35.50189">
        <ele>-181</ele>
        <time>2026-07-13T09:54:09Z</time>
      </trkpt>
      <trkpt lat="32.83097" lon="35.50189">
        <ele>-181.24946844449732</ele>
        <time>2026-07-13T09:54:10Z</time>
      </trkpt>
      <trkpt lat="32.830870000000004" lon="35.50184">
        <ele>-179</ele>
        <time>2026-07-13T09:54:11Z</time>
      </trkpt>
      <trkpt lat="32.83068" lon="35.501650000000005">
        <ele>-179</ele>
        <time>2026-07-13T09:54:12Z</time>
      </trkpt>
      <trkpt lat="32.830600000000004" lon="35.50142">
        <ele>-179</ele>
        <time>2026-07-13T09:54:13Z</time>
      </trkpt>
      <trkpt lat="32.830420000000004" lon="35.50068">
        <ele>-176</ele>
        <time>2026-07-13T09:54:14Z</time>
      </trkpt>
      <trkpt lat="32.83025" lon="35.5003">
        <ele>-168</ele>
        <time>2026-07-13T09:54:15Z</time>
      </trkpt>
      <trkpt lat="32.83025" lon="35.5003">
        <ele>-176.59726996669468</ele>
        <time>2026-07-13T09:54:16Z</time>
      </trkpt>
      <trkpt lat="32.83001" lon="35.50009">
        <ele>-171</ele>
        <time>2026-07-13T09:54:17Z</time>
      </trkpt>
      <trkpt lat="32.82976" lon="35.499790000000004">
        <ele>-171</ele>
        <time>2026-07-13T09:54:18Z</time>
      </trkpt>
      <trkpt lat="32.82947" lon="35.499080000000006">
        <ele>-172</ele>
        <time>2026-07-13T09:54:19Z</time>
      </trkpt>
      <trkpt lat="32.829240000000006" lon="35.49817">
        <ele>-156</ele>
        <time>2026-07-13T09:54:20Z</time>
      </trkpt>
      <trkpt lat="32.82911" lon="35.49736">
        <ele>-162</ele>
        <time>2026-07-13T09:54:21Z</time>
      </trkpt>
      <trkpt lat="32.82911" lon="35.49736">
        <ele>-163.11811011373754</ele>
        <time>2026-07-13T09:54:22Z</time>
      </trkpt>
      <trkpt lat="32.828500000000005" lon="35.49564">
        <ele>-150</ele>
        <time>2026-07-13T09:54:23Z</time>
      </trkpt>
      <trkpt lat="32.82826" lon="35.495110000000004">
        <ele>-153</ele>
        <time>2026-07-13T09:54:24Z</time>
      </trkpt>
      <trkpt lat="32.827960000000004" lon="35.494550000000004">
        <ele>-150</ele>
        <time>2026-07-13T09:54:25Z</time>
      </trkpt>
      <trkpt lat="32.8278" lon="35.494150000000005">
        <ele>-150</ele>
        <time>2026-07-13T09:54:26Z</time>
      </trkpt>
      <trkpt lat="32.827760000000005" lon="35.49401">
        <ele>-150</ele>
        <time>2026-07-13T09:54:27Z</time>
      </trkpt>
      <trkpt lat="32.827760000000005" lon="35.49401">
        <ele>-148.4169275345048</ele>
        <time>2026-07-13T09:54:28Z</time>
      </trkpt>
      <trkpt lat="32.82777" lon="35.49362">
        <ele>-146</ele>
        <time>2026-07-13T09:54:29Z</time>
      </trkpt>
      <trkpt lat="32.82779" lon="35.493320000000004">
        <ele>-146</ele>
        <time>2026-07-13T09:54:30Z</time>
      </trkpt>
      <trkpt lat="32.827740000000006" lon="35.49268">
        <ele>-145</ele>
        <time>2026-07-13T09:54:31Z</time>
      </trkpt>
      <trkpt lat="32.827740000000006" lon="35.49268">
        <ele>-145</ele>
        <time>2026-07-13T09:54:32Z</time>
      </trkpt>
      <trkpt lat="32.827650000000006" lon="35.49222">
        <ele>-145</ele>
        <time>2026-07-13T09:54:33Z</time>
      </trkpt>
      <trkpt lat="32.827650000000006" lon="35.49222">
        <ele>-150.00238482365677</ele>
        <time>2026-07-13T09:54:34Z</time>
      </trkpt>
      <trkpt lat="32.827290000000005" lon="35.4915">
        <ele>-146</ele>
        <time>2026-07-13T09:54:35Z</time>
      </trkpt>
      <trkpt lat="32.826950000000004" lon="35.491130000000005">
        <ele>-144</ele>
        <time>2026-07-13T09:54:36Z</time>
      </trkpt>
      <trkpt lat="32.826570000000004" lon="35.490480000000005">
        <ele>-142</ele>
        <time>2026-07-13T09:54:37Z</time>
      </trkpt>
      <trkpt lat="32.82589" lon="35.489990000000006">
        <ele>-139</ele>
        <time>2026-07-13T09:54:38Z</time>
      </trkpt>
      <trkpt lat="32.8258" lon="35.48982">
        <ele>-139</ele>
        <time>2026-07-13T09:54:39Z</time>
      </trkpt>
      <trkpt lat="32.8258" lon="35.48982">
        <ele>-142.00873184608773</ele>
        <time>2026-07-13T09:54:40Z</time>
      </trkpt>
      <trkpt lat="32.82535" lon="35.49002">
        <ele>-139</ele>
        <time>2026-07-13T09:54:41Z</time>
      </trkpt>
      <trkpt lat="32.82481" lon="35.490100000000005">
        <ele>-136</ele>
        <time>2026-07-13T09:54:42Z</time>
      </trkpt>
      <trkpt lat="32.82481" lon="35.490100000000005">
        <ele>-136</ele>
        <time>2026-07-13T09:54:43Z</time>
      </trkpt>
      <trkpt lat="32.82535" lon="35.49002">
        <ele>-139</ele>
        <time>2026-07-13T09:54:44Z</time>
      </trkpt>
      <extensions>
        <RoutingType xmlns="">Hike</RoutingType>
      </extensions>
    </trkseg>
    <trkseg>
      <trkpt lat="32.82535" lon="35.49002">
        <ele>-139</ele>
        <time>2026-07-13T09:54:44Z</time>
      </trkpt>
      <trkpt lat="32.8258" lon="35.48982">
        <ele>-139</ele>
        <time>2026-07-13T09:54:45Z</time>
      </trkpt>
      <trkpt lat="32.8258" lon="35.48982">
        <ele>-142.00873184608773</ele>
        <time>2026-07-13T09:54:46Z</time>
      </trkpt>
      <trkpt lat="32.825700000000005" lon="35.490460000000006">
        <ele>-129</ele>
        <time>2026-07-13T09:54:47Z</time>
      </trkpt>
      <trkpt lat="32.825540000000004" lon="35.49067">
        <ele>-129</ele>
        <time>2026-07-13T09:54:48Z</time>
      </trkpt>
      <trkpt lat="32.82558" lon="35.49092">
        <ele>-129</ele>
        <time>2026-07-13T09:54:49Z</time>
      </trkpt>
      <trkpt lat="32.82571" lon="35.49136">
        <ele>-110</ele>
        <time>2026-07-13T09:54:50Z</time>
      </trkpt>
      <trkpt lat="32.825520000000004" lon="35.492000000000004">
        <ele>-110</ele>
        <time>2026-07-13T09:54:51Z</time>
      </trkpt>
      <trkpt lat="32.825520000000004" lon="35.492000000000004">
        <ele>-94.17085412923379</ele>
        <time>2026-07-13T09:54:52Z</time>
      </trkpt>
      <trkpt lat="32.825390000000006" lon="35.49184">
        <ele>-110</ele>
        <time>2026-07-13T09:54:53Z</time>
      </trkpt>
      <trkpt lat="32.8252" lon="35.49154">
        <ele>-110</ele>
        <time>2026-07-13T09:54:54Z</time>
      </trkpt>
      <trkpt lat="32.82502" lon="35.49143">
        <ele>-89</ele>
        <time>2026-07-13T09:54:55Z</time>
      </trkpt>
      <trkpt lat="32.82421" lon="35.49116">
        <ele>-91</ele>
        <time>2026-07-13T09:54:56Z</time>
      </trkpt>
      <trkpt lat="32.82387" lon="35.49096">
        <ele>-91</ele>
        <time>2026-07-13T09:54:57Z</time>
      </trkpt>
      <trkpt lat="32.82387" lon="35.49096">
        <ele>-66.88878734833736</ele>
        <time>2026-07-13T09:54:58Z</time>
      </trkpt>
      <trkpt lat="32.823750000000004" lon="35.491020000000006">
        <ele>-91</ele>
        <time>2026-07-13T09:54:59Z</time>
      </trkpt>
      <trkpt lat="32.82358" lon="35.49107">
        <ele>-91</ele>
        <time>2026-07-13T09:55:00Z</time>
      </trkpt>
      <trkpt lat="32.82372" lon="35.491330000000005">
        <ele>-73.5</ele>
        <time>2026-07-13T09:55:01Z</time>
      </trkpt>
      <trkpt lat="32.82372" lon="35.491330000000005">
        <ele>-73.5</ele>
        <time>2026-07-13T09:55:02Z</time>
      </trkpt>
      <trkpt lat="32.823910000000005" lon="35.491670000000006">
        <ele>-56</ele>
        <time>2026-07-13T09:55:03Z</time>
      </trkpt>
      <trkpt lat="32.823910000000005" lon="35.491670000000006">
        <ele>-45.55343336856458</ele>
        <time>2026-07-13T09:55:04Z</time>
      </trkpt>
      <trkpt lat="32.823980000000006" lon="35.4919">
        <ele>-56</ele>
        <time>2026-07-13T09:55:05Z</time>
      </trkpt>
      <trkpt lat="32.823980000000006" lon="35.492200000000004">
        <ele>-40</ele>
        <time>2026-07-13T09:55:06Z</time>
      </trkpt>
      <trkpt lat="32.82394" lon="35.49246">
        <ele>-40</ele>
        <time>2026-07-13T09:55:07Z</time>
      </trkpt>
      <trkpt lat="32.82395" lon="35.49268">
        <ele>-40</ele>
        <time>2026-07-13T09:55:08Z</time>
      </trkpt>
      <trkpt lat="32.82394" lon="35.49279">
        <ele>-40</ele>
        <time>2026-07-13T09:55:09Z</time>
      </trkpt>
      <trkpt lat="32.82394" lon="35.49279">
        <ele>-29.857377867004736</ele>
        <time>2026-07-13T09:55:10Z</time>
      </trkpt>
      <trkpt lat="32.82392" lon="35.492900000000006">
        <ele>-40</ele>
        <time>2026-07-13T09:55:11Z</time>
      </trkpt>
      <trkpt lat="32.823730000000005" lon="35.493280000000006">
        <ele>-32</ele>
        <time>2026-07-13T09:55:12Z</time>
      </trkpt>
      <trkpt lat="32.82368" lon="35.493610000000004">
        <ele>-32</ele>
        <time>2026-07-13T09:55:13Z</time>
      </trkpt>
      <trkpt lat="32.82365" lon="35.49381">
        <ele>-23</ele>
        <time>2026-07-13T09:55:14Z</time>
      </trkpt>
      <trkpt lat="32.82363" lon="35.49416">
        <ele>-23</ele>
        <time>2026-07-13T09:55:15Z</time>
      </trkpt>
      <trkpt lat="32.82363" lon="35.49416">
        <ele>-2.3621969361792052</ele>
        <time>2026-07-13T09:55:16Z</time>
      </trkpt>
      <trkpt lat="32.823600000000006" lon="35.49438">
        <ele>-23</ele>
        <time>2026-07-13T09:55:17Z</time>
      </trkpt>
      <trkpt lat="32.823600000000006" lon="35.49447">
        <ele>-23</ele>
        <time>2026-07-13T09:55:18Z</time>
      </trkpt>
      <trkpt lat="32.82369" lon="35.49494">
        <ele>-10</ele>
        <time>2026-07-13T09:55:19Z</time>
      </trkpt>
      <trkpt lat="32.82385" lon="35.49557">
        <ele>8</ele>
        <time>2026-07-13T09:55:20Z</time>
      </trkpt>
      <trkpt lat="32.824110000000005" lon="35.49622">
        <ele>8</ele>
        <time>2026-07-13T09:55:21Z</time>
      </trkpt>
      <trkpt lat="32.824110000000005" lon="35.49622">
        <ele>36.89060510262642</ele>
        <time>2026-07-13T09:55:22Z</time>
      </trkpt>
      <trkpt lat="32.824180000000005" lon="35.49682">
        <ele>68</ele>
        <time>2026-07-13T09:55:23Z</time>
      </trkpt>
      <trkpt lat="32.824160000000006" lon="35.496880000000004">
        <ele>68</ele>
        <time>2026-07-13T09:55:24Z</time>
      </trkpt>
      <trkpt lat="32.82425" lon="35.496950000000005">
        <ele>68</ele>
        <time>2026-07-13T09:55:25Z</time>
      </trkpt>
      <trkpt lat="32.824310000000004" lon="35.497040000000005">
        <ele>-6</ele>
        <time>2026-07-13T09:55:26Z</time>
      </trkpt>
      <trkpt lat="32.82435" lon="35.49716">
        <ele>17</ele>
        <time>2026-07-13T09:55:27Z</time>
      </trkpt>
      <trkpt lat="32.82435" lon="35.49716">
        <ele>109.74297335612358</ele>
        <time>2026-07-13T09:55:28Z</time>
      </trkpt>
      <trkpt lat="32.824470000000005" lon="35.497330000000005">
        <ele>17</ele>
        <time>2026-07-13T09:55:29Z</time>
      </trkpt>
      <trkpt lat="32.824740000000006" lon="35.4977">
        <ele>17</ele>
        <time>2026-07-13T09:55:30Z</time>
      </trkpt>
      <trkpt lat="32.82491" lon="35.49801">
        <ele>70</ele>
        <time>2026-07-13T09:55:31Z</time>
      </trkpt>
      <trkpt lat="32.82491" lon="35.49801">
        <ele>70</ele>
        <time>2026-07-13T09:55:32Z</time>
      </trkpt>
      <trkpt lat="32.82502" lon="35.498310000000004">
        <ele>70</ele>
        <time>2026-07-13T09:55:33Z</time>
      </trkpt>
      <trkpt lat="32.82502" lon="35.498310000000004">
        <ele>64.8388584144416</ele>
        <time>2026-07-13T09:55:34Z</time>
      </trkpt>
      <trkpt lat="32.825250000000004" lon="35.49869">
        <ele>-2</ele>
        <time>2026-07-13T09:55:35Z</time>
      </trkpt>
      <trkpt lat="32.82533" lon="35.49888">
        <ele>15</ele>
        <time>2026-07-13T09:55:36Z</time>
      </trkpt>
      <trkpt lat="32.82536" lon="35.499100000000006">
        <ele>15</ele>
        <time>2026-07-13T09:55:37Z</time>
      </trkpt>
      <trkpt lat="32.82546" lon="35.499570000000006">
        <ele>15</ele>
        <time>2026-07-13T09:55:38Z</time>
      </trkpt>
      <trkpt lat="32.82547" lon="35.49969">
        <ele>34</ele>
        <time>2026-07-13T09:55:39Z</time>
      </trkpt>
      <trkpt lat="32.82547" lon="35.49969">
        <ele>64.96216339524835</ele>
        <time>2026-07-13T09:55:40Z</time>
      </trkpt>
      <trkpt lat="32.82549" lon="35.499790000000004">
        <ele>34</ele>
        <time>2026-07-13T09:55:41Z</time>
      </trkpt>
      <trkpt lat="32.825590000000005" lon="35.50001">
        <ele>34</ele>
        <time>2026-07-13T09:55:42Z</time>
      </trkpt>
      <trkpt lat="32.825610000000005" lon="35.500130000000006">
        <ele>34</ele>
        <time>2026-07-13T09:55:43Z</time>
      </trkpt>
      <trkpt lat="32.8256" lon="35.500370000000004">
        <ele>34</ele>
        <time>2026-07-13T09:55:44Z</time>
      </trkpt>
      <trkpt lat="32.825610000000005" lon="35.50048">
        <ele>34</ele>
        <time>2026-07-13T09:55:45Z</time>
      </trkpt>
      <extensions>
        <RoutingType xmlns="">Hike</RoutingType>
      </extensions>
    </trkseg>
    <trkseg>
      <trkpt lat="32.825610000000005" lon="35.50048">
        <ele>34</ele>
        <time>2026-07-13T09:55:45Z</time>
      </trkpt>
      <trkpt lat="32.825610000000005" lon="35.50048">
        <ele>63.46529505748868</ele>
        <time>2026-07-13T09:55:46Z</time>
      </trkpt>
      <trkpt lat="32.82565" lon="35.50059">
        <ele>34</ele>
        <time>2026-07-13T09:55:47Z</time>
      </trkpt>
      <trkpt lat="32.82567" lon="35.5007">
        <ele>34</ele>
        <time>2026-07-13T09:55:48Z</time>
      </trkpt>
      <trkpt lat="32.825700000000005" lon="35.500800000000005">
        <ele>34</ele>
        <time>2026-07-13T09:55:49Z</time>
      </trkpt>
      <trkpt lat="32.825720000000004" lon="35.50092">
        <ele>34</ele>
        <time>2026-07-13T09:55:50Z</time>
      </trkpt>
      <trkpt lat="32.82566" lon="35.50094">
        <ele>34</ele>
        <time>2026-07-13T09:55:51Z</time>
      </trkpt>
      <trkpt lat="32.82566" lon="35.50094">
        <ele>58.33424775148997</ele>
        <time>2026-07-13T09:55:52Z</time>
      </trkpt>
      <trkpt lat="32.825610000000005" lon="35.50092">
        <ele>34</ele>
        <time>2026-07-13T09:55:53Z</time>
      </trkpt>
      <trkpt lat="32.82556" lon="35.500980000000006">
        <ele>34</ele>
        <time>2026-07-13T09:55:54Z</time>
      </trkpt>
      <trkpt lat="32.825480000000006" lon="35.50101">
        <ele>34</ele>
        <time>2026-07-13T09:55:55Z</time>
      </trkpt>
      <trkpt lat="32.82536" lon="35.50117">
        <ele>34</ele>
        <time>2026-07-13T09:55:56Z</time>
      </trkpt>
      <trkpt lat="32.825210000000006" lon="35.50132">
        <ele>18</ele>
        <time>2026-07-13T09:55:57Z</time>
      </trkpt>
      <trkpt lat="32.825210000000006" lon="35.50132">
        <ele>77.34720308532293</ele>
        <time>2026-07-13T09:55:58Z</time>
      </trkpt>
      <trkpt lat="32.82518" lon="35.50141">
        <ele>18</ele>
        <time>2026-07-13T09:55:59Z</time>
      </trkpt>
      <trkpt lat="32.82493" lon="35.50175">
        <ele>78</ele>
        <time>2026-07-13T09:56:00Z</time>
      </trkpt>
      <trkpt lat="32.8247" lon="35.50195">
        <ele>78</ele>
        <time>2026-07-13T09:56:01Z</time>
      </trkpt>
      <trkpt lat="32.82468" lon="35.502050000000004">
        <ele>78</ele>
        <time>2026-07-13T09:56:02Z</time>
      </trkpt>
      <trkpt lat="32.824650000000005" lon="35.50215">
        <ele>48</ele>
        <time>2026-07-13T09:56:03Z</time>
      </trkpt>
      <trkpt lat="32.824650000000005" lon="35.50215">
        <ele>78.41096689480518</ele>
        <time>2026-07-13T09:56:04Z</time>
      </trkpt>
      <trkpt lat="32.82459" lon="35.502210000000005">
        <ele>48</ele>
        <time>2026-07-13T09:56:05Z</time>
      </trkpt>
      <trkpt lat="32.82446" lon="35.50226">
        <ele>48</ele>
        <time>2026-07-13T09:56:06Z</time>
      </trkpt>
      <trkpt lat="32.82444" lon="35.502230000000004">
        <ele>48</ele>
        <time>2026-07-13T09:56:07Z</time>
      </trkpt>
      <trkpt lat="32.82439" lon="35.50222">
        <ele>48</ele>
        <time>2026-07-13T09:56:08Z</time>
      </trkpt>
      <trkpt lat="32.824270000000006" lon="35.502280000000006">
        <ele>100</ele>
        <time>2026-07-13T09:56:09Z</time>
      </trkpt>
      <trkpt lat="32.824270000000006" lon="35.502280000000006">
        <ele>100.98628475410605</ele>
        <time>2026-07-13T09:56:10Z</time>
      </trkpt>
      <trkpt lat="32.82439" lon="35.501960000000004">
        <ele>78</ele>
        <time>2026-07-13T09:56:11Z</time>
      </trkpt>
      <trkpt lat="32.824360000000006" lon="35.501900000000006">
        <ele>78</ele>
        <time>2026-07-13T09:56:12Z</time>
      </trkpt>
      <trkpt lat="32.82441" lon="35.501830000000005">
        <ele>78</ele>
        <time>2026-07-13T09:56:13Z</time>
      </trkpt>
      <trkpt lat="32.82448" lon="35.501780000000004">
        <ele>78</ele>
        <time>2026-07-13T09:56:14Z</time>
      </trkpt>
      <trkpt lat="32.824510000000004" lon="35.50168">
        <ele>78</ele>
        <time>2026-07-13T09:56:15Z</time>
      </trkpt>
      <trkpt lat="32.824510000000004" lon="35.50168">
        <ele>123.77252133965146</ele>
        <time>2026-07-13T09:56:16Z</time>
      </trkpt>
      <trkpt lat="32.82446" lon="35.50162">
        <ele>78</ele>
        <time>2026-07-13T09:56:17Z</time>
      </trkpt>
      <trkpt lat="32.82446" lon="35.50157">
        <ele>78</ele>
        <time>2026-07-13T09:56:18Z</time>
      </trkpt>
      <trkpt lat="32.82455" lon="35.501430000000006">
        <ele>78</ele>
        <time>2026-07-13T09:56:19Z</time>
      </trkpt>
      <trkpt lat="32.824560000000005" lon="35.50135">
        <ele>78</ele>
        <time>2026-07-13T09:56:20Z</time>
      </trkpt>
      <trkpt lat="32.824540000000006" lon="35.501290000000004">
        <ele>78</ele>
        <time>2026-07-13T09:56:21Z</time>
      </trkpt>
      <trkpt lat="32.824540000000006" lon="35.501290000000004">
        <ele>145.27039805924574</ele>
        <time>2026-07-13T09:56:22Z</time>
      </trkpt>
      <trkpt lat="32.82455" lon="35.50115">
        <ele>114</ele>
        <time>2026-07-13T09:56:23Z</time>
      </trkpt>
      <trkpt lat="32.82459" lon="35.50099">
        <ele>114</ele>
        <time>2026-07-13T09:56:24Z</time>
      </trkpt>
      <trkpt lat="32.82455" lon="35.50085">
        <ele>114</ele>
        <time>2026-07-13T09:56:25Z</time>
      </trkpt>
      <trkpt lat="32.82455" lon="35.500800000000005">
        <ele>114</ele>
        <time>2026-07-13T09:56:26Z</time>
      </trkpt>
      <trkpt lat="32.824400000000004" lon="35.500910000000005">
        <ele>114</ele>
        <time>2026-07-13T09:56:27Z</time>
      </trkpt>
      <trkpt lat="32.824400000000004" lon="35.500910000000005">
        <ele>161.89421358173786</ele>
        <time>2026-07-13T09:56:28Z</time>
      </trkpt>
      <trkpt lat="32.824040000000004" lon="35.501070000000006">
        <ele>163</ele>
        <time>2026-07-13T09:56:29Z</time>
      </trkpt>
      <trkpt lat="32.824000000000005" lon="35.501160000000006">
        <ele>163</ele>
        <time>2026-07-13T09:56:30Z</time>
      </trkpt>
      <trkpt lat="32.82399" lon="35.5015">
        <ele>141</ele>
        <time>2026-07-13T09:56:31Z</time>
      </trkpt>
      <trkpt lat="32.82392" lon="35.50155">
        <ele>141</ele>
        <time>2026-07-13T09:56:32Z</time>
      </trkpt>
      <trkpt lat="32.823730000000005" lon="35.50157">
        <ele>141</ele>
        <time>2026-07-13T09:56:33Z</time>
      </trkpt>
      <trkpt lat="32.823730000000005" lon="35.50157">
        <ele>158.93342686323598</ele>
        <time>2026-07-13T09:56:34Z</time>
      </trkpt>
      <trkpt lat="32.82367" lon="35.50162">
        <ele>141</ele>
        <time>2026-07-13T09:56:35Z</time>
      </trkpt>
      <trkpt lat="32.82348" lon="35.502190000000006">
        <ele>100</ele>
        <time>2026-07-13T09:56:36Z</time>
      </trkpt>
      <trkpt lat="32.823350000000005" lon="35.50222">
        <ele>137</ele>
        <time>2026-07-13T09:56:37Z</time>
      </trkpt>
      <trkpt lat="32.823260000000005" lon="35.502190000000006">
        <ele>137</ele>
        <time>2026-07-13T09:56:38Z</time>
      </trkpt>
      <trkpt lat="32.82311" lon="35.50231">
        <ele>137</ele>
        <time>2026-07-13T09:56:39Z</time>
      </trkpt>
      <trkpt lat="32.82311" lon="35.50231">
        <ele>152.13931853411805</ele>
        <time>2026-07-13T09:56:40Z</time>
      </trkpt>
      <trkpt lat="32.82302" lon="35.502570000000006">
        <ele>137</ele>
        <time>2026-07-13T09:56:41Z</time>
      </trkpt>
      <trkpt lat="32.823040000000006" lon="35.50265">
        <ele>137</ele>
        <time>2026-07-13T09:56:42Z</time>
      </trkpt>
      <trkpt lat="32.82302" lon="35.502680000000005">
        <ele>137</ele>
        <time>2026-07-13T09:56:43Z</time>
      </trkpt>
      <trkpt lat="32.82302" lon="35.502680000000005">
        <ele>137</ele>
        <time>2026-07-13T09:56:44Z</time>
      </trkpt>
      <trkpt lat="32.82245" lon="35.503440000000005">
        <ele>137</ele>
        <time>2026-07-13T09:56:45Z</time>
      </trkpt>
      <trkpt lat="32.82245" lon="35.503440000000005">
        <ele>137.24314040530876</ele>
        <time>2026-07-13T09:56:46Z</time>
      </trkpt>
      <extensions>
        <RoutingType xmlns="">Hike</RoutingType>
      </extensions>
    </trkseg>
    <trkseg>
      <trkpt lat="32.822457" lon="35.503447">
        <ele>136.1</ele>
      </trkpt>
      <trkpt lat="32.822456" lon="35.503448">
        <ele>136.09370607694257</ele>
      </trkpt>
      <trkpt lat="32.822379" lon="35.503648">
        <ele>135.2029208995073</ele>
      </trkpt>
      <trkpt lat="32.821937" lon="35.504491">
        <ele>130.54198169745496</ele>
      </trkpt>
      <trkpt lat="32.821785" lon="35.504597">
        <ele>132.9023542766577</ele>
      </trkpt>
      <trkpt lat="32.821605" lon="35.504818">
        <ele>136.5915477481923</ele>
      </trkpt>
      <trkpt lat="32.821578" lon="35.504931">
        <ele>137.5063556455132</ele>
      </trkpt>
      <trkpt lat="32.821382" lon="35.505148">
        <ele>140.59091705650943</ele>
      </trkpt>
      <trkpt lat="32.821299" lon="35.505311">
        <ele>141.29545922011167</ele>
      </trkpt>
      <trkpt lat="32.821113" lon="35.506038">
        <ele>142.5595605222718</ele>
      </trkpt>
      <trkpt lat="32.821005" lon="35.506335">
        <ele>143.89590867646672</ele>
      </trkpt>
      <trkpt lat="32.82096" lon="35.506551">
        <ele>143.94996723176914</ele>
      </trkpt>
      <trkpt lat="32.820966" lon="35.506659">
        <ele>143.7476861105739</ele>
      </trkpt>
      <trkpt lat="32.820837" lon="35.506944">
        <ele>140.62758327863054</ele>
      </trkpt>
      <trkpt lat="32.820779" lon="35.507155">
        <ele>137.70392788081466</ele>
      </trkpt>
      <trkpt lat="32.820681" lon="35.507338">
        <ele>134.92426212533226</ele>
      </trkpt>
      <trkpt lat="32.820487" lon="35.507587">
        <ele>131.5763152147543</ele>
      </trkpt>
      <trkpt lat="32.820451" lon="35.507686">
        <ele>130.0979140246092</ele>
      </trkpt>
      <trkpt lat="32.820045" lon="35.508148">
        <ele>120.23368156229627</ele>
      </trkpt>
      <trkpt lat="32.820001" lon="35.508232">
        <ele>118.72294995526684</ele>
      </trkpt>
      <trkpt lat="32.819925" lon="35.508317">
        <ele>117.4892645510725</ele>
      </trkpt>
      <trkpt lat="32.818972" lon="35.509201">
        <ele>107.18282980428226</ele>
      </trkpt>
      <trkpt lat="32.818912" lon="35.509283">
        <ele>105.47627364804168</ele>
      </trkpt>
      <trkpt lat="32.818777" lon="35.509567">
        <ele>100.47833935609248</ele>
      </trkpt>
      <trkpt lat="32.81847" lon="35.509996">
        <ele>96.443854801973</ele>
      </trkpt>
      <trkpt lat="32.8184" lon="35.510196">
        <ele>94.90278185330621</ele>
      </trkpt>
      <trkpt lat="32.81824" lon="35.510314">
        <ele>93.82148524714337</ele>
      </trkpt>
      <trkpt lat="32.818136" lon="35.510506">
        <ele>93.60802665910917</ele>
      </trkpt>
      <trkpt lat="32.818023" lon="35.510678">
        <ele>93.27335262994752</ele>
      </trkpt>
      <trkpt lat="32.817895" lon="35.510984">
        <ele>92.59739420167973</ele>
      </trkpt>
      <trkpt lat="32.817657" lon="35.511464">
        <ele>93.18160515811583</ele>
      </trkpt>
      <trkpt lat="32.817473" lon="35.51172">
        <ele>94.00396087427401</ele>
      </trkpt>
      <trkpt lat="32.817402" lon="35.511788">
        <ele>94.40934081145316</ele>
      </trkpt>
      <trkpt lat="32.817226" lon="35.511868">
        <ele>95.51704348751245</ele>
      </trkpt>
      <trkpt lat="32.817137" lon="35.511889">
        <ele>96.08875599484938</ele>
      </trkpt>
      <trkpt lat="32.817074" lon="35.51196">
        <ele>96.47762271982289</ele>
      </trkpt>
      <trkpt lat="32.816715" lon="35.512618">
        <ele>96.07431656480047</ele>
      </trkpt>
      <trkpt lat="32.816643" lon="35.5127">
        <ele>95.46966739004414</ele>
      </trkpt>
      <trkpt lat="32.816531" lon="35.512879">
        <ele>93.45374515429154</ele>
      </trkpt>
      <trkpt lat="32.816361" lon="35.51329">
        <ele>88.56146095662099</ele>
      </trkpt>
      <trkpt lat="32.816333" lon="35.513378">
        <ele>88.03386826326042</ele>
      </trkpt>
      <extensions>
        <RoutingType xmlns="">Hike</RoutingType>
      </extensions>
    </trkseg>
    <trkseg>
      <trkpt lat="32.816333" lon="35.513378">
        <ele>87</ele>
      </trkpt>
      <trkpt lat="32.81623" lon="35.513703">
        <ele>83.13772038385919</ele>
      </trkpt>
      <trkpt lat="32.816231" lon="35.514043">
        <ele>79.3959284665005</ele>
      </trkpt>
      <trkpt lat="32.816201" lon="35.514515">
        <ele>70.19122649451015</ele>
      </trkpt>
      <trkpt lat="32.816108" lon="35.514722">
        <ele>66.42523839561379</ele>
      </trkpt>
      <trkpt lat="32.815932" lon="35.514986">
        <ele>63.369420900320065</ele>
      </trkpt>
      <trkpt lat="32.815851" lon="35.515055">
        <ele>62.409415419359156</ele>
      </trkpt>
      <trkpt lat="32.815754" lon="35.515092">
        <ele>61.656838217782635</ele>
      </trkpt>
      <trkpt lat="32.81556" lon="35.515105">
        <ele>60.93663831892674</ele>
      </trkpt>
      <trkpt lat="32.815417" lon="35.515075">
        <ele>60.518903800717965</ele>
      </trkpt>
      <trkpt lat="32.815369" lon="35.515065">
        <ele>60.39247098737036</ele>
      </trkpt>
      <trkpt lat="32.81509" lon="35.515054">
        <ele>60.1</ele>
      </trkpt>
      <trkpt lat="32.814903" lon="35.51509">
        <ele>59.81290637019957</ele>
      </trkpt>
      <trkpt lat="32.814813" lon="35.515118">
        <ele>59.50258731523302</ele>
      </trkpt>
      <trkpt lat="32.81473" lon="35.515168">
        <ele>59.15952559833676</ele>
      </trkpt>
      <trkpt lat="32.814661" lon="35.515183">
        <ele>57.937611513604494</ele>
      </trkpt>
      <trkpt lat="32.814368" lon="35.515247">
        <ele>54.01543214847659</ele>
      </trkpt>
      <trkpt lat="32.814283" lon="35.515197">
        <ele>53.558547558690485</ele>
      </trkpt>
      <trkpt lat="32.81421" lon="35.515124">
        <ele>53.2</ele>
      </trkpt>
      <trkpt lat="32.814133" lon="35.515048">
        <ele>53.2</ele>
      </trkpt>
      <trkpt lat="32.814013" lon="35.514885">
        <ele>52.70615176019851</ele>
      </trkpt>
      <trkpt lat="32.81383" lon="35.514787">
        <ele>49.73086688183793</ele>
      </trkpt>
      <trkpt lat="32.813757" lon="35.514703">
        <ele>48.24962102325878</ele>
      </trkpt>
      <trkpt lat="32.813678" lon="35.514643">
        <ele>46.89483839942747</ele>
      </trkpt>
      <trkpt lat="32.813593" lon="35.514635">
        <ele>45.66229656877674</ele>
      </trkpt>
      <extensions>
        <RoutingType xmlns="">Hike</RoutingType>
      </extensions>
    </trkseg>
    <trkseg>
      <trkpt lat="32.813593" lon="35.514635">
        <ele>45.3</ele>
      </trkpt>
      <trkpt lat="32.813491" lon="35.514626">
        <ele>44.08687731279965</ele>
      </trkpt>
      <trkpt lat="32.813402" lon="35.514649">
        <ele>43.006655833186734</ele>
      </trkpt>
      <trkpt lat="32.813271" lon="35.5148">
        <ele>40.686281161887415</ele>
      </trkpt>
      <trkpt lat="32.813212" lon="35.51489">
        <ele>39.406263339214924</ele>
      </trkpt>
      <trkpt lat="32.813174" lon="35.514985">
        <ele>38.271993374368485</ele>
      </trkpt>
      <trkpt lat="32.813068" lon="35.515169">
        <ele>36.18727471193722</ele>
      </trkpt>
      <trkpt lat="32.813052" lon="35.515277">
        <ele>35.4437369260175</ele>
      </trkpt>
      <trkpt lat="32.813091" lon="35.515385">
        <ele>35.2606513153018</ele>
      </trkpt>
      <trkpt lat="32.813119" lon="35.515484">
        <ele>35.09795679602369</ele>
      </trkpt>
      <trkpt lat="32.813147" lon="35.515583">
        <ele>34.58567886589066</ele>
      </trkpt>
      <trkpt lat="32.813148" lon="35.515691">
        <ele>33.509035924062644</ele>
      </trkpt>
      <trkpt lat="32.813112" lon="35.515799">
        <ele>32.35087401947165</ele>
      </trkpt>
      <trkpt lat="32.813035" lon="35.515851">
        <ele>30.957506661671697</ele>
      </trkpt>
      <trkpt lat="32.812935" lon="35.515876">
        <ele>28.912295191376337</ele>
      </trkpt>
      <trkpt lat="32.812747" lon="35.515834">
        <ele>25.400592248942573</ele>
      </trkpt>
      <trkpt lat="32.812406" lon="35.515696">
        <ele>20.390024555844576</ele>
      </trkpt>
      <trkpt lat="32.812228" lon="35.515594">
        <ele>17.973488682192176</ele>
      </trkpt>
      <trkpt lat="32.812051" lon="35.515521">
        <ele>15.671333639628072</ele>
      </trkpt>
      <trkpt lat="32.81186" lon="35.51547">
        <ele>11.825925780822885</ele>
      </trkpt>
      <trkpt lat="32.811764" lon="35.515428">
        <ele>9.66251102553891</ele>
      </trkpt>
      <trkpt lat="32.811656" lon="35.515419">
        <ele>6.973919355004945</ele>
      </trkpt>
      <trkpt lat="32.811584" lon="35.515413">
        <ele>5.181524899179949</ele>
      </trkpt>
      <trkpt lat="32.811503" lon="35.515361">
        <ele>3.2559405855347596</ele>
      </trkpt>
      <trkpt lat="32.811424" lon="35.515296">
        <ele>1.9387204649058456</ele>
      </trkpt>
      <trkpt lat="32.811364" lon="35.515212">
        <ele>0.6681048039861821</ele>
      </trkpt>
      <trkpt lat="32.811106" lon="35.514729">
        <ele>-3.2453433407809444</ele>
      </trkpt>
      <trkpt lat="32.810977" lon="35.51455">
        <ele>-4.267353590631447</ele>
      </trkpt>
      <trkpt lat="32.810924" lon="35.514454">
        <ele>-4.338914842112034</ele>
      </trkpt>
      <trkpt lat="32.810848" lon="35.514236">
        <ele>-4.142127029151086</ele>
      </trkpt>
      <trkpt lat="32.810527" lon="35.513818">
        <ele>-3.9453740788424234</ele>
      </trkpt>
      <trkpt lat="32.810377" lon="35.513696">
        <ele>-5.49433208170662</ele>
      </trkpt>
      <trkpt lat="32.810291" lon="35.513666">
        <ele>-6.338048748517294</ele>
      </trkpt>
      <trkpt lat="32.810275" lon="35.513663">
        <ele>-6.500145467052353</ele>
      </trkpt>
      <trkpt lat="32.810013" lon="35.513607">
        <ele>-9.139497355334875</ele>
      </trkpt>
      <trkpt lat="32.809895" lon="35.513623">
        <ele>-10.284011329453964</ele>
      </trkpt>
      <trkpt lat="32.80924" lon="35.513426">
        <ele>-17.73278346661404</ele>
      </trkpt>
      <trkpt lat="32.809055" lon="35.51339">
        <ele>-19.678258839269837</ele>
      </trkpt>
      <trkpt lat="32.80897" lon="35.513359">
        <ele>-20.429227208842846</ele>
      </trkpt>
      <trkpt lat="32.808811" lon="35.513239">
        <ele>-21.825023853259573</ele>
      </trkpt>
      <trkpt lat="32.808752" lon="35.513152">
        <ele>-21.634933583172863</ele>
      </trkpt>
      <trkpt lat="32.808653" lon="35.51284">
        <ele>-20.06057566708547</ele>
      </trkpt>
      <trkpt lat="32.808632" lon="35.51251">
        <ele>-18.932262730793667</ele>
      </trkpt>
      <trkpt lat="32.808647" lon="35.512176">
        <ele>-19.311790924613845</ele>
      </trkpt>
      <trkpt lat="32.808625" lon="35.51209">
        <ele>-19.395804890748064</ele>
      </trkpt>
      <trkpt lat="32.808617" lon="35.512058">
        <ele>-19.427006297010074</ele>
      </trkpt>
      <trkpt lat="32.808566" lon="35.511971">
        <ele>-19.53484990918978</ele>
      </trkpt>
      <trkpt lat="32.808484" lon="35.511923">
        <ele>-19.670340188609703</ele>
      </trkpt>
      <trkpt lat="32.808385" lon="35.511892">
        <ele>-19.82211566759886</ele>
      </trkpt>
      <trkpt lat="32.8076" lon="35.511888">
        <ele>-18.91403342665396</ele>
      </trkpt>
      <trkpt lat="32.807305" lon="35.51185">
        <ele>-20.022084428810878</ele>
      </trkpt>
      <trkpt lat="32.807195" lon="35.511816">
        <ele>-20.606763074257</ele>
      </trkpt>
      <trkpt lat="32.807123" lon="35.511795">
        <ele>-20.963963716419105</ele>
      </trkpt>
      <trkpt lat="32.806881" lon="35.511623">
        <ele>-21.877787481031188</ele>
      </trkpt>
      <trkpt lat="32.80672" lon="35.511494">
        <ele>-22.1</ele>
      </trkpt>
      <trkpt lat="32.806622" lon="35.511393">
        <ele>-22.1</ele>
      </trkpt>
      <trkpt lat="32.806583" lon="35.511353">
        <ele>-22.1</ele>
      </trkpt>
      <trkpt lat="32.806503" lon="35.511152">
        <ele>-20.501791130077446</ele>
      </trkpt>
      <trkpt lat="32.806196" lon="35.510698">
        <ele>-19.881838624027917</ele>
      </trkpt>
      <trkpt lat="32.80596" lon="35.510488">
        <ele>-20.809376055144522</ele>
      </trkpt>
      <trkpt lat="32.805899" lon="35.5104">
        <ele>-20.88044735266118</ele>
      </trkpt>
      <trkpt lat="32.805828" lon="35.510315">
        <ele>-20.624432880456816</ele>
      </trkpt>
      <trkpt lat="32.805445" lon="35.50993">
        <ele>-18.57217604029458</ele>
      </trkpt>
      <trkpt lat="32.805131" lon="35.509614">
        <ele>-16.309948014335923</ele>
      </trkpt>
      <extensions>
        <RoutingType xmlns="">Hike</RoutingType>
      </extensions>
    </trkseg>
    <trkseg>
      <trkpt lat="32.805131" lon="35.509614">
        <ele>-15.9</ele>
      </trkpt>
      <trkpt lat="32.804902" lon="35.509383">
        <ele>-15.978965661413962</ele>
      </trkpt>
      <trkpt lat="32.804689" lon="35.509126">
        <ele>-16.43393616326255</ele>
      </trkpt>
      <trkpt lat="32.804572" lon="35.508933">
        <ele>-15.91499652735961</ele>
      </trkpt>
      <trkpt lat="32.804301" lon="35.508308">
        <ele>-16.75085666525526</ele>
      </trkpt>
      <trkpt lat="32.804199" lon="35.508105">
        <ele>-16.971901234197624</ele>
      </trkpt>
      <trkpt lat="32.804128" lon="35.50789">
        <ele>-14.3708292714084</ele>
      </trkpt>
      <trkpt lat="32.804112" lon="35.507671">
        <ele>-11.867476549951304</ele>
      </trkpt>
      <trkpt lat="32.804176" lon="35.50701">
        <ele>-8.36275444468019</ele>
      </trkpt>
      <trkpt lat="32.804185" lon="35.506792">
        <ele>-7.353431834889463</ele>
      </trkpt>
      <trkpt lat="32.804252" lon="35.506474">
        <ele>-5.3020915214164965</ele>
      </trkpt>
      <trkpt lat="32.804025" lon="35.506276">
        <ele>-6.412834896239039</ele>
      </trkpt>
      <trkpt lat="32.803967" lon="35.506183">
        <ele>-6.448912696663487</ele>
      </trkpt>
      <trkpt lat="32.80396" lon="35.506184">
        <ele>-6.451525882304146</ele>
      </trkpt>
      <extensions>
        <RoutingType xmlns="">Hike</RoutingType>
      </extensions>
    </trkseg>
    <trkseg>
      <trkpt lat="32.803960000000004" lon="35.50618">
        <ele>-2</ele>
        <time>2026-07-13T09:57:47Z</time>
      </trkpt>
      <trkpt lat="32.80387" lon="35.506190000000004">
        <ele>-2</ele>
        <time>2026-07-13T09:57:48Z</time>
      </trkpt>
      <trkpt lat="32.80375" lon="35.506170000000004">
        <ele>-2</ele>
        <time>2026-07-13T09:57:49Z</time>
      </trkpt>
      <trkpt lat="32.803740000000005" lon="35.506260000000005">
        <ele>-6</ele>
        <time>2026-07-13T09:57:50Z</time>
      </trkpt>
      <trkpt lat="32.803580000000004" lon="35.50639">
        <ele>-6</ele>
        <time>2026-07-13T09:57:51Z</time>
      </trkpt>
      <trkpt lat="32.803580000000004" lon="35.50639">
        <ele>-6.705468619475141</ele>
        <time>2026-07-13T09:57:52Z</time>
      </trkpt>
      <trkpt lat="32.80348" lon="35.50657">
        <ele>-4</ele>
        <time>2026-07-13T09:57:53Z</time>
      </trkpt>
      <trkpt lat="32.80342" lon="35.50665">
        <ele>-4</ele>
        <time>2026-07-13T09:57:54Z</time>
      </trkpt>
      <trkpt lat="32.803340000000006" lon="35.5067">
        <ele>-4</ele>
        <time>2026-07-13T09:57:55Z</time>
      </trkpt>
      <trkpt lat="32.803270000000005" lon="35.5067">
        <ele>-4</ele>
        <time>2026-07-13T09:57:56Z</time>
      </trkpt>
      <trkpt lat="32.80308" lon="35.506750000000004">
        <ele>-4</ele>
        <time>2026-07-13T09:57:57Z</time>
      </trkpt>
      <trkpt lat="32.80308" lon="35.506750000000004">
        <ele>-0.5446008892031386</ele>
        <time>2026-07-13T09:57:58Z</time>
      </trkpt>
      <trkpt lat="32.802910000000004" lon="35.506730000000005">
        <ele>-4</ele>
        <time>2026-07-13T09:57:59Z</time>
      </trkpt>
      <trkpt lat="32.80236" lon="35.507130000000004">
        <ele>6</ele>
        <time>2026-07-13T09:58:00Z</time>
      </trkpt>
      <trkpt lat="32.80214" lon="35.507340000000006">
        <ele>6</ele>
        <time>2026-07-13T09:58:01Z</time>
      </trkpt>
      <trkpt lat="32.802060000000004" lon="35.50739">
        <ele>6</ele>
        <time>2026-07-13T09:58:02Z</time>
      </trkpt>
      <trkpt lat="32.801930000000006" lon="35.507540000000006">
        <ele>6</ele>
        <time>2026-07-13T09:58:03Z</time>
      </trkpt>
      <trkpt lat="32.801930000000006" lon="35.507540000000006">
        <ele>15.874118223506075</ele>
        <time>2026-07-13T09:58:04Z</time>
      </trkpt>
      <trkpt lat="32.80176" lon="35.50766">
        <ele>16</ele>
        <time>2026-07-13T09:58:05Z</time>
      </trkpt>
      <trkpt lat="32.80158" lon="35.50773">
        <ele>16</ele>
        <time>2026-07-13T09:58:06Z</time>
      </trkpt>
      <trkpt lat="32.8014" lon="35.50775">
        <ele>16</ele>
        <time>2026-07-13T09:58:07Z</time>
      </trkpt>
      <trkpt lat="32.80122" lon="35.50771">
        <ele>16</ele>
        <time>2026-07-13T09:58:08Z</time>
      </trkpt>
      <trkpt lat="32.801030000000004" lon="35.507690000000004">
        <ele>16</ele>
        <time>2026-07-13T09:58:09Z</time>
      </trkpt>
      <trkpt lat="32.801030000000004" lon="35.507690000000004">
        <ele>21.83800122595858</ele>
        <time>2026-07-13T09:58:10Z</time>
      </trkpt>
      <trkpt lat="32.800850000000004" lon="35.507630000000006">
        <ele>21</ele>
        <time>2026-07-13T09:58:11Z</time>
      </trkpt>
      <trkpt lat="32.800650000000005" lon="35.50761">
        <ele>21</ele>
        <time>2026-07-13T09:58:12Z</time>
      </trkpt>
      <trkpt lat="32.80048" lon="35.50753">
        <ele>21</ele>
        <time>2026-07-13T09:58:13Z</time>
      </trkpt>
      <trkpt lat="32.8003" lon="35.50743">
        <ele>21</ele>
        <time>2026-07-13T09:58:14Z</time>
      </trkpt>
      <trkpt lat="32.7999" lon="35.50715">
        <ele>17</ele>
        <time>2026-07-13T09:58:15Z</time>
      </trkpt>
      <trkpt lat="32.7999" lon="35.50715">
        <ele>24.27399375355117</ele>
        <time>2026-07-13T09:58:16Z</time>
      </trkpt>
      <trkpt lat="32.799820000000004" lon="35.507070000000006">
        <ele>34</ele>
        <time>2026-07-13T09:58:17Z</time>
      </trkpt>
      <trkpt lat="32.799080000000004" lon="35.50654">
        <ele>26</ele>
        <time>2026-07-13T09:58:18Z</time>
      </trkpt>
      <trkpt lat="32.79894" lon="35.50641">
        <ele>26</ele>
        <time>2026-07-13T09:58:19Z</time>
      </trkpt>
      <trkpt lat="32.79876" lon="35.50632">
        <ele>26</ele>
        <time>2026-07-13T09:58:20Z</time>
      </trkpt>
      <trkpt lat="32.79851" lon="35.506150000000005">
        <ele>36</ele>
        <time>2026-07-13T09:58:21Z</time>
      </trkpt>
      <trkpt lat="32.79851" lon="35.506150000000005">
        <ele>27.00124562747078</ele>
        <time>2026-07-13T09:58:22Z</time>
      </trkpt>
      <trkpt lat="32.79806" lon="35.50594">
        <ele>30</ele>
        <time>2026-07-13T09:58:23Z</time>
      </trkpt>
      <trkpt lat="32.797900000000006" lon="35.505900000000004">
        <ele>30</ele>
        <time>2026-07-13T09:58:24Z</time>
      </trkpt>
      <trkpt lat="32.79757" lon="35.505630000000004">
        <ele>22</ele>
        <time>2026-07-13T09:58:25Z</time>
      </trkpt>
      <trkpt lat="32.79748" lon="35.505630000000004">
        <ele>22</ele>
        <time>2026-07-13T09:58:26Z</time>
      </trkpt>
      <trkpt lat="32.797290000000004" lon="35.505660000000006">
        <ele>22</ele>
        <time>2026-07-13T09:58:27Z</time>
      </trkpt>
      <trkpt lat="32.797290000000004" lon="35.505660000000006">
        <ele>19.629481310665142</ele>
        <time>2026-07-13T09:58:28Z</time>
      </trkpt>
      <trkpt lat="32.797000000000004" lon="35.505630000000004">
        <ele>22</ele>
        <time>2026-07-13T09:58:29Z</time>
      </trkpt>
      <trkpt lat="32.79684" lon="35.505590000000005">
        <ele>12.5</ele>
        <time>2026-07-13T09:58:30Z</time>
      </trkpt>
      <trkpt lat="32.79684" lon="35.505590000000005">
        <ele>12.5</ele>
        <time>2026-07-13T09:58:31Z</time>
      </trkpt>
      <trkpt lat="32.79646" lon="35.505480000000006">
        <ele>3</ele>
        <time>2026-07-13T09:58:32Z</time>
      </trkpt>
      <trkpt lat="32.79639" lon="35.50554">
        <ele>3</ele>
        <time>2026-07-13T09:58:33Z</time>
      </trkpt>
      <trkpt lat="32.79639" lon="35.50554">
        <ele>-3.144906809179247</ele>
        <time>2026-07-13T09:58:34Z</time>
      </trkpt>
      <trkpt lat="32.796350000000004" lon="35.50576">
        <ele>3</ele>
        <time>2026-07-13T09:58:35Z</time>
      </trkpt>
      <trkpt lat="32.79636" lon="35.505840000000006">
        <ele>3</ele>
        <time>2026-07-13T09:58:36Z</time>
      </trkpt>
      <trkpt lat="32.79628" lon="35.50585">
        <ele>3</ele>
        <time>2026-07-13T09:58:37Z</time>
      </trkpt>
      <trkpt lat="32.796240000000004" lon="35.50594">
        <ele>3</ele>
        <time>2026-07-13T09:58:38Z</time>
      </trkpt>
      <trkpt lat="32.796220000000005" lon="35.50605">
        <ele>3</ele>
        <time>2026-07-13T09:58:39Z</time>
      </trkpt>
      <trkpt lat="32.796220000000005" lon="35.50605">
        <ele>-12.66833675213214</ele>
        <time>2026-07-13T09:58:40Z</time>
      </trkpt>
      <trkpt lat="32.7961" lon="35.506150000000005">
        <ele>3</ele>
        <time>2026-07-13T09:58:41Z</time>
      </trkpt>
      <trkpt lat="32.7958" lon="35.50567">
        <ele>-6</ele>
        <time>2026-07-13T09:58:42Z</time>
      </trkpt>
      <trkpt lat="32.79565" lon="35.50538">
        <ele>-3</ele>
        <time>2026-07-13T09:58:43Z</time>
      </trkpt>
      <trkpt lat="32.79561" lon="35.505160000000004">
        <ele>-3</ele>
        <time>2026-07-13T09:58:44Z</time>
      </trkpt>
      <trkpt lat="32.795590000000004" lon="35.504830000000005">
        <ele>-3</ele>
        <time>2026-07-13T09:58:45Z</time>
      </trkpt>
      <trkpt lat="32.795590000000004" lon="35.504830000000005">
        <ele>-5.941643170292969</ele>
        <time>2026-07-13T09:58:46Z</time>
      </trkpt>
      <trkpt lat="32.79553" lon="35.50451">
        <ele>4</ele>
        <time>2026-07-13T09:58:47Z</time>
      </trkpt>
      <trkpt lat="32.795300000000005" lon="35.50388">
        <ele>4</ele>
        <time>2026-07-13T09:58:48Z</time>
      </trkpt>
      <extensions>
        <RoutingType xmlns="">Hike</RoutingType>
      </extensions>
    </trkseg>
    <trkseg>
      <trkpt lat="32.795300000000005" lon="35.50388">
        <ele>4</ele>
        <time>2026-07-13T09:58:48Z</time>
      </trkpt>
      <trkpt lat="32.795230000000004" lon="35.50374">
        <ele>7</ele>
        <time>2026-07-13T09:58:49Z</time>
      </trkpt>
      <trkpt lat="32.79516" lon="35.5037">
        <ele>-4</ele>
        <time>2026-07-13T09:58:50Z</time>
      </trkpt>
      <trkpt lat="32.795100000000005" lon="35.50412">
        <ele>-1</ele>
        <time>2026-07-13T09:58:51Z</time>
      </trkpt>
      <trkpt lat="32.795100000000005" lon="35.50412">
        <ele>-2.4830918989609927</ele>
        <time>2026-07-13T09:58:52Z</time>
      </trkpt>
      <trkpt lat="32.79468" lon="35.506040000000006">
        <ele>4</ele>
        <time>2026-07-13T09:58:53Z</time>
      </trkpt>
      <trkpt lat="32.79468" lon="35.506640000000004">
        <ele>7</ele>
        <time>2026-07-13T09:58:54Z</time>
      </trkpt>
      <trkpt lat="32.794700000000006" lon="35.506820000000005">
        <ele>7</ele>
        <time>2026-07-13T09:58:55Z</time>
      </trkpt>
      <trkpt lat="32.793780000000005" lon="35.507070000000006">
        <ele>16</ele>
        <time>2026-07-13T09:58:56Z</time>
      </trkpt>
      <trkpt lat="32.79301" lon="35.50733">
        <ele>30</ele>
        <time>2026-07-13T09:58:57Z</time>
      </trkpt>
      <trkpt lat="32.79301" lon="35.50733">
        <ele>33.64095636452599</ele>
        <time>2026-07-13T09:58:58Z</time>
      </trkpt>
      <trkpt lat="32.792910000000006" lon="35.50733">
        <ele>30</ele>
        <time>2026-07-13T09:58:59Z</time>
      </trkpt>
      <trkpt lat="32.792640000000006" lon="35.50739">
        <ele>39</ele>
        <time>2026-07-13T09:59:00Z</time>
      </trkpt>
      <trkpt lat="32.791810000000005" lon="35.50764">
        <ele>51</ele>
        <time>2026-07-13T09:59:01Z</time>
      </trkpt>
      <trkpt lat="32.791630000000005" lon="35.507670000000005">
        <ele>51</ele>
        <time>2026-07-13T09:59:02Z</time>
      </trkpt>
      <trkpt lat="32.791450000000005" lon="35.50737">
        <ele>51</ele>
        <time>2026-07-13T09:59:03Z</time>
      </trkpt>
      <trkpt lat="32.791450000000005" lon="35.50737">
        <ele>54.19093048570116</ele>
        <time>2026-07-13T09:59:04Z</time>
      </trkpt>
      <trkpt lat="32.79137" lon="35.50732">
        <ele>51</ele>
        <time>2026-07-13T09:59:05Z</time>
      </trkpt>
      <trkpt lat="32.79128" lon="35.50733">
        <ele>51</ele>
        <time>2026-07-13T09:59:06Z</time>
      </trkpt>
      <trkpt lat="32.79112" lon="35.507470000000005">
        <ele>51</ele>
        <time>2026-07-13T09:59:07Z</time>
      </trkpt>
      <trkpt lat="32.790940000000006" lon="35.507760000000005">
        <ele>62</ele>
        <time>2026-07-13T09:59:08Z</time>
      </trkpt>
      <trkpt lat="32.79072" lon="35.50799">
        <ele>64</ele>
        <time>2026-07-13T09:59:09Z</time>
      </trkpt>
      <trkpt lat="32.79072" lon="35.50799">
        <ele>68.67947780441334</ele>
        <time>2026-07-13T09:59:10Z</time>
      </trkpt>
      <trkpt lat="32.79064" lon="35.50804">
        <ele>64</ele>
        <time>2026-07-13T09:59:11Z</time>
      </trkpt>
      <trkpt lat="32.79001" lon="35.50822">
        <ele>74</ele>
        <time>2026-07-13T09:59:12Z</time>
      </trkpt>
      <trkpt lat="32.78983" lon="35.50824">
        <ele>74</ele>
        <time>2026-07-13T09:59:13Z</time>
      </trkpt>
      <trkpt lat="32.79001" lon="35.509420000000006">
        <ele>77</ele>
        <time>2026-07-13T09:59:14Z</time>
      </trkpt>
      <trkpt lat="32.79008" lon="35.50976">
        <ele>81</ele>
        <time>2026-07-13T09:59:15Z</time>
      </trkpt>
      <trkpt lat="32.79008" lon="35.50976">
        <ele>78.37732972802065</ele>
        <time>2026-07-13T09:59:16Z</time>
      </trkpt>
      <trkpt lat="32.790380000000006" lon="35.51062">
        <ele>78</ele>
        <time>2026-07-13T09:59:17Z</time>
      </trkpt>
      <trkpt lat="32.79065" lon="35.51138">
        <ele>80</ele>
        <time>2026-07-13T09:59:18Z</time>
      </trkpt>
      <trkpt lat="32.789950000000005" lon="35.51221">
        <ele>92</ele>
        <time>2026-07-13T09:59:19Z</time>
      </trkpt>
      <trkpt lat="32.78962" lon="35.512570000000004">
        <ele>92</ele>
        <time>2026-07-13T09:59:20Z</time>
      </trkpt>
      <trkpt lat="32.789550000000006" lon="35.5127">
        <ele>92</ele>
        <time>2026-07-13T09:59:21Z</time>
      </trkpt>
      <trkpt lat="32.789550000000006" lon="35.5127">
        <ele>96.23222623637412</ele>
        <time>2026-07-13T09:59:22Z</time>
      </trkpt>
      <trkpt lat="32.78952" lon="35.513000000000005">
        <ele>91</ele>
        <time>2026-07-13T09:59:23Z</time>
      </trkpt>
      <trkpt lat="32.79028" lon="35.51529">
        <ele>78</ele>
        <time>2026-07-13T09:59:24Z</time>
      </trkpt>
      <trkpt lat="32.79048" lon="35.51579">
        <ele>77</ele>
        <time>2026-07-13T09:59:25Z</time>
      </trkpt>
      <trkpt lat="32.79055" lon="35.51594">
        <ele>77</ele>
        <time>2026-07-13T09:59:26Z</time>
      </trkpt>
      <trkpt lat="32.79043" lon="35.515980000000006">
        <ele>77</ele>
        <time>2026-07-13T09:59:27Z</time>
      </trkpt>
      <trkpt lat="32.79043" lon="35.515980000000006">
        <ele>78.10419191869556</ele>
        <time>2026-07-13T09:59:28Z</time>
      </trkpt>
      <trkpt lat="32.78961" lon="35.51664">
        <ele>79</ele>
        <time>2026-07-13T09:59:29Z</time>
      </trkpt>
      <trkpt lat="32.78954" lon="35.51666">
        <ele>79</ele>
        <time>2026-07-13T09:59:30Z</time>
      </trkpt>
      <trkpt lat="32.78951" lon="35.51672">
        <ele>79</ele>
        <time>2026-07-13T09:59:31Z</time>
      </trkpt>
      <trkpt lat="32.78851" lon="35.51762">
        <ele>81</ele>
        <time>2026-07-13T09:59:32Z</time>
      </trkpt>
      <trkpt lat="32.78844" lon="35.517630000000004">
        <ele>95</ele>
        <time>2026-07-13T09:59:33Z</time>
      </trkpt>
      <trkpt lat="32.78844" lon="35.517630000000004">
        <ele>92.44113169885456</ele>
        <time>2026-07-13T09:59:34Z</time>
      </trkpt>
      <trkpt lat="32.78842" lon="35.51765">
        <ele>95</ele>
        <time>2026-07-13T09:59:35Z</time>
      </trkpt>
      <trkpt lat="32.7884" lon="35.517720000000004">
        <ele>95</ele>
        <time>2026-07-13T09:59:36Z</time>
      </trkpt>
      <trkpt lat="32.7884" lon="35.51776">
        <ele>95</ele>
        <time>2026-07-13T09:59:37Z</time>
      </trkpt>
      <trkpt lat="32.786950000000004" lon="35.518730000000005">
        <ele>88</ele>
        <time>2026-07-13T09:59:38Z</time>
      </trkpt>
      <trkpt lat="32.78546" lon="35.519490000000005">
        <ele>118</ele>
        <time>2026-07-13T09:59:39Z</time>
      </trkpt>
      <trkpt lat="32.78546" lon="35.519490000000005">
        <ele>114.73539092556325</ele>
        <time>2026-07-13T09:59:40Z</time>
      </trkpt>
      <trkpt lat="32.78307" lon="35.52087">
        <ele>131</ele>
        <time>2026-07-13T09:59:41Z</time>
      </trkpt>
      <trkpt lat="32.78105" lon="35.52219">
        <ele>146</ele>
        <time>2026-07-13T09:59:42Z</time>
      </trkpt>
      <trkpt lat="32.78099" lon="35.52217">
        <ele>158</ele>
        <time>2026-07-13T09:59:43Z</time>
      </trkpt>
      <trkpt lat="32.78092" lon="35.522180000000006">
        <ele>158</ele>
        <time>2026-07-13T09:59:44Z</time>
      </trkpt>
      <trkpt lat="32.780750000000005" lon="35.522270000000006">
        <ele>158</ele>
        <time>2026-07-13T09:59:45Z</time>
      </trkpt>
      <trkpt lat="32.780750000000005" lon="35.522270000000006">
        <ele>158.94117646118957</ele>
        <time>2026-07-13T09:59:46Z</time>
      </trkpt>
      <trkpt lat="32.780710000000006" lon="35.52232">
        <ele>158</ele>
        <time>2026-07-13T09:59:47Z</time>
      </trkpt>
      <trkpt lat="32.78005" lon="35.522580000000005">
        <ele>166</ele>
        <time>2026-07-13T09:59:48Z</time>
      </trkpt>
      <trkpt lat="32.77951" lon="35.5229">
        <ele>148</ele>
        <time>2026-07-13T09:59:49Z</time>
      </trkpt>
      <extensions>
        <RoutingType xmlns="">Hike</RoutingType>
      </extensions>
    </trkseg>
    <trkseg>
      <trkpt lat="32.77951" lon="35.5229">
        <ele>148</ele>
        <time>2026-07-13T09:59:49Z</time>
      </trkpt>
      <trkpt lat="32.77939" lon="35.522920000000006">
        <ele>148</ele>
        <time>2026-07-13T09:59:50Z</time>
      </trkpt>
      <trkpt lat="32.779180000000004" lon="35.522800000000004">
        <ele>164</ele>
        <time>2026-07-13T09:59:51Z</time>
      </trkpt>
      <trkpt lat="32.779180000000004" lon="35.522800000000004">
        <ele>165.80590962201478</ele>
        <time>2026-07-13T09:59:52Z</time>
      </trkpt>
      <trkpt lat="32.77902" lon="35.522510000000004">
        <ele>164</ele>
        <time>2026-07-13T09:59:53Z</time>
      </trkpt>
      <trkpt lat="32.779030000000006" lon="35.52228">
        <ele>164</ele>
        <time>2026-07-13T09:59:54Z</time>
      </trkpt>
      <trkpt lat="32.779070000000004" lon="35.522130000000004">
        <ele>164</ele>
        <time>2026-07-13T09:59:55Z</time>
      </trkpt>
      <trkpt lat="32.77884" lon="35.52203">
        <ele>179</ele>
        <time>2026-07-13T09:59:56Z</time>
      </trkpt>
      <trkpt lat="32.778670000000005" lon="35.522040000000004">
        <ele>179</ele>
        <time>2026-07-13T09:59:57Z</time>
      </trkpt>
      <trkpt lat="32.778670000000005" lon="35.522040000000004">
        <ele>171.20686743500815</ele>
        <time>2026-07-13T09:59:58Z</time>
      </trkpt>
      <trkpt lat="32.77857" lon="35.52208">
        <ele>164</ele>
        <time>2026-07-13T09:59:59Z</time>
      </trkpt>
      <trkpt lat="32.77826" lon="35.52225">
        <ele>157</ele>
        <time>2026-07-13T10:00:00Z</time>
      </trkpt>
      <trkpt lat="32.77819" lon="35.522270000000006">
        <ele>157</ele>
        <time>2026-07-13T10:00:01Z</time>
      </trkpt>
      <trkpt lat="32.778040000000004" lon="35.52228">
        <ele>157</ele>
        <time>2026-07-13T10:00:02Z</time>
      </trkpt>
      <trkpt lat="32.777060000000006" lon="35.52208">
        <ele>160</ele>
        <time>2026-07-13T10:00:03Z</time>
      </trkpt>
      <trkpt lat="32.777060000000006" lon="35.52208">
        <ele>164.90418266640117</ele>
        <time>2026-07-13T10:00:04Z</time>
      </trkpt>
      <trkpt lat="32.77662" lon="35.522000000000006">
        <ele>180</ele>
        <time>2026-07-13T10:00:05Z</time>
      </trkpt>
      <trkpt lat="32.77628" lon="35.522000000000006">
        <ele>180</ele>
        <time>2026-07-13T10:00:06Z</time>
      </trkpt>
      <trkpt lat="32.7761" lon="35.522090000000006">
        <ele>160</ele>
        <time>2026-07-13T10:00:07Z</time>
      </trkpt>
      <trkpt lat="32.77595" lon="35.522180000000006">
        <ele>166</ele>
        <time>2026-07-13T10:00:08Z</time>
      </trkpt>
      <trkpt lat="32.775780000000005" lon="35.52228">
        <ele>166</ele>
        <time>2026-07-13T10:00:09Z</time>
      </trkpt>
      <trkpt lat="32.775780000000005" lon="35.52228">
        <ele>163.11702472447772</ele>
        <time>2026-07-13T10:00:10Z</time>
      </trkpt>
      <trkpt lat="32.775600000000004" lon="35.522470000000006">
        <ele>166</ele>
        <time>2026-07-13T10:00:11Z</time>
      </trkpt>
      <trkpt lat="32.775600000000004" lon="35.522470000000006">
        <ele>166</ele>
        <time>2026-07-13T10:00:12Z</time>
      </trkpt>
      <trkpt lat="32.775380000000006" lon="35.522780000000004">
        <ele>166</ele>
        <time>2026-07-13T10:00:13Z</time>
      </trkpt>
      <trkpt lat="32.775130000000004" lon="35.523340000000005">
        <ele>169</ele>
        <time>2026-07-13T10:00:14Z</time>
      </trkpt>
      <trkpt lat="32.774840000000005" lon="35.52378">
        <ele>158</ele>
        <time>2026-07-13T10:00:15Z</time>
      </trkpt>
      <trkpt lat="32.774840000000005" lon="35.52378">
        <ele>166.16791878724754</ele>
        <time>2026-07-13T10:00:16Z</time>
      </trkpt>
      <trkpt lat="32.77461" lon="35.524350000000005">
        <ele>158</ele>
        <time>2026-07-13T10:00:17Z</time>
      </trkpt>
      <trkpt lat="32.77434" lon="35.52487">
        <ele>167</ele>
        <time>2026-07-13T10:00:18Z</time>
      </trkpt>
      <trkpt lat="32.77394" lon="35.52552">
        <ele>158</ele>
        <time>2026-07-13T10:00:19Z</time>
      </trkpt>
      <trkpt lat="32.77387" lon="35.525670000000005">
        <ele>158</ele>
        <time>2026-07-13T10:00:20Z</time>
      </trkpt>
      <trkpt lat="32.773810000000005" lon="35.525940000000006">
        <ele>158</ele>
        <time>2026-07-13T10:00:21Z</time>
      </trkpt>
      <trkpt lat="32.773810000000005" lon="35.525940000000006">
        <ele>165.3286543300752</ele>
        <time>2026-07-13T10:00:22Z</time>
      </trkpt>
      <trkpt lat="32.773790000000005" lon="35.52629">
        <ele>148</ele>
        <time>2026-07-13T10:00:23Z</time>
      </trkpt>
      <trkpt lat="32.77375" lon="35.52725">
        <ele>147</ele>
        <time>2026-07-13T10:00:24Z</time>
      </trkpt>
      <trkpt lat="32.77375" lon="35.527590000000004">
        <ele>147</ele>
        <time>2026-07-13T10:00:25Z</time>
      </trkpt>
      <trkpt lat="32.77378" lon="35.528240000000004">
        <ele>148</ele>
        <time>2026-07-13T10:00:26Z</time>
      </trkpt>
      <trkpt lat="32.77375" lon="35.52872">
        <ele>148</ele>
        <time>2026-07-13T10:00:27Z</time>
      </trkpt>
      <trkpt lat="32.77375" lon="35.52872">
        <ele>158.97797006292967</ele>
        <time>2026-07-13T10:00:28Z</time>
      </trkpt>
      <trkpt lat="32.77365" lon="35.52901">
        <ele>142</ele>
        <time>2026-07-13T10:00:29Z</time>
      </trkpt>
      <trkpt lat="32.77355" lon="35.52935">
        <ele>142</ele>
        <time>2026-07-13T10:00:30Z</time>
      </trkpt>
      <trkpt lat="32.773500000000006" lon="35.529630000000004">
        <ele>157</ele>
        <time>2026-07-13T10:00:31Z</time>
      </trkpt>
      <trkpt lat="32.773500000000006" lon="35.530150000000006">
        <ele>157</ele>
        <time>2026-07-13T10:00:32Z</time>
      </trkpt>
      <trkpt lat="32.77297" lon="35.53029">
        <ele>157</ele>
        <time>2026-07-13T10:00:33Z</time>
      </trkpt>
      <trkpt lat="32.77297" lon="35.53029">
        <ele>155.5284261917614</ele>
        <time>2026-07-13T10:00:34Z</time>
      </trkpt>
      <trkpt lat="32.77297" lon="35.53029">
        <ele>157</ele>
        <time>2026-07-13T10:00:35Z</time>
      </trkpt>
      <trkpt lat="32.77282" lon="35.53036">
        <ele>157</ele>
        <time>2026-07-13T10:00:36Z</time>
      </trkpt>
      <trkpt lat="32.772850000000005" lon="35.53042">
        <ele>145</ele>
        <time>2026-07-13T10:00:37Z</time>
      </trkpt>
      <trkpt lat="32.77293" lon="35.530460000000005">
        <ele>145</ele>
        <time>2026-07-13T10:00:38Z</time>
      </trkpt>
      <trkpt lat="32.77301" lon="35.53047">
        <ele>145</ele>
        <time>2026-07-13T10:00:39Z</time>
      </trkpt>
      <trkpt lat="32.77301" lon="35.53047">
        <ele>151.00058393191696</ele>
        <time>2026-07-13T10:00:40Z</time>
      </trkpt>
      <trkpt lat="32.773160000000004" lon="35.53047">
        <ele>145</ele>
        <time>2026-07-13T10:00:41Z</time>
      </trkpt>
      <trkpt lat="32.773230000000005" lon="35.53049">
        <ele>145</ele>
        <time>2026-07-13T10:00:42Z</time>
      </trkpt>
      <trkpt lat="32.773300000000006" lon="35.53054">
        <ele>145</ele>
        <time>2026-07-13T10:00:43Z</time>
      </trkpt>
      <trkpt lat="32.77347" lon="35.530930000000005">
        <ele>145</ele>
        <time>2026-07-13T10:00:44Z</time>
      </trkpt>
      <trkpt lat="32.773720000000004" lon="35.53135">
        <ele>126</ele>
        <time>2026-07-13T10:00:45Z</time>
      </trkpt>
      <trkpt lat="32.773720000000004" lon="35.53135">
        <ele>131.16093291796278</ele>
        <time>2026-07-13T10:00:46Z</time>
      </trkpt>
      <trkpt lat="32.77382" lon="35.53148">
        <ele>126</ele>
        <time>2026-07-13T10:00:47Z</time>
      </trkpt>
      <trkpt lat="32.77393" lon="35.53154">
        <ele>126</ele>
        <time>2026-07-13T10:00:48Z</time>
      </trkpt>
      <trkpt lat="32.774100000000004" lon="35.531620000000004">
        <ele>121</ele>
        <time>2026-07-13T10:00:49Z</time>
      </trkpt>
      <extensions>
        <RoutingType xmlns="">Hike</RoutingType>
      </extensions>
    </trkseg>
  </trk>
</gpx>
